poi_id,name,province,city,district,address,official_category,source_official,source_blog,content_type,exploration_level,social_density,structure_level,needs_manual_check
1,东方明珠广播电视塔,上海市,上海市,浦东新区,浦东新区世纪大道 1 号,5A 级景区,TRUE,FALSE,general,iconic,mixed,highly-structured,FALSE
2,上海野生动物园,上海市,上海市,浦东新区,浦东新区南六公路 178 号,5A 级景区,TRUE,FALSE,general,iconic,mixed,highly-structured,FALSE
3,上海科技馆,上海市,上海市,浦东新区,浦东新区世纪大道 2000 号,5A 级景区,TRUE,FALSE,general,iconic,mixed,highly-structured,FALSE
4,中国共产党一大·二大·四大纪念馆,上海市,上海市,黄浦区,黄浦区黄陂南路 374 号（一大）、静安区老成都北路 7 弄 30 号（二大）、虹口区四川北路 1468 号（四大）,5A 级景区,TRUE,FALSE,history_culture,iconic,low-social,highly-structured,FALSE
5,上海市崇明区西沙明珠湖景区,上海市,上海市,崇明区,崇明区三华公路 333 号,5A 级景区,TRUE,FALSE,nature,iconic,low-social,highly-structured,FALSE
6,上海博物馆,上海市,上海市,黄浦区,黄浦区人民大道 201 号,4A 级景区,TRUE,TRUE,history_culture,semi-known,low-social,highly-structured,FALSE
7,上海佘山国家森林公园,上海市,上海市,松江区,松江区外青松公路 9258 号,4A 级景区,TRUE,FALSE,nature,semi-known,low-social,highly-structured,FALSE
8,上海豫园,上海市,上海市,黄浦区,黄浦区豫园老街 279 号,4A 级景区,TRUE,FALSE,general,semi-known,mixed,highly-structured,FALSE
9,金茂大厦 88 层观光厅,上海市,上海市,浦东新区,浦东新区世纪大道 88 号,4A 级景区,TRUE,FALSE,general,semi-known,mixed,highly-structured,FALSE
10,上海城市规划展示馆,上海市,上海市,黄浦区,黄浦区人民大道 100 号,4A 级景区,TRUE,TRUE,art_design,semi-known,mixed,highly-structured,FALSE
11,东平国家森林公园,上海市,上海市,崇明区,崇明区北沿公路 2188 号,4A 级景区,TRUE,FALSE,nature,semi-known,low-social,highly-structured,FALSE
12,上海动物园,上海市,上海市,长宁区,长宁区虹桥路 2381 号,4A 级景区,TRUE,FALSE,general,semi-known,mixed,highly-structured,FALSE
13,上海世纪公园,上海市,上海市,浦东新区,浦东新区锦绣路 1001 号,4A 级景区,TRUE,FALSE,nature,semi-known,low-social,highly-structured,FALSE
14,上海大观园,上海市,上海市,青浦区,青浦区青商路 701 号,4A 级景区,TRUE,FALSE,general,semi-known,mixed,highly-structured,FALSE
15,上海共青森林公园,上海市,上海市,杨浦区,杨浦区军工路 2000 号,4A 级景区,TRUE,FALSE,nature,semi-known,low-social,highly-structured,FALSE
16,朱家角古镇,上海市,上海市,青浦区,青浦区朱家角镇内,4A 级景区,TRUE,FALSE,general,semi-known,mixed,highly-structured,FALSE
17,上海古猗园,上海市,上海市,嘉定区,嘉定区沪宜公路 218 号,4A 级景区,TRUE,FALSE,general,semi-known,mixed,highly-structured,FALSE
18,上海方塔园,上海市,上海市,松江区,松江区中山东路 235 号,4A 级景区,TRUE,FALSE,general,semi-known,mixed,highly-structured,FALSE
19,上海市青少年校外活动营地 - 东方绿舟,上海市,上海市,青浦区,青浦区沪青平公路 6888 号,4A 级景区,TRUE,FALSE,general,semi-known,mixed,highly-structured,FALSE
20,枫泾古镇,上海市,上海市,金山区,金山区亭枫公路 8588 弄 28 号,4A 级景区,TRUE,FALSE,general,semi-known,mixed,highly-structured,FALSE
21,锦江乐园,上海市,上海市,闵行区,闵行区虹梅路 201 号,4A 级景区,TRUE,FALSE,general,semi-known,mixed,highly-structured,FALSE
22,金山城市沙滩景区,上海市,上海市,金山区,金山区沪杭公路 7555 号,4A 级景区,TRUE,FALSE,general,semi-known,mixed,highly-structured,FALSE
23,碧海金沙景区,上海市,上海市,奉贤区,奉贤区海湾旅游区海涵路 6 号,4A 级景区,TRUE,FALSE,general,semi-known,mixed,highly-structured,FALSE
24,上海海洋水族馆,上海市,上海市,浦东新区,浦东新区陆家嘴环路 1388 号,4A 级景区,TRUE,FALSE,general,semi-known,mixed,highly-structured,FALSE
25,上海鲜花港,上海市,上海市,浦东新区,浦东新区东海农场振东路 2 号,4A 级景区,TRUE,FALSE,general,semi-known,mixed,highly-structured,FALSE
26,上海月湖雕塑公园,上海市,上海市,松江区,松江区佘山度假区林荫新路 1158 号,4A 级景区,TRUE,FALSE,nature,semi-known,low-social,highly-structured,FALSE
27,上海嘉定州桥,上海市,上海市,嘉定区,嘉定区嘉定镇街道城中街 40 弄 1,4A 级景区,TRUE,FALSE,general,semi-known,mixed,highly-structured,FALSE
28,上海都市菜园景区,上海市,上海市,奉贤区,奉贤区海湾镇海兴路 888 弄,4A 级景区,TRUE,FALSE,general,semi-known,mixed,highly-structured,FALSE
29,上海长风公园·长风海洋世界景区,上海市,上海市,普陀区,普陀区大渡河路 189 号,4A 级景区,TRUE,FALSE,nature,semi-known,low-social,highly-structured,FALSE
30,上海海上花岛前卫村景区,上海市,上海市,崇明区,崇明区竖新镇前卫村,4A 级景区,TRUE,FALSE,general,semi-known,mixed,highly-structured,FALSE
31,上海海湾国家森林公园,上海市,上海市,奉贤区,奉贤区海湾镇随塘河路 1677 号,4A 级景区,TRUE,FALSE,nature,semi-known,low-social,highly-structured,FALSE
32,中国航海博物馆,上海市,上海市,浦东新区,浦东新区临港新城申港大道 197 号,4A 级景区,TRUE,FALSE,history_culture,semi-known,low-social,highly-structured,FALSE
33,上海欢乐谷,上海市,上海市,松江区,松江区佘山林湖路 888 号,4A 级景区,TRUE,FALSE,general,semi-known,mixed,highly-structured,FALSE
34,上海植物园,上海市,上海市,徐汇区,徐汇区龙吴路 1111 号,4A 级景区,TRUE,FALSE,general,semi-known,mixed,highly-structured,FALSE
35,上海南翔景区,上海市,上海市,嘉定区,嘉定区南翔镇解放街 206 号,4A 级景区,TRUE,FALSE,general,semi-known,mixed,highly-structured,FALSE
36,上海宋庆龄故居纪念馆,上海市,上海市,徐汇区,徐汇区淮海中路 1843 号,4A 级景区,TRUE,FALSE,history_culture,semi-known,low-social,highly-structured,FALSE
37,上海东林寺景区,上海市,上海市,金山区,金山区朱泾镇东林街 150 号,4A 级景区,TRUE,FALSE,general,semi-known,mixed,highly-structured,FALSE
38,上海顾村公园景区,上海市,上海市,宝山区,宝山区沪太路 4788 号环岛路 1 号,4A 级景区,TRUE,FALSE,nature,semi-known,low-social,highly-structured,FALSE
39,上海徐家汇源景区,上海市,上海市,徐汇区,徐汇区漕溪北路 90 号,4A 级景区,TRUE,FALSE,general,semi-known,mixed,highly-structured,FALSE
40,上海辰山植物园,上海市,上海市,松江区,松江区辰花公路 3888 号,4A 级景区,TRUE,FALSE,general,semi-known,mixed,highly-structured,FALSE
41,上海炮台湾景区,上海市,上海市,宝山区,宝山区塘后路 206 号,4A 级景区,TRUE,FALSE,general,semi-known,mixed,highly-structured,FALSE
42,上海宝山国际民间艺术博览馆景区,上海市,上海市,宝山区,宝山区沪太路 4788 号,4A 级景区,TRUE,FALSE,art_design,semi-known,mixed,highly-structured,FALSE
43,上海汽车博览公园,上海市,上海市,宝山区,宝山区博园路 7001 号,4A 级景区,TRUE,TRUE,nature,semi-known,low-social,highly-structured,FALSE
44,上海闻道园,上海市,上海市,宝山区,宝山区潘泾路 2888 号,4A 级景区,TRUE,FALSE,general,semi-known,mixed,highly-structured,FALSE
45,上海江南三民文化村景区,上海市,上海市,崇明区,崇明区林风公路 2201 号,4A 级景区,TRUE,FALSE,general,semi-known,mixed,highly-structured,FALSE
46,上海国际时尚中心,上海市,上海市,杨浦区,杨浦区杨树浦路 2866 号,4A 级景区,TRUE,FALSE,general,semi-known,mixed,highly-structured,FALSE
47,上海召稼楼景区,上海市,上海市,闵行区,闵行区浦江镇沈杜公路（近苏召路）,4A 级景区,TRUE,FALSE,general,semi-known,mixed,highly-structured,FALSE
48,上海玻璃博物馆,上海市,上海市,宝山区,宝山区长江西路 685 号,4A 级景区,TRUE,FALSE,history_culture,semi-known,low-social,highly-structured,FALSE
49,上海国际赛车场旅游景区,上海市,上海市,嘉定区,嘉定区伊宁路 2199 号,4A 级景区,TRUE,FALSE,general,semi-known,mixed,highly-structured,FALSE
50,上海杜莎夫人蜡像馆,上海市,上海市,黄浦区,黄浦区南京西路 2-68 号新世界十楼,4A 级景区,TRUE,FALSE,general,semi-known,mixed,highly-structured,FALSE
51,陈云故里·练塘古镇景区,上海市,上海市,青浦区,青浦区朱枫公路 3516 号,4A 级景区,TRUE,FALSE,urban_walk,semi-known,mixed,highly-structured,FALSE
52,上海市龙华烈士陵园,上海市,上海市,徐汇区,徐汇区龙华西路 180 号,4A 级景区,TRUE,FALSE,general,semi-known,mixed,highly-structured,FALSE
53,上海影视乐园,上海市,上海市,松江区,松江区车墩镇北松公路 4915 号,4A 级景区,TRUE,FALSE,general,semi-known,mixed,highly-structured,FALSE
54,上海薰衣草公园,上海市,上海市,浦东新区,浦东新区申迪东路 399 弄 187 号,4A 级景区,TRUE,FALSE,nature,semi-known,low-social,highly-structured,FALSE
55,上海联怡枇杷乐园,上海市,上海市,青浦区,青浦区外青松公路 7166 号,4A 级景区,TRUE,FALSE,general,semi-known,mixed,highly-structured,FALSE
56,上海金山嘴渔村,上海市,上海市,金山区,金山区沪杭公路 6394 号,4A 级景区,TRUE,FALSE,general,semi-known,mixed,highly-structured,FALSE
57,上海北外滩国客中心景区,上海市,上海市,虹口区,虹口区东大名路 500 号,4A 级景区,TRUE,FALSE,general,semi-known,mixed,highly-structured,FALSE
58,上海东滩湿地公园,上海市,上海市,崇明区,崇明区陈家镇东旺路（风车处）,4A 级景区,TRUE,FALSE,nature,semi-known,low-social,highly-structured,FALSE
59,上海之巅观光厅,上海市,上海市,浦东新区,浦东新区银城中路 501 号,4A 级景区,TRUE,FALSE,general,semi-known,mixed,highly-structured,FALSE
60,上海长兴岛郊野公园,上海市,上海市,崇明区,崇明区长兴镇秋柑路 666 号,4A 级景区,TRUE,FALSE,nature,semi-known,low-social,highly-structured,FALSE
61,比斯特上海购物村景区,上海市,上海市,浦东新区,浦东新区申迪东路 88 号,4A 级景区,TRUE,FALSE,general,semi-known,mixed,highly-structured,FALSE
62,上海浦江郊野公园景区,上海市,上海市,闵行区,闵行区浦星公路 2578 弄 8 号,4A 级景区,TRUE,FALSE,nature,semi-known,low-social,highly-structured,FALSE
63,上海张马景区,上海市,上海市,青浦区,青浦区朱家角镇沈太路 2119 号,4A 级景区,TRUE,FALSE,general,semi-known,mixed,highly-structured,FALSE
64,上海海昌海洋公园,上海市,上海市,浦东新区,浦东新区南汇新城镇银飞路 166 号,4A 级景区,TRUE,FALSE,nature,semi-known,low-social,highly-structured,FALSE
65,上海闵行文化公园,上海市,上海市,闵行区,闵行区七宝镇吴中路 2019 号,4A 级景区,TRUE,FALSE,nature,semi-known,low-social,highly-structured,FALSE
66,上海七宝古镇,上海市,上海市,闵行区,闵行区七宝镇横沥路 108 号,4A 级景区,TRUE,FALSE,general,semi-known,mixed,highly-structured,FALSE
67,上海广富林文化遗址,上海市,上海市,松江区,松江区广富林路 3206 弄,4A 级景区,TRUE,FALSE,general,semi-known,mixed,highly-structured,FALSE
68,上海醉白池公园,上海市,上海市,松江区,松江区人民南路 64 号,4A 级景区,TRUE,FALSE,nature,semi-known,low-social,highly-structured,FALSE
69,上海高家庄生态园,上海市,上海市,崇明区,崇明区港东公路 999 号,4A 级景区,TRUE,FALSE,general,semi-known,mixed,highly-structured,FALSE
70,上海廊下郊野公园景区,上海市,上海市,金山区,金山区漕廊公路 9133 号、廊下镇山塘村 1092 号,4A 级景区,TRUE,FALSE,nature,semi-known,low-social,highly-structured,FALSE
71,上海蓝精灵乐园,上海市,上海市,松江区,松江区辰花路 5088 号,4A 级景区,TRUE,FALSE,general,semi-known,mixed,highly-structured,FALSE
72,上海犹太难民纪念馆,上海市,上海市,虹口区,虹口区长阳路 62 号,4A 级景区,TRUE,FALSE,history_culture,semi-known,low-social,highly-structured,FALSE
73,上海笔墨宫坊景区,上海市,上海市,杨浦区,杨浦区军工路 1300 号合生茶岸文创园 16 幢,4A 级景区,TRUE,FALSE,general,semi-known,mixed,highly-structured,FALSE
74,上海花开海上生态园,上海市,上海市,金山区,金山区朱泾镇待泾村秀泾 6060 号,4A 级景区,TRUE,FALSE,general,semi-known,mixed,highly-structured,FALSE
75,上海云堡未来市艺术文创景区,上海市,上海市,松江区,松江区洞泾镇王家厍路 885 弄,4A 级景区,TRUE,FALSE,art_design,semi-known,mixed,highly-structured,FALSE
76,上海金泽古镇景区,上海市,上海市,青浦区,青浦区金泽镇迎祥街 33 号（金泽古镇游客中心）,4A 级景区,TRUE,FALSE,general,semi-known,mixed,highly-structured,FALSE
77,中国太平洋保险公司（亚西亚大楼、上海银行）,上海市,上海市,黄浦区,中山东一路1号,优秀历史建筑,TRUE,FALSE,history_culture,semi-known,low-social,free-flow,FALSE
78,东风饭店（上海总会）,上海市,上海市,黄浦区,中山东一路2号,优秀历史建筑,TRUE,FALSE,history_culture,semi-known,low-social,free-flow,FALSE
79,浦东发展银行（汇丰银行大楼）,上海市,上海市,黄浦区,中山东一路10-12号,优秀历史建筑,TRUE,FALSE,history_culture,semi-known,low-social,free-flow,FALSE
80,上海海关（江海关）,上海市,上海市,黄浦区,中山东一路13号,优秀历史建筑,TRUE,FALSE,history_culture,semi-known,low-social,free-flow,FALSE
81,和平饭店南楼（汇中饭店）,上海市,上海市,黄浦区,中山东一路19号,优秀历史建筑,TRUE,FALSE,history_culture,semi-known,low-social,free-flow,FALSE
82,和平饭店北楼（沙逊大厦）,上海市,上海市,黄浦区,中山东一路20号,优秀历史建筑,TRUE,FALSE,history_culture,semi-known,low-social,free-flow,FALSE
83,中国银行上海分行,上海市,上海市,黄浦区,中山东一路23号,优秀历史建筑,TRUE,FALSE,history_culture,semi-known,low-social,free-flow,FALSE
84,市对外贸易局（怡和银行）,上海市,上海市,黄浦区,中山东一路27号,优秀历史建筑,TRUE,FALSE,history_culture,semi-known,low-social,free-flow,FALSE
85,光大银行（东方汇理银行）,上海市,上海市,黄浦区,中山东一路29号,优秀历史建筑,TRUE,FALSE,history_culture,semi-known,low-social,free-flow,FALSE
86,大世界游乐场,上海市,上海市,黄浦区,西藏南路1号,优秀历史建筑,TRUE,FALSE,history_culture,semi-known,low-social,free-flow,FALSE
87,青年会宾馆（八仙桥基督教青年会）,上海市,上海市,黄浦区,西藏南路123号,优秀历史建筑,TRUE,FALSE,history_culture,semi-known,low-social,free-flow,FALSE
88,上海音乐厅（南京大戏院）,上海市,上海市,黄浦区,延安东路523号,优秀历史建筑,TRUE,FALSE,history_culture,semi-known,low-social,free-flow,FALSE
89,国际饭店（四行储蓄会大楼）,上海市,上海市,黄浦区,南京西路170号,优秀历史建筑,TRUE,FALSE,history_culture,semi-known,low-social,free-flow,FALSE
90,上海市体育总会、市体委（西桥青年会）,上海市,上海市,黄浦区,南京西路150号,优秀历史建筑,TRUE,FALSE,history_culture,semi-known,low-social,free-flow,FALSE
91,金门大酒店（华安人寿保险公司）,上海市,上海市,黄浦区,南京西路104号,优秀历史建筑,TRUE,FALSE,history_culture,semi-known,low-social,free-flow,FALSE
92,大光明电影院（大光明大戏院）,上海市,上海市,黄浦区,南京西路216号,优秀历史建筑,TRUE,FALSE,history_culture,semi-known,low-social,free-flow,FALSE
93,上海美术馆（跑马总会）,上海市,上海市,黄浦区,南京西路325号,优秀历史建筑,TRUE,FALSE,history_culture,semi-known,low-social,free-flow,FALSE
94,沐恩堂（基督教慕尔堂）,上海市,上海市,黄浦区,西藏中路316号,优秀历史建筑,TRUE,FALSE,history_culture,semi-known,low-social,free-flow,FALSE
95,华侨商店、华联商厦（老、新永安公司）,上海市,上海市,黄浦区,南京东路627-635号,优秀历史建筑,TRUE,FALSE,history_culture,semi-known,low-social,free-flow,FALSE
96,时装公司、东亚饭店（先施公司）,上海市,上海市,黄浦区,南京东路690号,优秀历史建筑,TRUE,FALSE,history_culture,semi-known,low-social,free-flow,FALSE
97,第一食品商店（新新公司）,上海市,上海市,黄浦区,南京东路720号,优秀历史建筑,TRUE,FALSE,history_culture,semi-known,low-social,free-flow,FALSE
98,第一百货商店（大新公司）,上海市,上海市,黄浦区,南京东路830号,优秀历史建筑,TRUE,FALSE,history_culture,semi-known,low-social,free-flow,FALSE
99,大上海电影院（大上海大戏院）,上海市,上海市,黄浦区,西藏中路520号,优秀历史建筑,TRUE,FALSE,history_culture,semi-known,low-social,free-flow,FALSE
100,老市政府大楼（公共租界工部局）,上海市,上海市,黄浦区,江西中路215、209号；汉口路193、223、239号,优秀历史建筑,TRUE,FALSE,history_culture,semi-known,low-social,free-flow,FALSE
101,黄浦区政府礼堂（圣三一基督教堂）,上海市,上海市,黄浦区,九江路201号,优秀历史建筑,TRUE,FALSE,history_culture,semi-known,low-social,free-flow,FALSE
102,交通银行（金城银行）,上海市,上海市,黄浦区,江西中路200号,优秀历史建筑,TRUE,FALSE,history_culture,semi-known,low-social,free-flow,FALSE
103,董家渡天主堂,上海市,上海市,黄浦区,董家渡路175号,优秀历史建筑,TRUE,FALSE,history_culture,semi-known,low-social,free-flow,FALSE
104,步高里,上海市,上海市,黄浦区,陕西南路287号,优秀历史建筑,TRUE,FALSE,history_culture,semi-known,low-social,free-flow,FALSE
105,瑞金宾馆1号楼（瑞金二路住宅）,上海市,上海市,黄浦区,瑞金二路18号,优秀历史建筑,TRUE,FALSE,history_culture,semi-known,low-social,free-flow,FALSE
106,尚贤坊,上海市,上海市,黄浦区,淮海中路50号,优秀历史建筑,TRUE,FALSE,history_culture,semi-known,low-social,free-flow,FALSE
107,锦江宾馆北楼（华懋公寓）,上海市,上海市,黄浦区,长乐路109号,优秀历史建筑,TRUE,FALSE,history_culture,semi-known,low-social,free-flow,FALSE
108,锦江宾馆中、西楼（峻岭公寓、茂名公寓）,上海市,上海市,黄浦区,茂名南路65-125号,优秀历史建筑,TRUE,FALSE,history_culture,semi-known,low-social,free-flow,FALSE
109,美琪大戏院,上海市,上海市,静安区,江宁路66号,优秀历史建筑,TRUE,FALSE,history_culture,semi-known,low-social,free-flow,FALSE
110,华业大楼（华业公寓）,上海市,上海市,静安区,陕西北路175号,优秀历史建筑,TRUE,FALSE,history_culture,semi-known,low-social,free-flow,FALSE
111,涌泉坊,上海市,上海市,静安区,愚园路395弄1-24号,优秀历史建筑,TRUE,FALSE,history_culture,semi-known,low-social,free-flow,FALSE
112,裕华新村,上海市,上海市,静安区,富民路182弄1-32,优秀历史建筑,TRUE,FALSE,history_culture,semi-known,low-social,free-flow,FALSE
113,市少年宫（嘉道理爵士住宅）,上海市,上海市,静安区,延安西路64号,优秀历史建筑,TRUE,FALSE,history_culture,semi-known,low-social,free-flow,FALSE
114,华东医院南楼（宏恩医院）,上海市,上海市,静安区,延安西路221号,优秀历史建筑,TRUE,FALSE,history_culture,semi-known,low-social,free-flow,FALSE
115,团市委、宾馆（马勒住宅）,上海市,上海市,静安区,陕西南路30号,优秀历史建筑,TRUE,FALSE,history_culture,semi-known,low-social,free-flow,FALSE
116,徐家汇天主堂,上海市,上海市,徐汇区,徐家汇浦西路158号,优秀历史建筑,TRUE,FALSE,history_culture,semi-known,low-social,free-flow,FALSE
117,国际礼拜堂,上海市,上海市,徐汇区,衡山路58号,优秀历史建筑,TRUE,FALSE,history_culture,semi-known,low-social,free-flow,FALSE
118,工艺美术研究所（汾阳路79号住宅）,上海市,上海市,徐汇区,汾阳路79号,优秀历史建筑,TRUE,FALSE,history_culture,semi-known,low-social,free-flow,FALSE
119,日本领事馆（盛宣怀住宅）,上海市,上海市,徐汇区,淮海中路1517号,优秀历史建筑,TRUE,FALSE,history_culture,semi-known,low-social,free-flow,FALSE
120,上海海关招待所（汾阳路45号）,上海市,上海市,徐汇区,汾阳路45号,优秀历史建筑,TRUE,FALSE,history_culture,semi-known,low-social,free-flow,FALSE
121,新康花园,上海市,上海市,徐汇区,淮海中路1273号,优秀历史建筑,TRUE,FALSE,history_culture,semi-known,low-social,free-flow,FALSE
122,湖南街道办事处（修道院公寓）,上海市,上海市,徐汇区,复兴西路62号,优秀历史建筑,TRUE,FALSE,history_culture,semi-known,low-social,free-flow,FALSE
123,上海大厦（百老会大厦）,上海市,上海市,虹口区,北苏州河路2号,优秀历史建筑,TRUE,FALSE,history_culture,semi-known,low-social,free-flow,FALSE
124,上海市邮政局（上海邮政总局）,上海市,上海市,虹口区,北苏州河路250-276号,优秀历史建筑,TRUE,FALSE,history_culture,semi-known,low-social,free-flow,FALSE
125,俄罗斯领事馆（俄罗斯领事馆/苏联领事馆）,上海市,上海市,虹口区,黄浦路20号,优秀历史建筑,TRUE,FALSE,history_culture,semi-known,low-social,free-flow,FALSE
126,住宅（多伦路250号住宅）,上海市,上海市,虹口区,多伦路250号,优秀历史建筑,TRUE,FALSE,history_culture,semi-known,low-social,free-flow,FALSE
127,体育学院办公楼（旧上海特别市政府）,上海市,上海市,杨浦区,清源环路650号,优秀历史建筑,TRUE,FALSE,history_culture,semi-known,low-social,free-flow,FALSE
128,江湾体育场（上海市体育场）,上海市,上海市,杨浦区,国和路346号,优秀历史建筑,TRUE,FALSE,history_culture,semi-known,low-social,free-flow,FALSE
129,杨树浦自来水之水有限公司（杨树浦水厂）,上海市,上海市,杨浦区,杨树浦路830号（许昌路口）,优秀历史建筑,TRUE,FALSE,history_culture,semi-known,low-social,free-flow,FALSE
130,西郊宾馆4号楼（淮阴路姚氏住宅）,上海市,上海市,长宁区,淮阴路200号,优秀历史建筑,TRUE,FALSE,history_culture,semi-known,low-social,free-flow,FALSE
131,龙柏饭店（沙逊别墅）,上海市,上海市,长宁区,虹桥路2409号,优秀历史建筑,TRUE,FALSE,history_culture,semi-known,low-social,free-flow,FALSE
132,上海生物制品研究所办公楼（孙科住宅）,上海市,上海市,长宁区,延安西路1262号,优秀历史建筑,TRUE,FALSE,history_culture,semi-known,low-social,free-flow,FALSE
133,海南置地上海公司（虹桥路2310号住宅）,上海市,上海市,长宁区,虹桥路2310号,优秀历史建筑,TRUE,FALSE,history_culture,semi-known,low-social,free-flow,FALSE
134,住宅（泰安路115弄花园里弄住宅）,上海市,上海市,长宁区,泰安路115弄1-8号,优秀历史建筑,TRUE,FALSE,history_culture,semi-known,low-social,free-flow,FALSE
135,兴国宾馆1号楼（兴国路住宅）,上海市,上海市,长宁区,兴国路72号,优秀历史建筑,TRUE,FALSE,history_culture,semi-known,low-social,free-flow,FALSE
136,长宁区少年宫（王伯群住宅）,上海市,上海市,长宁区,愚园路1136弄31号,优秀历史建筑,TRUE,FALSE,history_culture,semi-known,low-social,free-flow,FALSE
137,佘山天主教堂,上海市,上海市,松江区,松江县佘山,优秀历史建筑,TRUE,FALSE,history_culture,semi-known,low-social,free-flow,FALSE
138,住总公司机电设计院（法国邮船大楼）,上海市,上海市,黄浦区,中山东二路9号,优秀历史建筑,TRUE,FALSE,history_culture,semi-known,low-social,free-flow,FALSE
139,上海建筑设计研究院（有利银行）,上海市,上海市,黄浦区,中山东一路4号,优秀历史建筑,TRUE,FALSE,history_culture,semi-known,low-social,free-flow,FALSE
140,华夏银行（中国通商银行）,上海市,上海市,黄浦区,中山东一路6号,优秀历史建筑,TRUE,FALSE,history_culture,semi-known,low-social,free-flow,FALSE
141,盘谷银行上海分行（大北电报局）,上海市,上海市,黄浦区,中山东一路7号,优秀历史建筑,TRUE,FALSE,history_culture,semi-known,low-social,free-flow,FALSE
142,中国外汇交易中心（华俄道胜银行）,上海市,上海市,黄浦区,中山东一路15号,优秀历史建筑,TRUE,FALSE,history_culture,semi-known,low-social,free-flow,FALSE
143,工艺品进出口公司（台湾银行）,上海市,上海市,黄浦区,中山东一路16号,优秀历史建筑,TRUE,FALSE,history_culture,semi-known,low-social,free-flow,FALSE
144,丝绸进出口公司、上海通联实业总公司（字林西报大楼）,上海市,上海市,黄浦区,中山东一路17号,优秀历史建筑,TRUE,FALSE,history_culture,semi-known,low-social,free-flow,FALSE
145,上海家用纺织品进出口公司（麦加利银行）,上海市,上海市,黄浦区,中山东一路18号,优秀历史建筑,TRUE,FALSE,history_culture,semi-known,low-social,free-flow,FALSE
146,工商银行、纺织控股集团公司（横滨正金银行）,上海市,上海市,黄浦区,中山东一路24号,优秀历史建筑,TRUE,FALSE,history_culture,semi-known,low-social,free-flow,FALSE
147,市机管局（英国领事馆）,上海市,上海市,黄浦区,中山东一路33号1#楼、中山东一路33号8#楼,优秀历史建筑,TRUE,FALSE,history_culture,semi-known,low-social,free-flow,FALSE
148,外滩史陈列室（外滩信号台）,上海市,上海市,黄浦区,中山东二路,优秀历史建筑,TRUE,FALSE,history_culture,semi-known,low-social,free-flow,FALSE
149,外白渡桥,上海市,上海市,黄浦区,外白渡桥,优秀历史建筑,TRUE,TRUE,history_culture,semi-known,low-social,free-flow,FALSE
150,乍浦路桥,上海市,上海市,黄浦区,乍浦路,优秀历史建筑,TRUE,TRUE,history_culture,semi-known,low-social,free-flow,FALSE
151,四川路桥,上海市,上海市,黄浦区,四川中路,优秀历史建筑,TRUE,FALSE,history_culture,semi-known,low-social,free-flow,FALSE
152,上海广播电视台（格林邮船大楼）,上海市,上海市,黄浦区,北京东路2号,优秀历史建筑,TRUE,FALSE,history_culture,semi-known,low-social,free-flow,FALSE
153,海运服务公司（洋行）,上海市,上海市,黄浦区,滇池路100号,优秀历史建筑,TRUE,FALSE,history_culture,semi-known,low-social,free-flow,FALSE
154,电视社杂志社（洋行）,上海市,上海市,黄浦区,滇池路120号,优秀历史建筑,TRUE,FALSE,history_culture,semi-known,low-social,free-flow,FALSE
155,圆明园酒家（洋行）,上海市,上海市,黄浦区,北京东路81号,优秀历史建筑,TRUE,FALSE,history_culture,semi-known,low-social,free-flow,FALSE
156,黄浦税务局（国华银行大楼）,上海市,上海市,黄浦区,北京东路342号,优秀历史建筑,TRUE,FALSE,history_culture,semi-known,low-social,free-flow,FALSE
157,市文体进出口公司（广学大楼）,上海市,上海市,黄浦区,虎丘路128号,优秀历史建筑,TRUE,FALSE,history_culture,semi-known,low-social,free-flow,FALSE
158,外贸会堂（光陆大戏院）,上海市,上海市,黄浦区,虎丘路146号,优秀历史建筑,TRUE,FALSE,history_culture,semi-known,low-social,free-flow,FALSE
159,爱建公司（银行公会大楼）,上海市,上海市,黄浦区,香港路59号,优秀历史建筑,TRUE,FALSE,history_culture,semi-known,low-social,free-flow,FALSE
160,上海广告公司（洋行）,上海市,上海市,黄浦区,圆明园路97号,优秀历史建筑,TRUE,FALSE,history_culture,semi-known,low-social,free-flow,FALSE
161,市政设计院（女青年会大楼）,上海市,上海市,黄浦区,圆明园路133号,优秀历史建筑,TRUE,FALSE,history_culture,semi-known,low-social,free-flow,FALSE
162,真光大楼,上海市,上海市,黄浦区,圆明园路209号,优秀历史建筑,TRUE,FALSE,history_culture,semi-known,low-social,free-flow,FALSE
163,嘉陵大楼（迦陵大楼）,上海市,上海市,黄浦区,南京东路99号,优秀历史建筑,TRUE,FALSE,history_culture,semi-known,low-social,free-flow,FALSE
164,东海商都（慈淑大楼）,上海市,上海市,黄浦区,南京东路353号,优秀历史建筑,TRUE,FALSE,history_culture,semi-known,low-social,free-flow,FALSE
165,仁济医院（麦家圈医院）,上海市,上海市,黄浦区,山东中路145号,优秀历史建筑,TRUE,FALSE,history_culture,semi-known,low-social,free-flow,FALSE
166,机要局（正广和公司）,上海市,上海市,黄浦区,福州路44号,优秀历史建筑,TRUE,FALSE,history_culture,semi-known,low-social,free-flow,FALSE
167,上海市公安局（总巡捕房）,上海市,上海市,黄浦区,福州路185号,优秀历史建筑,TRUE,FALSE,history_culture,semi-known,low-social,free-flow,FALSE
168,高级法院（美国花旗银行）,上海市,上海市,黄浦区,福州路209号,优秀历史建筑,TRUE,FALSE,history_culture,semi-known,low-social,free-flow,FALSE
169,锦江集团财务公司证券经营部、建设银行三支行（大来大楼）,上海市,上海市,黄浦区,"广东路51,59号",优秀历史建筑,TRUE,FALSE,history_culture,semi-known,low-social,free-flow,FALSE
170,上海巴黎国际银行、轻工业局、老干部大学（永年人寿保险公司）,上海市,上海市,黄浦区,广东路93号,优秀历史建筑,TRUE,FALSE,history_culture,semi-known,low-social,free-flow,FALSE
171,三环房产公司（申报馆）,上海市,上海市,黄浦区,汉口路309号,优秀历史建筑,TRUE,FALSE,history_culture,semi-known,low-social,free-flow,FALSE
172,吉祥里,上海市,上海市,黄浦区,河南中路531-541号,优秀历史建筑,TRUE,FALSE,history_culture,semi-known,low-social,free-flow,FALSE
173,鲤鱼门酒店(礼记洋行),上海市,上海市,黄浦区,江西中路255号,优秀历史建筑,TRUE,FALSE,history_culture,semi-known,low-social,free-flow,FALSE
174,福州大楼(汉弥登大楼),上海市,上海市,黄浦区,江西中路170号,优秀历史建筑,TRUE,FALSE,history_culture,semi-known,low-social,free-flow,FALSE
175,新城饭店(都城饭店),上海市,上海市,黄浦区,江西中路180号,优秀历史建筑,TRUE,FALSE,history_culture,semi-known,low-social,free-flow,FALSE
176,冶金工业局(建设大厦),上海市,上海市,黄浦区,江西中路181号,优秀历史建筑,TRUE,FALSE,history_culture,semi-known,low-social,free-flow,FALSE
177,华东建筑设计研究院(浙江第一商业银行),上海市,上海市,黄浦区,汉口路151号,优秀历史建筑,TRUE,FALSE,history_culture,semi-known,low-social,free-flow,FALSE
178,上海信托投资公司(大陆银行),上海市,上海市,黄浦区,九江路111号,优秀历史建筑,TRUE,FALSE,history_culture,semi-known,low-social,free-flow,FALSE
179,市医药供应公司(物业供应站),上海市,上海市,黄浦区,九江路89号,优秀历史建筑,TRUE,FALSE,history_culture,semi-known,low-social,free-flow,FALSE
180,建设银行分行(上海公库),上海市,上海市,黄浦区,九江路50号,优秀历史建筑,TRUE,FALSE,history_culture,semi-known,low-social,free-flow,FALSE
181,九江路邮电局(中华邮政储金汇业局),上海市,上海市,黄浦区,九江路36号,优秀历史建筑,TRUE,FALSE,history_culture,semi-known,low-social,free-flow,FALSE
182,若瑟堂,上海市,上海市,黄浦区,四川南路36号,优秀历史建筑,TRUE,FALSE,history_culture,semi-known,low-social,free-flow,FALSE
183,轻工业局(企业大楼),上海市,上海市,黄浦区,四川中路33号,优秀历史建筑,TRUE,FALSE,history_culture,semi-known,low-social,free-flow,FALSE
184,上海时运物业集团/上海市新华书店(卜内门大楼),上海市,上海市,黄浦区,四川中路133号,优秀历史建筑,TRUE,FALSE,history_culture,semi-known,low-social,free-flow,FALSE
185,上海浦东国际机场公司(汇丰大楼),上海市,上海市,黄浦区,四川中路220号,优秀历史建筑,TRUE,FALSE,history_culture,semi-known,low-social,free-flow,FALSE
186,化轻公司(四行储蓄会大楼),上海市,上海市,黄浦区,四川中路261号,优秀历史建筑,TRUE,FALSE,history_culture,semi-known,low-social,free-flow,FALSE
187,上海市工人文化宫(东方饭店),上海市,上海市,黄浦区,西藏中路120号,优秀历史建筑,TRUE,FALSE,history_culture,semi-known,low-social,free-flow,FALSE
188,上海黄浦房地产股份有限公司(德士古大楼/会德丰大楼),上海市,上海市,黄浦区,延安东路110号,优秀历史建筑,TRUE,FALSE,history_culture,semi-known,low-social,free-flow,FALSE
189,中汇大楼,上海市,上海市,黄浦区,延安东路143号,优秀历史建筑,TRUE,FALSE,history_culture,semi-known,low-social,free-flow,FALSE
190,上海市自然博物馆(华商纱布交易所),上海市,上海市,黄浦区,延安东路260号,优秀历史建筑,TRUE,FALSE,history_culture,semi-known,low-social,free-flow,FALSE
191,光明中学(中法学堂),上海市,上海市,黄浦区,淮海东路70号,优秀历史建筑,TRUE,FALSE,history_culture,semi-known,low-social,free-flow,FALSE
192,手表七厂办公楼(三井洋行),上海市,上海市,黄浦区,四川中路185号,优秀历史建筑,TRUE,FALSE,history_culture,semi-known,low-social,free-flow,FALSE
193,慈修庵,上海市,上海市,黄浦区,秦岭街15号,优秀历史建筑,TRUE,FALSE,history_culture,semi-known,low-social,free-flow,FALSE
194,小桃园清真寺,上海市,上海市,黄浦区,小桃园街52号（主楼）,优秀历史建筑,TRUE,FALSE,history_culture,semi-known,low-social,free-flow,FALSE
195,清心堂,上海市,上海市,黄浦区,大昌街30号,优秀历史建筑,TRUE,FALSE,history_culture,semi-known,low-social,free-flow,FALSE
196,综合办公楼(法公董局),上海市,上海市,黄浦区,淮海中路375号,优秀历史建筑,TRUE,FALSE,history_culture,semi-known,low-social,free-flow,FALSE
197,培文公寓,上海市,上海市,黄浦区,淮海中路449号,优秀历史建筑,TRUE,FALSE,history_culture,semi-known,low-social,free-flow,FALSE
198,永业大楼,上海市,上海市,黄浦区,淮海中路481号,优秀历史建筑,TRUE,FALSE,history_culture,semi-known,low-social,free-flow,FALSE
199,国泰电影院(国泰大戏院),上海市,上海市,黄浦区,淮海中路870号,优秀历史建筑,TRUE,FALSE,history_culture,semi-known,low-social,free-flow,FALSE
200,花园饭店(法国总会),上海市,上海市,黄浦区,茂名南路58号,优秀历史建筑,TRUE,FALSE,history_culture,semi-known,low-social,free-flow,FALSE
201,兰心大戏院,上海市,上海市,黄浦区,茂名南路57号,优秀历史建筑,TRUE,FALSE,history_culture,semi-known,low-social,free-flow,FALSE
202,南昌大楼(ASTRID公寓),上海市,上海市,黄浦区,茂名南路143号,优秀历史建筑,TRUE,FALSE,history_culture,semi-known,low-social,free-flow,FALSE
203,科学会堂一号楼(法国总会老楼),上海市,上海市,黄浦区,南昌路47号,优秀历史建筑,TRUE,FALSE,history_culture,semi-known,low-social,free-flow,FALSE
204,里弄住宅(梵尔登花园),上海市,上海市,黄浦区,陕西南路39弄1-103号,优秀历史建筑,TRUE,FALSE,history_culture,semi-known,low-social,free-flow,FALSE
205,陕南村,上海市,上海市,黄浦区,陕西南路157-187号,优秀历史建筑,TRUE,FALSE,history_culture,semi-known,low-social,free-flow,FALSE
206,花园住宅,上海市,上海市,黄浦区,思南路51-95号(单),优秀历史建筑,TRUE,FALSE,history_culture,semi-known,low-social,free-flow,FALSE
207,第二医科大学十二号大楼/昆虫研究所(震旦大学图书馆教学大楼/震旦大学博物馆),上海市,上海市,黄浦区,重庆南路280号/重庆南路225号,优秀历史建筑,TRUE,FALSE,history_culture,semi-known,low-social,free-flow,FALSE
208,幸运城大酒店(东正教堂),上海市,上海市,黄浦区,皋兰路16号,优秀历史建筑,TRUE,FALSE,history_culture,semi-known,low-social,free-flow,FALSE
209,江南造船厂(江南制造局),上海市,上海市,黄浦区,高雄路2号（总办公楼）/2号船坞/指挥楼/飞机车间,优秀历史建筑,TRUE,FALSE,history_culture,semi-known,low-social,free-flow,FALSE
210,联谊俱乐部统战部/市皮革公司商厦(犹太人总会/黄河皮鞋店),上海市,上海市,静安区,南京西路722号/南京西路702号,优秀历史建筑,TRUE,FALSE,history_culture,semi-known,low-social,free-flow,FALSE
211,德义大楼,上海市,上海市,静安区,南京西路778号,优秀历史建筑,TRUE,FALSE,history_culture,semi-known,low-social,free-flow,FALSE
212,中国工商银行(中国银行),上海市,上海市,静安区,南京西路801号,优秀历史建筑,TRUE,FALSE,history_culture,semi-known,low-social,free-flow,FALSE
213,泰兴大楼(MEDHURST大楼),上海市,上海市,静安区,南京西路934号,优秀历史建筑,TRUE,FALSE,history_culture,semi-known,low-social,free-flow,FALSE
214,静安别墅,上海市,上海市,静安区,南京西路1025弄,优秀历史建筑,TRUE,FALSE,history_culture,semi-known,low-social,free-flow,FALSE
215,对外友协外办,上海市,上海市,静安区,南京西路1418号,优秀历史建筑,TRUE,FALSE,history_culture,semi-known,low-social,free-flow,FALSE
216,模范村,上海市,上海市,静安区,延安中路877号,优秀历史建筑,TRUE,FALSE,history_culture,semi-known,low-social,free-flow,FALSE
217,住宅,上海市,上海市,静安区,延安中路931-979号,优秀历史建筑,TRUE,FALSE,history_culture,semi-known,low-social,free-flow,FALSE
218,市文联(意大利总会),上海市,上海市,静安区,延安西路238号,优秀历史建筑,TRUE,FALSE,history_culture,semi-known,low-social,free-flow,FALSE
219,百乐门影剧院(百乐门舞厅),上海市,上海市,静安区,愚园路218号,优秀历史建筑,TRUE,FALSE,history_culture,semi-known,low-social,free-flow,FALSE
220,愚谷村里弄住宅(愚谷村),上海市,上海市,静安区,愚园路361弄,优秀历史建筑,TRUE,FALSE,history_culture,semi-known,low-social,free-flow,FALSE
221,第二工业大学,上海市,上海市,静安区,陕西北路80号,优秀历史建筑,TRUE,FALSE,history_culture,semi-known,low-social,free-flow,FALSE
222,怀恩堂,上海市,上海市,静安区,陕西北路375号,优秀历史建筑,TRUE,FALSE,history_culture,semi-known,low-social,free-flow,FALSE
223,市教育局礼堂(西摩路会堂),上海市,上海市,静安区,陕西北路500号,优秀历史建筑,TRUE,FALSE,history_culture,semi-known,low-social,free-flow,FALSE
224,市规划院,上海市,上海市,静安区,铜仁路333号,优秀历史建筑,TRUE,FALSE,history_culture,semi-known,low-social,free-flow,FALSE
225,中信公司,上海市,上海市,静安区,北京西路1301号,优秀历史建筑,TRUE,FALSE,history_culture,semi-known,low-social,free-flow,FALSE
226,大胜胡同,上海市,上海市,静安区,华山路229-285弄,优秀历史建筑,TRUE,FALSE,history_culture,semi-known,low-social,free-flow,FALSE
227,静安宾馆(海格大楼),上海市,上海市,静安区,华山路400号,优秀历史建筑,TRUE,FALSE,history_culture,semi-known,low-social,free-flow,FALSE
228,中福会儿童艺术剧院/马可波罗俱乐部(美国学校),上海市,上海市,静安区,华山路643号/华山路639号,优秀历史建筑,TRUE,FALSE,history_culture,semi-known,low-social,free-flow,FALSE
229,枕流公寓,上海市,上海市,静安区,华山路731号,优秀历史建筑,TRUE,FALSE,history_culture,semi-known,low-social,free-flow,FALSE
230,景华新村,上海市,上海市,静安区,巨鹿路820弄,优秀历史建筑,TRUE,FALSE,history_culture,semi-known,low-social,free-flow,FALSE
231,常德公寓(爱登公寓),上海市,上海市,静安区,常德路195号,优秀历史建筑,TRUE,FALSE,history_culture,semi-known,low-social,free-flow,FALSE
232,住宅(望德堂),上海市,上海市,静安区,北京西路1220弄2号,优秀历史建筑,TRUE,FALSE,history_culture,semi-known,low-social,free-flow,FALSE
233,医工院(雷氏德医学院),上海市,上海市,静安区,北京西路1320号,优秀历史建筑,TRUE,FALSE,history_culture,semi-known,low-social,free-flow,FALSE
234,市仪表局,上海市,上海市,静安区,延安中路816号,优秀历史建筑,TRUE,FALSE,history_culture,semi-known,low-social,free-flow,FALSE
235,仓库(四行仓库),上海市,上海市,静安区,光复路21号,优秀历史建筑,TRUE,FALSE,history_culture,semi-known,low-social,free-flow,FALSE
236,东湖宾馆七号楼,上海市,上海市,徐汇区,淮海中路1110号,优秀历史建筑,TRUE,FALSE,history_culture,semi-known,low-social,free-flow,FALSE
237,淮中大楼中波轮船公司(亨利公寓),上海市,上海市,徐汇区,淮海中路1160-1164号,优秀历史建筑,TRUE,FALSE,history_culture,semi-known,low-social,free-flow,FALSE
238,淮海公寓(盖司康公寓),上海市,上海市,徐汇区,淮海中路1202号,优秀历史建筑,TRUE,FALSE,history_culture,semi-known,low-social,free-flow,FALSE
239,上方花园,上海市,上海市,徐汇区,淮海中路1285弄,优秀历史建筑,TRUE,FALSE,history_culture,semi-known,low-social,free-flow,FALSE
240,淮海大楼/美美百货(皇家公寓),上海市,上海市,徐汇区,淮海中路1300-1326号,优秀历史建筑,TRUE,FALSE,history_culture,semi-known,low-social,free-flow,FALSE
241,法国领事馆,上海市,上海市,徐汇区,淮海中路1431号,优秀历史建筑,TRUE,FALSE,history_culture,semi-known,low-social,free-flow,FALSE
242,美国领事馆,上海市,上海市,徐汇区,淮海中路1469号,优秀历史建筑,TRUE,FALSE,history_culture,semi-known,low-social,free-flow,FALSE
243,逸村,上海市,上海市,徐汇区,淮海中路1610弄,优秀历史建筑,TRUE,FALSE,history_culture,semi-known,low-social,free-flow,FALSE
244,市科技情报所,上海市,上海市,徐汇区,淮海中路1634号,优秀历史建筑,TRUE,FALSE,history_culture,semi-known,low-social,free-flow,FALSE
245,中南新村,上海市,上海市,徐汇区,淮海中路1670弄,优秀历史建筑,TRUE,FALSE,history_culture,semi-known,low-social,free-flow,FALSE
246,花园住宅,上海市,上海市,徐汇区,淮海中路1754弄,优秀历史建筑,TRUE,FALSE,history_culture,semi-known,low-social,free-flow,FALSE
247,武康大楼(东美特公寓),上海市,上海市,徐汇区,淮海中路1842-1858号,优秀历史建筑,TRUE,FALSE,history_culture,semi-known,low-social,free-flow,FALSE
248,丁香花园,上海市,上海市,徐汇区,华山路849号主楼,优秀历史建筑,TRUE,FALSE,history_culture,semi-known,low-social,free-flow,FALSE
249,工商业联合会,上海市,上海市,徐汇区,华山路893号,优秀历史建筑,TRUE,FALSE,history_culture,semi-known,low-social,free-flow,FALSE
250,交通大学：正门/体育馆/校办公楼/教学楼/图书馆(南洋公学),上海市,上海市,徐汇区,华山路1954号,优秀历史建筑,TRUE,FALSE,history_culture,semi-known,low-social,free-flow,FALSE
251,建国公寓(道斐南公寓),上海市,上海市,徐汇区,建国西路394号,优秀历史建筑,TRUE,FALSE,history_culture,semi-known,low-social,free-flow,FALSE
252,建业里,上海市,上海市,徐汇区,建国西路440弄,优秀历史建筑,TRUE,FALSE,history_culture,semi-known,low-social,free-flow,FALSE
253,懿园,上海市,上海市,徐汇区,建国西路506弄,优秀历史建筑,TRUE,FALSE,history_culture,semi-known,low-social,free-flow,FALSE
254,波兰驻沪总领事馆,上海市,上海市,徐汇区,建国西路618号,优秀历史建筑,TRUE,FALSE,history_culture,semi-known,low-social,free-flow,FALSE
255,七0四所(美童公学),上海市,上海市,徐汇区,衡山路10号,优秀历史建筑,TRUE,FALSE,history_culture,semi-known,low-social,free-flow,FALSE
256,西湖公寓(华盛顿公寓),上海市,上海市,徐汇区,衡山路303号,优秀历史建筑,TRUE,FALSE,history_culture,semi-known,low-social,free-flow,FALSE
257,衡山宾馆(毕卡迪公寓),上海市,上海市,徐汇区,衡山路534号,优秀历史建筑,TRUE,FALSE,history_culture,semi-known,low-social,free-flow,FALSE
258,德国驻沪总领事馆,上海市,上海市,徐汇区,永福路151号,优秀历史建筑,TRUE,FALSE,history_culture,semi-known,low-social,free-flow,FALSE
259,老干部局,上海市,上海市,徐汇区,岳阳路145号,优秀历史建筑,TRUE,FALSE,history_culture,semi-known,low-social,free-flow,FALSE
260,永嘉新村,上海市,上海市,徐汇区,永嘉路580号,优秀历史建筑,TRUE,FALSE,history_culture,semi-known,low-social,free-flow,FALSE
261,永康新村,上海市,上海市,徐汇区,永康路580号,优秀历史建筑,TRUE,FALSE,history_culture,semi-known,low-social,free-flow,FALSE
262,一0三所,上海市,上海市,徐汇区,岳阳路110号,优秀历史建筑,TRUE,FALSE,history_culture,semi-known,low-social,free-flow,FALSE
263,老干部局,上海市,上海市,徐汇区,岳阳路145号,优秀历史建筑,TRUE,FALSE,history_culture,semi-known,low-social,free-flow,FALSE
264,里弄住宅,上海市,上海市,徐汇区,岳阳路200弄,优秀历史建筑,TRUE,FALSE,history_culture,semi-known,low-social,free-flow,FALSE
265,中科院生理研究所(中央研究院),上海市,上海市,徐汇区,岳阳路320号,优秀历史建筑,TRUE,FALSE,history_culture,semi-known,low-social,free-flow,FALSE
266,徐汇中学(徐汇公学),上海市,上海市,徐汇区,虹桥路68号,优秀历史建筑,TRUE,FALSE,history_culture,semi-known,low-social,free-flow,FALSE
267,徐家汇圣母院,上海市,上海市,徐汇区,漕溪北路45号,优秀历史建筑,TRUE,FALSE,history_culture,semi-known,low-social,free-flow,FALSE
268,上海市图书馆(藏书楼),上海市,上海市,徐汇区,漕溪北路80号,优秀历史建筑,TRUE,FALSE,history_culture,semi-known,low-social,free-flow,FALSE
269,中山医院,上海市,上海市,徐汇区,医学院路136号（主楼）,优秀历史建筑,TRUE,FALSE,history_culture,semi-known,low-social,free-flow,FALSE
270,第一医科大学(国立上海医学院),上海市,上海市,徐汇区,医学院路138号（主楼）,优秀历史建筑,TRUE,FALSE,history_culture,semi-known,low-social,free-flow,FALSE
271,住宅(正广和大班住宅),上海市,上海市,徐汇区,武康路99号,优秀历史建筑,TRUE,FALSE,history_culture,semi-known,low-social,free-flow,FALSE
272,密丹公寓,上海市,上海市,徐汇区,武康路115号,优秀历史建筑,TRUE,FALSE,history_culture,semi-known,low-social,free-flow,FALSE
273,市体育研究所(丽波花园东主楼),上海市,上海市,徐汇区,吴兴路87号,优秀历史建筑,TRUE,FALSE,history_culture,semi-known,low-social,free-flow,FALSE
274,住宅(朱敏堂住宅),上海市,上海市,徐汇区,乌鲁木齐南路151号,优秀历史建筑,TRUE,FALSE,history_culture,semi-known,low-social,free-flow,FALSE
275,自由公寓,上海市,上海市,徐汇区,五原路258号,优秀历史建筑,TRUE,FALSE,history_culture,semi-known,low-social,free-flow,FALSE
276,建设银行(东正教堂),上海市,上海市,徐汇区,新乐路55号,优秀历史建筑,TRUE,FALSE,history_culture,semi-known,low-social,free-flow,FALSE
277,高安公寓,上海市,上海市,徐汇区,高安路14号,优秀历史建筑,TRUE,FALSE,history_culture,semi-known,low-social,free-flow,FALSE
278,会乐公寓(会乐精舍),上海市,上海市,徐汇区,复兴西路34号,优秀历史建筑,TRUE,FALSE,history_culture,semi-known,low-social,free-flow,FALSE
279,克莱门公寓,上海市,上海市,徐汇区,复兴中路1363弄,优秀历史建筑,TRUE,FALSE,history_culture,semi-known,low-social,free-flow,FALSE
280,住宅,上海市,上海市,徐汇区,汾阳路9弄3号,优秀历史建筑,TRUE,FALSE,history_culture,semi-known,low-social,free-flow,FALSE
281,音乐学院附校甲楼/乙楼,上海市,上海市,徐汇区,东平路9号,优秀历史建筑,TRUE,FALSE,history_culture,semi-known,low-social,free-flow,FALSE
282,瑞华公寓(赛华公寓),上海市,上海市,徐汇区,常熟路209号,优秀历史建筑,TRUE,FALSE,history_culture,semi-known,low-social,free-flow,FALSE
283,结核病防治中心,上海市,上海市,徐汇区,延庆路130号,优秀历史建筑,TRUE,FALSE,history_culture,semi-known,low-social,free-flow,FALSE
284,商业置地公司(日本领事馆/联合救济总署),上海市,上海市,虹口区,黄浦路106号红楼/灰楼,优秀历史建筑,TRUE,FALSE,history_culture,semi-known,low-social,free-flow,FALSE
285,河滨公寓,上海市,上海市,虹口区,北苏州路340号,优秀历史建筑,TRUE,FALSE,history_culture,semi-known,low-social,free-flow,FALSE
286,鸿德堂,上海市,上海市,虹口区,多伦路59号,优秀历史建筑,TRUE,FALSE,history_culture,semi-known,low-social,free-flow,FALSE
287,海员医院(雷氏德工学院),上海市,上海市,虹口区,东长治路505号,优秀历史建筑,TRUE,FALSE,history_culture,semi-known,low-social,free-flow,FALSE
288,远洋运输公司(北方局),上海市,上海市,虹口区,东大名路378号,优秀历史建筑,TRUE,FALSE,history_culture,semi-known,low-social,free-flow,FALSE
289,高阳大楼,上海市,上海市,虹口区,东大名路817号,优秀历史建筑,TRUE,FALSE,history_culture,semi-known,low-social,free-flow,FALSE
290,新亚大酒店(新亚酒楼),上海市,上海市,虹口区,天潼路422号,优秀历史建筑,TRUE,FALSE,history_culture,semi-known,low-social,free-flow,FALSE
291,九州商厦(四行大楼),上海市,上海市,虹口区,四川北路1274号,优秀历史建筑,TRUE,FALSE,history_culture,semi-known,low-social,free-flow,FALSE
292,工商银行(中国银行大楼),上海市,上海市,虹口区,四川北路894号,优秀历史建筑,TRUE,FALSE,history_culture,semi-known,low-social,free-flow,FALSE
293,景灵堂,上海市,上海市,虹口区,昆山路135号,优秀历史建筑,TRUE,FALSE,history_culture,semi-known,low-social,free-flow,FALSE
294,虹口消防队(虹口救火会),上海市,上海市,虹口区,哈尔滨路2号,优秀历史建筑,TRUE,FALSE,history_culture,semi-known,low-social,free-flow,FALSE
295,提篮桥监狱(上海监狱),上海市,上海市,虹口区,长阳路147号,优秀历史建筑,TRUE,FALSE,history_culture,semi-known,low-social,free-flow,FALSE
296,杨树浦电厂,上海市,上海市,杨浦区,杨树浦路2800号（铁皮车间）,优秀历史建筑,TRUE,FALSE,history_culture,semi-known,low-social,free-flow,FALSE
297,华东工业大学/上海理工大学(沪江大学),上海市,上海市,杨浦区,军工路516号礼堂/实验楼,优秀历史建筑,TRUE,FALSE,history_culture,semi-known,low-social,free-flow,FALSE
298,第二军医大学主楼(旧市博物馆),上海市,上海市,杨浦区,长海路174号,优秀历史建筑,TRUE,FALSE,history_culture,semi-known,low-social,free-flow,FALSE
299,同济中学(旧市图书馆),上海市,上海市,杨浦区,黑山路181号,优秀历史建筑,TRUE,FALSE,history_culture,semi-known,low-social,free-flow,FALSE
300,安徽省驻沪办事处招待所,上海市,上海市,长宁区,新华路185弄1号,优秀历史建筑,TRUE,FALSE,history_culture,semi-known,low-social,free-flow,FALSE
301,市一商局疗养院,上海市,上海市,长宁区,新华路315号,优秀历史建筑,TRUE,FALSE,history_culture,semi-known,low-social,free-flow,FALSE
302,住宅,上海市,上海市,长宁区,新华路329弄17号,优秀历史建筑,TRUE,FALSE,history_culture,semi-known,low-social,free-flow,FALSE
303,西园公寓(西园大厦),上海市,上海市,长宁区,愚园路1396号,优秀历史建筑,TRUE,FALSE,history_culture,semi-known,low-social,free-flow,FALSE
304,比利时驻沪总领事馆,上海市,上海市,长宁区,武夷路127号,优秀历史建筑,TRUE,FALSE,history_culture,semi-known,low-social,free-flow,FALSE
305,华东政法学院:校长办公楼/韬奋楼/学生宿舍/办公楼/东风楼(圣约翰大学:校政厅/怀施堂/思颜堂/思孟堂/科学馆/西门堂),上海市,上海市,长宁区,万航渡路1175号,优秀历史建筑,TRUE,FALSE,history_culture,semi-known,low-social,free-flow,FALSE
306,卫乐园,上海市,上海市,长宁区,泰安路120号,优秀历史建筑,TRUE,FALSE,history_culture,semi-known,low-social,free-flow,FALSE
307,市三女中(中西女中),上海市,上海市,长宁区,江苏路155号东楼/北楼,优秀历史建筑,TRUE,FALSE,history_culture,semi-known,low-social,free-flow,FALSE
308,武警总队,上海市,上海市,长宁区,虹桥路2275号,优秀历史建筑,TRUE,FALSE,history_culture,semi-known,low-social,free-flow,FALSE
309,安息堂,上海市,上海市,长宁区,虹桥路2381号,优秀历史建筑,TRUE,FALSE,history_culture,semi-known,low-social,free-flow,FALSE
310,住宅,上海市,上海市,长宁区,愚园路754号,优秀历史建筑,TRUE,FALSE,history_culture,semi-known,low-social,free-flow,FALSE
311,上海造币厂(中国造币厂),上海市,上海市,普陀区,光复西路17号,优秀历史建筑,TRUE,FALSE,history_culture,semi-known,low-social,free-flow,FALSE
312,玉佛寺,上海市,上海市,普陀区,安远路170号,优秀历史建筑,TRUE,FALSE,history_culture,semi-known,low-social,free-flow,FALSE
313,中国农业银行上海分行外汇营业部大楼（扬子大楼/扬子水火保险公司）,上海市,上海市,黄浦区,中山东一路26号,优秀历史建筑,TRUE,FALSE,history_culture,semi-known,low-social,free-flow,FALSE
314,上海市总工会大楼（交通银行/交通银行）,上海市,上海市,黄浦区,中山东一路14号,优秀历史建筑,TRUE,FALSE,history_culture,semi-known,low-social,free-flow,FALSE
315,锦都大楼（日清大楼/日清汽船株式会社）,上海市,上海市,黄浦区,中山东一路5号,优秀历史建筑,TRUE,FALSE,history_culture,semi-known,low-social,free-flow,FALSE
316,上海电气集团总公司大楼（普益大楼/普益地产公司）,上海市,上海市,黄浦区,四川中路106-110号,优秀历史建筑,TRUE,FALSE,history_culture,semi-known,low-social,free-flow,FALSE
317,上海长途电信科技发展公司大楼（大北大楼电报局）,上海市,上海市,黄浦区,延安东路34号,优秀历史建筑,TRUE,FALSE,history_culture,semi-known,low-social,free-flow,FALSE
318,爱建金融大楼（中南大楼/中南银行）,上海市,上海市,黄浦区,汉口路110号,优秀历史建筑,TRUE,FALSE,history_culture,semi-known,low-social,free-flow,FALSE
319,美伦大楼（美伦大楼）,上海市,上海市,黄浦区,南京东路151-171号,优秀历史建筑,TRUE,FALSE,history_culture,semi-known,low-social,free-flow,FALSE
320,华东电力管理局大楼（电力大楼/上海电力公司）,上海市,上海市,黄浦区,南京东路181号,优秀历史建筑,TRUE,FALSE,history_culture,semi-known,low-social,free-flow,FALSE
321,青岛工行/上海图书馆书库（博物院大楼/亚洲文会、英国皇家亚洲文会北中国支会）,上海市,上海市,黄浦区,虎丘路20号,优秀历史建筑,TRUE,FALSE,history_culture,semi-known,low-social,free-flow,FALSE
322,上海海鸥照相机销售大楼（颐中大楼/英美颐中烟草股份有限公司）,上海市,上海市,黄浦区,南苏州路161-175号,优秀历史建筑,TRUE,FALSE,history_culture,semi-known,low-social,free-flow,FALSE
323,元芳弄（沪宁铁路局、安顺洋行等）,上海市,上海市,黄浦区,四川中路126弄5-21号,优秀历史建筑,TRUE,FALSE,history_culture,semi-known,low-social,free-flow,FALSE
324,懿德大楼、黄中大楼（三菱大楼、美孚大楼）,上海市,上海市,黄浦区,广东路94-102号/四川中路109号,优秀历史建筑,TRUE,FALSE,history_culture,semi-known,low-social,free-flow,FALSE
325,虎丘公寓（青年协会大楼）,上海市,上海市,黄浦区,虎丘路131号,优秀历史建筑,TRUE,FALSE,history_culture,semi-known,low-social,free-flow,FALSE
326,渣打银行上海分行（兰心大楼）,上海市,上海市,黄浦区,圆明园路185号,优秀历史建筑,TRUE,FALSE,history_culture,semi-known,low-social,free-flow,FALSE
327,恒业里（恒业里）,上海市,上海市,黄浦区,江西中路135弄1-13号,优秀历史建筑,TRUE,FALSE,history_culture,semi-known,low-social,free-flow,FALSE
328,上海建筑材料集团总公司大楼（四明大楼）,上海市,上海市,黄浦区,北京东路232-240号,优秀历史建筑,TRUE,FALSE,history_culture,semi-known,low-social,free-flow,FALSE
329,慈安里大楼（哈同大楼）,上海市,上海市,黄浦区,南京东路98-114号,优秀历史建筑,TRUE,FALSE,history_culture,semi-known,low-social,free-flow,FALSE
330,东亚大楼（东亚大楼）,上海市,上海市,黄浦区,四川中路299号,优秀历史建筑,TRUE,FALSE,history_culture,semi-known,low-social,free-flow,FALSE
331,中国人民解放军海军后勤部上海物资站（谦信大楼）,上海市,上海市,黄浦区,江西中路138号,优秀历史建筑,TRUE,FALSE,history_culture,semi-known,low-social,free-flow,FALSE
332,上海市储能中学一分部（瑞康洋行买办住宅）,上海市,上海市,黄浦区,黄陂南路25号乙,优秀历史建筑,TRUE,FALSE,history_culture,semi-known,low-social,free-flow,FALSE
333,上海市第八中学（清心女中）,上海市,上海市,黄浦区,陆家浜路550号,优秀历史建筑,TRUE,FALSE,history_culture,semi-known,low-social,free-flow,FALSE
334,龙门村（龙门村）,上海市,上海市,黄浦区,尚文路,优秀历史建筑,TRUE,FALSE,history_culture,semi-known,low-social,free-flow,FALSE
335,红楼（中法求新机器轮船制造厂）,上海市,上海市,黄浦区,机厂路132号,优秀历史建筑,TRUE,FALSE,history_culture,semi-known,low-social,free-flow,FALSE
336,上海市中华路电话局（上海电话局南市总局）,上海市,上海市,黄浦区,中华路734号,优秀历史建筑,TRUE,FALSE,history_culture,semi-known,low-social,free-flow,FALSE
337,瑞金大楼（爱司公寓）,上海市,上海市,黄浦区,瑞金一路150号,优秀历史建筑,TRUE,FALSE,history_culture,semi-known,low-social,free-flow,FALSE
338,泰山大楼（泰山公寓）,上海市,上海市,黄浦区,淮海中路622弄,优秀历史建筑,TRUE,FALSE,history_culture,semi-known,low-social,free-flow,FALSE
339,飞霞别墅（飞霞别墅）,上海市,上海市,黄浦区,淮海中路584弄,优秀历史建筑,TRUE,FALSE,history_culture,semi-known,low-social,free-flow,FALSE
340,住宅（飞龙公寓）,上海市,上海市,黄浦区,淮海中路538-544号及542弄,优秀历史建筑,TRUE,FALSE,history_culture,semi-known,low-social,free-flow,FALSE
341,卢湾区职业教育中心（法租界霞飞路巡捕房）,上海市,上海市,黄浦区,淮海中路235号,优秀历史建筑,TRUE,FALSE,history_culture,semi-known,low-social,free-flow,FALSE
342,陕南大楼（白尔登公寓）,上海市,上海市,黄浦区,陕西南路213号,优秀历史建筑,TRUE,FALSE,history_culture,semi-known,low-social,free-flow,FALSE
343,瑞金宾馆3号楼,上海市,上海市,黄浦区,瑞金二路118号,优秀历史建筑,TRUE,FALSE,history_culture,semi-known,low-social,free-flow,FALSE
344,瑞金宾馆4号楼,上海市,上海市,黄浦区,瑞金二路118号,优秀历史建筑,TRUE,FALSE,history_culture,semi-known,low-social,free-flow,FALSE
345,上海文史馆,上海市,上海市,黄浦区,思南路39号-41号,优秀历史建筑,TRUE,FALSE,history_culture,semi-known,low-social,free-flow,FALSE
346,巴黎公寓（巴黎公寓）,上海市,上海市,黄浦区,重庆南路165号,优秀历史建筑,TRUE,FALSE,history_culture,semi-known,low-social,free-flow,FALSE
347,巴黎新村（巴黎新村）,上海市,上海市,黄浦区,重庆南路169弄,优秀历史建筑,TRUE,FALSE,history_culture,semi-known,low-social,free-flow,FALSE
348,住宅（永丰村）,上海市,上海市,黄浦区,重庆南路177号、179弄1-10号,优秀历史建筑,TRUE,FALSE,history_culture,semi-known,low-social,free-flow,FALSE
349,重庆公寓（吕班公寓）,上海市,上海市,黄浦区,重庆南路185号,优秀历史建筑,TRUE,FALSE,history_culture,semi-known,low-social,free-flow,FALSE
350,诸圣堂（诸圣堂）,上海市,上海市,黄浦区,复兴中路425号,优秀历史建筑,TRUE,FALSE,history_culture,semi-known,low-social,free-flow,FALSE
351,住宅,上海市,上海市,黄浦区,皋兰路1号,优秀历史建筑,TRUE,FALSE,history_culture,semi-known,low-social,free-flow,FALSE
352,上海文艺出版社大楼,上海市,上海市,黄浦区,绍兴路74号,优秀历史建筑,TRUE,FALSE,history_culture,semi-known,low-social,free-flow,FALSE
353,住宅（香山路住宅）,上海市,上海市,黄浦区,香山路6号,优秀历史建筑,TRUE,FALSE,history_culture,semi-known,low-social,free-flow,FALSE
354,民立中学四号楼（邱氏住宅）,上海市,上海市,静安区,威海路412号,优秀历史建筑,TRUE,FALSE,history_culture,semi-known,low-social,free-flow,FALSE
355,联华公寓（联华公寓）,上海市,上海市,静安区,"北京西路1341-1383号,铜仁路304-330号,南阳路208-228号",优秀历史建筑,TRUE,FALSE,history_culture,semi-known,low-social,free-flow,FALSE
356,铜仁路279号（铜仁路278号）,上海市,上海市,静安区,铜仁路280号,优秀历史建筑,TRUE,FALSE,history_culture,semi-known,low-social,free-flow,FALSE
357,皮裘公寓（皮裘公寓）,上海市,上海市,静安区,铜仁路278号,优秀历史建筑,TRUE,FALSE,history_culture,semi-known,low-social,free-flow,FALSE
358,震兴里、荣康里、德庆里（震兴里、荣康里、德庆里）,上海市,上海市,静安区,茂名北路200-290弄,优秀历史建筑,TRUE,FALSE,history_culture,semi-known,low-social,free-flow,FALSE
359,岳阳医院,上海市,上海市,静安区,青海路44号,优秀历史建筑,TRUE,FALSE,history_culture,semi-known,low-social,free-flow,FALSE
360,善钟里（善钟里）,上海市,上海市,静安区,常熟路113弄2-31号,优秀历史建筑,TRUE,FALSE,history_culture,semi-known,low-social,free-flow,FALSE
361,巨鹰宾馆（亚细亚火油公司住宅）,上海市,上海市,静安区,巨鹿路889号,优秀历史建筑,TRUE,FALSE,history_culture,semi-known,low-social,free-flow,FALSE
362,住宅,上海市,上海市,静安区,巨鹿路868-892号,优秀历史建筑,TRUE,FALSE,history_culture,semi-known,low-social,free-flow,FALSE
363,住宅,上海市,上海市,静安区,巨鹿路852弄1-8号、10号,优秀历史建筑,TRUE,FALSE,history_culture,semi-known,low-social,free-flow,FALSE
364,上海市作家协会,上海市,上海市,静安区,巨鹿路675-681号,优秀历史建筑,TRUE,FALSE,history_culture,semi-known,low-social,free-flow,FALSE
365,住宅,上海市,上海市,静安区,南京西路1522弄,优秀历史建筑,TRUE,FALSE,history_culture,semi-known,low-social,free-flow,FALSE
366,太阳公寓（太阳公寓）,上海市,上海市,静安区,威海路651、665弄,优秀历史建筑,TRUE,FALSE,history_culture,semi-known,low-social,free-flow,FALSE
367,四明村（四明里）,上海市,上海市,静安区,延安中路913弄,优秀历史建筑,TRUE,FALSE,history_culture,semi-known,low-social,free-flow,FALSE
368,蒲园（蒲园）,上海市,上海市,静安区,长乐路570弄,优秀历史建筑,TRUE,FALSE,history_culture,semi-known,low-social,free-flow,FALSE
369,长乐新村（杜美新村）,上海市,上海市,静安区,长乐路764弄,优秀历史建筑,TRUE,FALSE,history_culture,semi-known,low-social,free-flow,FALSE
370,住宅,上海市,上海市,静安区,富民路210弄2-14号、长乐路752-762号,优秀历史建筑,TRUE,FALSE,history_culture,semi-known,low-social,free-flow,FALSE
371,大华公寓（大华公寓）,上海市,上海市,静安区,南京西路864-884号，奉贤路137号、147号，奉贤路148弄1-4号、8号,优秀历史建筑,TRUE,FALSE,history_culture,semi-known,low-social,free-flow,FALSE
372,华园物业公司办公楼,上海市,上海市,静安区,长乐路800号,优秀历史建筑,TRUE,FALSE,history_culture,semi-known,low-social,free-flow,FALSE
373,住宅,上海市,上海市,静安区,奉贤路68弄40-52号、80-92号,优秀历史建筑,TRUE,FALSE,history_culture,semi-known,low-social,free-flow,FALSE
374,中实新村（中实新村）,上海市,上海市,静安区,愚园路581-589及579弄,优秀历史建筑,TRUE,FALSE,history_culture,semi-known,low-social,free-flow,FALSE
375,文元坊（文元坊）,上海市,上海市,静安区,愚园路608弄,优秀历史建筑,TRUE,FALSE,history_culture,semi-known,low-social,free-flow,FALSE
376,念吾新村/多福里/汾阳坊（念吾新村/多福里/汾阳坊）,上海市,上海市,静安区,延安中路470弄/504弄/510弄,优秀历史建筑,TRUE,FALSE,history_culture,semi-known,low-social,free-flow,FALSE
377,华山医院（中国红十字会医院）,上海市,上海市,静安区,乌鲁木齐中路12号5号楼,优秀历史建筑,TRUE,FALSE,history_culture,semi-known,low-social,free-flow,FALSE
378,少儿图书馆（切尔西住宅）,上海市,上海市,静安区,南京西路962号,优秀历史建筑,TRUE,FALSE,history_culture,semi-known,low-social,free-flow,FALSE
379,延中部队招待所,上海市,上海市,静安区,延安中路810号,优秀历史建筑,TRUE,FALSE,history_culture,semi-known,low-social,free-flow,FALSE
380,电子元件研究所南楼（上海总商会）,上海市,上海市,静安区,北苏州路470号,优秀历史建筑,TRUE,FALSE,history_culture,semi-known,low-social,free-flow,FALSE
381,上海理工大学图书馆（德国技术工程学院、同济德文医学堂、国立上海高级机械职业学校）,上海市,上海市,徐汇区,复兴中路1195号,优秀历史建筑,TRUE,FALSE,history_culture,semi-known,low-social,free-flow,FALSE
382,达芬奇集团（霞飞路住宅、比利时领馆）,上海市,上海市,徐汇区,淮海中路1131号南楼,优秀历史建筑,TRUE,FALSE,history_culture,semi-known,low-social,free-flow,FALSE
383,淮海公寓2号楼（万国储蓄会公寓、盖司康公寓）,上海市,上海市,徐汇区,淮海中路1204-1218号,优秀历史建筑,TRUE,FALSE,history_culture,semi-known,low-social,free-flow,FALSE
384,住宅,上海市,上海市,徐汇区,淮海中路1276-1292号,优秀历史建筑,TRUE,FALSE,history_culture,semi-known,low-social,free-flow,FALSE
385,住宅,上海市,上海市,徐汇区,华亭路71弄1-7号，延庆路135-149号,优秀历史建筑,TRUE,FALSE,history_culture,semi-known,low-social,free-flow,FALSE
386,住宅,上海市,上海市,徐汇区,华亭路72、74、84、86号，延庆路151-157号,优秀历史建筑,TRUE,FALSE,history_culture,semi-known,low-social,free-flow,FALSE
387,麦琪公寓（麦琪公寓）,上海市,上海市,徐汇区,复兴西路24号,优秀历史建筑,TRUE,FALSE,history_culture,semi-known,low-social,free-flow,FALSE
388,上海新村（上海新村）,上海市,上海市,徐汇区,淮海中路1487弄1-56号,优秀历史建筑,TRUE,FALSE,history_culture,semi-known,low-social,free-flow,FALSE
389,曙光公寓（林肯公寓）,上海市,上海市,徐汇区,淮海中路1554-1568号、1562弄2-5号,优秀历史建筑,TRUE,FALSE,history_culture,semi-known,low-social,free-flow,FALSE
390,来斯南村（来斯南村）,上海市,上海市,徐汇区,五原路205弄2-6号,优秀历史建筑,TRUE,FALSE,history_culture,semi-known,low-social,free-flow,FALSE
391,上海永乐电影电视（集团）公司,上海市,上海市,徐汇区,永福路52号,优秀历史建筑,TRUE,FALSE,history_culture,semi-known,low-social,free-flow,FALSE
392,住宅,上海市,上海市,徐汇区,武康路40弄1号,优秀历史建筑,TRUE,FALSE,history_culture,semi-known,low-social,free-flow,FALSE
393,上海市房地产科学研究院,上海市,上海市,徐汇区,复兴西路193号3号楼,优秀历史建筑,TRUE,FALSE,history_culture,semi-known,low-social,free-flow,FALSE
394,湖南别墅,上海市,上海市,徐汇区,湖南路262号,优秀历史建筑,TRUE,FALSE,history_culture,semi-known,low-social,free-flow,FALSE
395,巴金住宅,上海市,上海市,徐汇区,武康路113号,优秀历史建筑,TRUE,FALSE,history_culture,semi-known,low-social,free-flow,FALSE
396,住宅,上海市,上海市,徐汇区,武康路117弄1号,优秀历史建筑,TRUE,FALSE,history_culture,semi-known,low-social,free-flow,FALSE
397,住宅,上海市,上海市,徐汇区,武康路117弄2号,优秀历史建筑,TRUE,FALSE,history_culture,semi-known,low-social,free-flow,FALSE
398,汽车工业总公司,上海市,上海市,徐汇区,武康路390号,优秀历史建筑,TRUE,FALSE,history_culture,semi-known,low-social,free-flow,FALSE
399,住宅,上海市,上海市,徐汇区,武康路393号,优秀历史建筑,TRUE,FALSE,history_culture,semi-known,low-social,free-flow,FALSE
400,住宅,上海市,上海市,徐汇区,淮海中路1818弄1-8号,优秀历史建筑,TRUE,FALSE,history_culture,semi-known,low-social,free-flow,FALSE
401,住宅,上海市,上海市,徐汇区,嘉善路131-143弄，169弄,优秀历史建筑,TRUE,FALSE,history_culture,semi-known,low-social,free-flow,FALSE
402,上海电影译制厂,上海市,上海市,徐汇区,永嘉路383号,优秀历史建筑,TRUE,FALSE,history_culture,semi-known,low-social,free-flow,FALSE
403,零三单位华东办事处,上海市,上海市,徐汇区,永嘉路389号,优秀历史建筑,TRUE,FALSE,history_culture,semi-known,low-social,free-flow,FALSE
404,瑞金宾馆太原分馆,上海市,上海市,徐汇区,太原路160号,优秀历史建筑,TRUE,FALSE,history_culture,semi-known,low-social,free-flow,FALSE
405,住宅,上海市,上海市,徐汇区,永嘉路495弄,优秀历史建筑,TRUE,FALSE,history_culture,semi-known,low-social,free-flow,FALSE
406,电话局职工住宅,上海市,上海市,徐汇区,建国西路398号,优秀历史建筑,TRUE,FALSE,history_culture,semi-known,low-social,free-flow,FALSE
407,住宅,上海市,上海市,徐汇区,岳阳路170弄1号1号楼,优秀历史建筑,TRUE,FALSE,history_culture,semi-known,low-social,free-flow,FALSE
408,住宅,上海市,上海市,徐汇区,永嘉路527弄1-5号,优秀历史建筑,TRUE,FALSE,history_culture,semi-known,low-social,free-flow,FALSE
409,住宅,上海市,上海市,徐汇区,永嘉路571号,优秀历史建筑,TRUE,FALSE,history_culture,semi-known,low-social,free-flow,FALSE
410,住宅、小旋枫酒店,上海市,上海市,徐汇区,安亭路130、132号,优秀历史建筑,TRUE,FALSE,history_culture,semi-known,low-social,free-flow,FALSE
411,住宅、建国西路幼儿园,上海市,上海市,徐汇区,建国西路620、622号,优秀历史建筑,TRUE,FALSE,history_culture,semi-known,low-social,free-flow,FALSE
412,市委机关幼儿园,上海市,上海市,徐汇区,余庆路190号,优秀历史建筑,TRUE,FALSE,history_culture,semi-known,low-social,free-flow,FALSE
413,徐汇区人民检察院（大修道院）,上海市,上海市,徐汇区,漕溪北路336号,优秀历史建筑,TRUE,FALSE,history_culture,semi-known,low-social,free-flow,FALSE
414,解放军七三一五工厂（江南弹药局）,上海市,上海市,徐汇区,龙华路2577号（烈士陵园北部）,优秀历史建筑,TRUE,FALSE,history_culture,semi-known,low-social,free-flow,FALSE
415,住宅（大陆新村/文华新村/淞云别墅/留青小筑）,上海市,上海市,虹口区,山阴路30、44、64、112、124、132、144、156、168、180、192、208、210弄，甜爱路59号、40号，山阴路2弄1-43号，四川北路2044-2058号,优秀历史建筑,TRUE,FALSE,history_culture,semi-known,low-social,free-flow,FALSE
416,长春公寓（长春公寓）,上海市,上海市,虹口区,长春路304号,优秀历史建筑,TRUE,FALSE,history_culture,semi-known,low-social,free-flow,FALSE
417,住宅,上海市,上海市,虹口区,溧阳路1084弄2-11号、1114弄1-21号、1156弄1-19号、1208弄1-12号、1219、1221、1253、1283、1313、1235、1267、1295、1298、1237、1269、1297、1331、1251、1281、1311、1338号，溧阳路1203弄1-12号,优秀历史建筑,TRUE,FALSE,history_culture,semi-known,low-social,free-flow,FALSE
418,住宅,上海市,上海市,虹口区,武进路206-296号,优秀历史建筑,TRUE,FALSE,history_culture,semi-known,low-social,free-flow,FALSE
419,浦江饭店（礼查饭店）,上海市,上海市,虹口区,黄浦路15号,优秀历史建筑,TRUE,FALSE,history_culture,semi-known,low-social,free-flow,FALSE
420,公寓（公寓）,上海市,上海市,虹口区,昆山路227号/昆山路277号/昆山花园路1-10号,优秀历史建筑,TRUE,FALSE,history_culture,semi-known,low-social,free-flow,FALSE
421,住宅,上海市,上海市,虹口区,蟠龙街1-13号,优秀历史建筑,TRUE,FALSE,history_culture,semi-known,low-social,free-flow,FALSE
422,梦幻柔情舞厅（西本愿寺）,上海市,上海市,虹口区,乍浦路455号,优秀历史建筑,TRUE,FALSE,history_culture,semi-known,low-social,free-flow,FALSE
423,虹口大楼（虹口大旅社）,上海市,上海市,虹口区,海宁路449号,优秀历史建筑,TRUE,FALSE,history_culture,semi-known,low-social,free-flow,FALSE
424,上海纺织老干部活动室,上海市,上海市,虹口区,多伦路215号,优秀历史建筑,TRUE,FALSE,history_culture,semi-known,low-social,free-flow,FALSE
425,祥德路住宅（祥德路住宅）,上海市,上海市,虹口区,祥德路2弄,优秀历史建筑,TRUE,FALSE,history_culture,semi-known,low-social,free-flow,FALSE
426,住宅,上海市,上海市,杨浦区,隆昌路222-266号,优秀历史建筑,TRUE,FALSE,history_culture,semi-known,low-social,free-flow,FALSE
427,上海市东区污水处理厂——办公楼/压缩机房、过滤池（上海市东区污水处理厂）,上海市,上海市,杨浦区,河间路1283号,优秀历史建筑,TRUE,FALSE,history_culture,semi-known,low-social,free-flow,FALSE
428,上海第五毛纺厂——空压站及仓库/厂房/英老板住宅/废纺车间/大仓库（怡和纱厂）,上海市,上海市,杨浦区,杨树浦路670号,优秀历史建筑,TRUE,FALSE,history_culture,semi-known,low-social,free-flow,FALSE
429,上海茂华毛纺厂——绒线仓库/综合楼/经理住宅（A）/领班住宅（B）/高级职员住宅（C）（上海密丰绒线厂）,上海市,上海市,杨浦区,波阳路400号,优秀历史建筑,TRUE,FALSE,history_culture,semi-known,low-social,free-flow,FALSE
430,上海市杨树浦煤气厂——办公楼/高级职员住宅/储气罐（上海煤气公司）,上海市,上海市,杨浦区,杨树浦路2524号,优秀历史建筑,TRUE,FALSE,history_culture,semi-known,low-social,free-flow,FALSE
431,梅林正广和有限公司（正广和汽水厂）,上海市,上海市,杨浦区,通北路400号,优秀历史建筑,TRUE,FALSE,history_culture,semi-known,low-social,free-flow,FALSE
432,上海第十七棉纺厂——办公楼/一纺车间/二纺车间/三纺车间/四纺车间/锅炉房及水房/北厂厂房（裕丰纱厂）,上海市,上海市,杨浦区,杨树浦路2866号,优秀历史建筑,TRUE,FALSE,history_culture,semi-known,low-social,free-flow,FALSE
433,兆丰别墅（兆丰别墅）,上海市,上海市,长宁区,长宁路712弄,优秀历史建筑,TRUE,FALSE,history_culture,semi-known,low-social,free-flow,FALSE
434,长宁区政府11号楼（新华村）,上海市,上海市,长宁区,愚园路1320号,优秀历史建筑,TRUE,FALSE,history_culture,semi-known,low-social,free-flow,FALSE
435,长宁区政府12号楼（新华村）,上海市,上海市,长宁区,愚园路1320号,优秀历史建筑,TRUE,FALSE,history_culture,semi-known,low-social,free-flow,FALSE
436,长宁区政府14号楼（新华村）,上海市,上海市,长宁区,愚园路1320号,优秀历史建筑,TRUE,FALSE,history_culture,semi-known,low-social,free-flow,FALSE
437,长宁区政府15号楼（新华村）,上海市,上海市,长宁区,愚园路1320号,优秀历史建筑,TRUE,FALSE,history_culture,semi-known,low-social,free-flow,FALSE
438,亦村（亦村）,上海市,上海市,长宁区,泰安路76弄,优秀历史建筑,TRUE,FALSE,history_culture,semi-known,low-social,free-flow,FALSE
439,工商银行愚园路分理处等,上海市,上海市,长宁区,愚园路1294号,优秀历史建筑,TRUE,FALSE,history_culture,semi-known,low-social,free-flow,FALSE
440,沪西别墅（沪西别墅/沪西别业）,上海市,上海市,长宁区,愚园路1210弄东侧,优秀历史建筑,TRUE,FALSE,history_culture,semi-known,low-social,free-flow,FALSE
441,住宅,上海市,上海市,长宁区,愚园路1112弄4号，20号,优秀历史建筑,TRUE,FALSE,history_culture,semi-known,low-social,free-flow,FALSE
442,长宁区妇幼保健院（私立妇孺医院）,上海市,上海市,长宁区,延安西路934号,优秀历史建筑,TRUE,FALSE,history_culture,semi-known,low-social,free-flow,FALSE
443,汉语大词典出版社,上海市,上海市,长宁区,新华路200号,优秀历史建筑,TRUE,FALSE,history_culture,semi-known,low-social,free-flow,FALSE
444,住宅,上海市,上海市,长宁区,新华路231号,优秀历史建筑,TRUE,FALSE,history_culture,semi-known,low-social,free-flow,FALSE
445,住宅,上海市,上海市,长宁区,新华路329弄32号乙,优秀历史建筑,TRUE,FALSE,history_culture,semi-known,low-social,free-flow,FALSE
446,住宅,上海市,上海市,长宁区,新华路329弄36号,优秀历史建筑,TRUE,FALSE,history_culture,semi-known,low-social,free-flow,FALSE
447,住宅（住宅（272弄2号为幼托））,上海市,上海市,长宁区,新华路236号，248号，272弄2号、6号，294弄1号,优秀历史建筑,TRUE,FALSE,history_culture,semi-known,low-social,free-flow,FALSE
448,兴国宾馆2号楼,上海市,上海市,长宁区,兴国路72号,优秀历史建筑,TRUE,FALSE,history_culture,semi-known,low-social,free-flow,FALSE
449,兴国宾馆6号楼,上海市,上海市,长宁区,兴国路72号,优秀历史建筑,TRUE,FALSE,history_culture,semi-known,low-social,free-flow,FALSE
450,梅泉别墅（梅泉别墅）,上海市,上海市,长宁区,新华路593弄,优秀历史建筑,TRUE,FALSE,history_culture,semi-known,low-social,free-flow,FALSE
451,办公楼（空置）,上海市,上海市,长宁区,新华路483号,优秀历史建筑,TRUE,FALSE,history_culture,semi-known,low-social,free-flow,FALSE
452,新华路警署,上海市,上海市,长宁区,新华路179号,优秀历史建筑,TRUE,FALSE,history_culture,semi-known,low-social,free-flow,FALSE
453,上海市信息中心一号楼及西侧花园住宅群,上海市,上海市,长宁区,华山路1076号及1100弄、1120弄,优秀历史建筑,TRUE,FALSE,history_culture,semi-known,low-social,free-flow,FALSE
454,花园住宅群（海格园）,上海市,上海市,长宁区,华山路1006弄,优秀历史建筑,TRUE,FALSE,history_culture,semi-known,low-social,free-flow,FALSE
455,上海市工人疗养院,上海市,上海市,长宁区,延安西路2558号（1-4号楼）,优秀历史建筑,TRUE,FALSE,history_culture,semi-known,low-social,free-flow,FALSE
456,住宅,上海市,上海市,长宁区,新华路211弄2号,优秀历史建筑,TRUE,FALSE,history_culture,semi-known,low-social,free-flow,FALSE
457,上海生物制品研究所（哥伦比亚总会）,上海市,上海市,长宁区,延安西路1262号,优秀历史建筑,TRUE,FALSE,history_culture,semi-known,low-social,free-flow,FALSE
458,大理石亭（大理石亭）,上海市,上海市,长宁区,长宁路780号中山公园内,优秀历史建筑,TRUE,FALSE,history_culture,semi-known,low-social,free-flow,FALSE
459,空军455医院（弗兰克林住宅、中央银行俱乐部）,上海市,上海市,长宁区,淮海西路338号,优秀历史建筑,TRUE,FALSE,history_culture,semi-known,low-social,free-flow,FALSE
460,达华宾馆（达华公寓）,上海市,上海市,长宁区,延安西路918-928号,优秀历史建筑,TRUE,FALSE,history_culture,semi-known,low-social,free-flow,FALSE
461,丁香别墅（丁香花园）,上海市,上海市,长宁区,华山路922号,优秀历史建筑,TRUE,FALSE,history_culture,semi-known,low-social,free-flow,FALSE
462,东延安中学北楼（真如中学）,上海市,上海市,长宁区,延安西路601号,优秀历史建筑,TRUE,FALSE,history_culture,semi-known,low-social,free-flow,FALSE
463,上海城市排水管理处技工学校-泵房/宿舍楼立面片段（西区污水处理厂）,上海市,上海市,长宁区,天山路、哈密路口,优秀历史建筑,TRUE,FALSE,history_culture,semi-known,low-social,free-flow,FALSE
464,消防三支队宜昌中队（宜昌路救火会）,上海市,上海市,普陀区,宜昌路216号,优秀历史建筑,TRUE,FALSE,history_culture,semi-known,low-social,free-flow,FALSE
465,上海啤酒厂灌装楼/办公楼/酿造楼（上海啤酒有限公司）,上海市,上海市,普陀区,宜昌路130号,优秀历史建筑,TRUE,FALSE,history_culture,semi-known,low-social,free-flow,FALSE
466,化工部上海化工研究院——合成氮车间/硝酸车间（天利淡气制品厂）,上海市,上海市,普陀区,云岭东路345号,优秀历史建筑,TRUE,FALSE,history_culture,semi-known,low-social,free-flow,FALSE
467,中华印刷厂——办公楼/印刷车间/仓库（中华书局印刷厂澳门路新厂）,上海市,上海市,普陀区,澳门路477号,优秀历史建筑,TRUE,FALSE,history_culture,semi-known,low-social,free-flow,FALSE
468,上海面粉厂——四厂（莫干山大酒店）/小包装面粉仓库/麸皮车间/七厂厂房/面粉工业发展史陈列馆/二层办公楼（福新面粉厂、阜丰面粉厂）,上海市,上海市,普陀区,莫干山路120号,优秀历史建筑,TRUE,FALSE,history_culture,semi-known,low-social,free-flow,FALSE
469,唐墓桥露德圣母堂（唐墓桥露德圣母堂）,上海市,上海市,浦东新区,浦东唐墓桥,优秀历史建筑,TRUE,FALSE,history_culture,semi-known,low-social,free-flow,FALSE
470,住宅,上海市,上海市,浦东新区,钱仓路316号,优秀历史建筑,TRUE,FALSE,history_culture,semi-known,low-social,free-flow,FALSE
471,南张安老院（天主堂）,上海市,上海市,闵行区,闵行区七莘路9号桥,优秀历史建筑,TRUE,FALSE,history_culture,semi-known,low-social,free-flow,FALSE
472,东海船厂（海底电缆登陆局房）,上海市,上海市,宝山区,逸仙路3901号,优秀历史建筑,TRUE,FALSE,history_culture,semi-known,low-social,free-flow,FALSE
473,崇明县中心医院（黄家花园）,上海市,上海市,崇明县,崇明县城桥镇南门港街26号,优秀历史建筑,TRUE,FALSE,history_culture,semi-known,low-social,free-flow,FALSE
474,浦光大楼(上海基督教青年会),上海市,上海市,黄浦区,四川中路595-607号,优秀历史建筑,TRUE,FALSE,history_culture,semi-known,low-social,free-flow,FALSE
475,自来大楼(英商自来水公司大楼),上海市,上海市,黄浦区,江西中路484号,优秀历史建筑,TRUE,FALSE,history_culture,semi-known,low-social,free-flow,FALSE
476,自力大楼(英商自来水公司办公楼),上海市,上海市,黄浦区,江西中路464-466号,优秀历史建筑,TRUE,FALSE,history_culture,semi-known,low-social,free-flow,FALSE
477,恒丰大楼,上海市,上海市,黄浦区,江西中路450-454号,优秀历史建筑,TRUE,FALSE,history_culture,semi-known,low-social,free-flow,FALSE
478,沙美大楼(信托大楼/上海信托公司),上海市,上海市,黄浦区,北京东路190号,优秀历史建筑,TRUE,FALSE,history_culture,semi-known,low-social,free-flow,FALSE
479,上海市建工集团、上海市物资局、北京西路售票处等(浙江兴业银行),上海市,上海市,黄浦区,北京东路230号,优秀历史建筑,TRUE,FALSE,history_culture,semi-known,low-social,free-flow,FALSE
480,上海市电力公司(北部）、上海市建筑材料供应总公司、上海航空铸锻公司(中垦大楼/中国垦业银行),上海市,上海市,黄浦区,北京东路239、255号,优秀历史建筑,TRUE,FALSE,history_culture,semi-known,low-social,free-flow,FALSE
481,中一大楼(中一信托大楼/中一信托股份公司),上海市,上海市,黄浦区,北京东路270号,优秀历史建筑,TRUE,FALSE,history_culture,semi-known,low-social,free-flow,FALSE
482,上海长江电气集团等(盐业大楼/盐业银行),上海市,上海市,黄浦区,北京东路280号,优秀历史建筑,TRUE,FALSE,history_culture,semi-known,low-social,free-flow,FALSE
483,上海浦东发展银行总部(上海洋行/上海商业储蓄银行),上海市,上海市,黄浦区,宁波路40、50号，江西中路368号,优秀历史建筑,TRUE,FALSE,history_culture,semi-known,low-social,free-flow,FALSE
484,光大银行(中央储蓄会/广东银行),上海市,上海市,黄浦区,天津路2号，江西中路349号,优秀历史建筑,TRUE,FALSE,history_culture,semi-known,low-social,free-flow,FALSE
485,美丰大楼(美丰银行),上海市,上海市,黄浦区,河南中路521-529号，宁波路180号,优秀历史建筑,TRUE,FALSE,history_culture,semi-known,low-social,free-flow,FALSE
486,永利大楼(恒利银行),上海市,上海市,黄浦区,河南中路495号，天津路100号,优秀历史建筑,TRUE,FALSE,history_culture,semi-known,low-social,free-flow,FALSE
487,钱业大楼(上海钱业公会),上海市,上海市,黄浦区,宁波路276号,优秀历史建筑,TRUE,FALSE,history_culture,semi-known,low-social,free-flow,FALSE
488,南京饭店,上海市,上海市,黄浦区,山西南路182-200号,优秀历史建筑,TRUE,FALSE,history_culture,semi-known,low-social,free-flow,FALSE
489,安利大楼(安利洋行),上海市,上海市,黄浦区,四川中路320号，九江路80号,优秀历史建筑,TRUE,FALSE,history_culture,semi-known,low-social,free-flow,FALSE
490,上海骅骏商贸有限公司、市残疾人联合会(大清银行/中国人寿保险公司),上海市,上海市,黄浦区,四川中路268-270号，汉口路50号,优秀历史建筑,TRUE,FALSE,history_culture,semi-known,low-social,free-flow,FALSE
491,黄浦区人民政府大楼(百乐饭店/同仁医院/教会学校/中国基督教协会),上海市,上海市,黄浦区,九江路219号,优秀历史建筑,TRUE,FALSE,history_culture,semi-known,low-social,free-flow,FALSE
492,上海市公安机关服务中心,上海市,上海市,黄浦区,汉口路210号,优秀历史建筑,TRUE,FALSE,history_culture,semi-known,low-social,free-flow,FALSE
493,上海市生产服务合作联社等(旗昌洋行),上海市,上海市,黄浦区,福州路17、19号,优秀历史建筑,TRUE,FALSE,history_culture,semi-known,low-social,free-flow,FALSE
494,申达大楼(中兴银行),上海市,上海市,黄浦区,福州路89号,优秀历史建筑,TRUE,FALSE,history_culture,semi-known,low-social,free-flow,FALSE
495,金陵大楼(约克大楼),上海市,上海市,黄浦区,四川南路29号,优秀历史建筑,TRUE,FALSE,history_culture,semi-known,low-social,free-flow,FALSE
496,丰华大楼(太古洋行),上海市,上海市,黄浦区,中山东二路22号,优秀历史建筑,TRUE,FALSE,history_culture,semi-known,low-social,free-flow,FALSE
497,黄浦剧场(金城大戏院),上海市,上海市,黄浦区,北京东路780号,优秀历史建筑,TRUE,FALSE,history_culture,semi-known,low-social,free-flow,FALSE
498,中国剧场(三星大舞台/中国大戏院),上海市,上海市,黄浦区,牛庄路700-714号,优秀历史建筑,TRUE,FALSE,history_culture,semi-known,low-social,free-flow,FALSE
499,新光影艺院(新光大戏院),上海市,上海市,黄浦区,宁波路586号,优秀历史建筑,TRUE,FALSE,history_culture,semi-known,low-social,free-flow,FALSE
500,上海铁道宾馆(中国大饭店),上海市,上海市,黄浦区,宁波路588号，贵州路160号-170号,优秀历史建筑,TRUE,FALSE,history_culture,semi-known,low-social,free-flow,FALSE
501,扬子饭店(申江饭店),上海市,上海市,黄浦区,汉口路740号(云南路转角),优秀历史建筑,TRUE,FALSE,history_culture,semi-known,low-social,free-flow,FALSE
502,上海市纺织原料公司新闸桥仓库(中国纺织建设公司第五仓库),上海市,上海市,黄浦区,南苏州路1295号,优秀历史建筑,TRUE,FALSE,history_culture,semi-known,low-social,free-flow,FALSE
503,上海东方音像有限公司(洋行),上海市,上海市,黄浦区,广东路306号,优秀历史建筑,TRUE,FALSE,history_culture,semi-known,low-social,free-flow,FALSE
504,童涵春堂(中国银行南市办事处),上海市,上海市,黄浦区,人民路1号(小东门),优秀历史建筑,TRUE,FALSE,history_culture,semi-known,low-social,free-flow,FALSE
505,瑞源珠宝等(仁记珠宝银楼),上海市,上海市,黄浦区,中华路5号,优秀历史建筑,TRUE,FALSE,history_culture,semi-known,low-social,free-flow,FALSE
506,上海双工缝纫设备开发公司(联市联谊会),上海市,上海市,黄浦区,中华路55号,优秀历史建筑,TRUE,FALSE,history_culture,semi-known,low-social,free-flow,FALSE
507,集贤村,上海市,上海市,黄浦区,金坛路35弄1号-30号、32号-44号,优秀历史建筑,TRUE,FALSE,history_culture,semi-known,low-social,free-flow,FALSE
508,小南门警钟楼,上海市,上海市,黄浦区,中华路581号,优秀历史建筑,TRUE,FALSE,history_culture,semi-known,low-social,free-flow,FALSE
509,沪南钱业公所,上海市,上海市,黄浦区,人民路安仁街古城公园内（原址：北施家弄133号）,优秀历史建筑,TRUE,FALSE,history_culture,semi-known,low-social,free-flow,FALSE
510,妇婴保健院(中德医院),上海市,上海市,黄浦区,延安中路393号,优秀历史建筑,TRUE,FALSE,history_culture,semi-known,low-social,free-flow,FALSE
511,康绥公寓,上海市,上海市,黄浦区,淮海中路468-494号,优秀历史建筑,TRUE,FALSE,history_culture,semi-known,low-social,free-flow,FALSE
512,国泰公寓,上海市,上海市,黄浦区,淮海中路816弄、818-832号,优秀历史建筑,TRUE,FALSE,history_culture,semi-known,low-social,free-flow,FALSE
513,淮海坊(霞飞坊),上海市,上海市,黄浦区,淮海中路927弄,优秀历史建筑,TRUE,FALSE,history_culture,semi-known,low-social,free-flow,FALSE
514,科学会堂(法国体育总会),上海市,上海市,黄浦区,南昌路57号,优秀历史建筑,TRUE,FALSE,history_culture,semi-known,low-social,free-flow,FALSE
515,上海别墅,上海市,上海市,黄浦区,南昌路110弄、112-122号,优秀历史建筑,TRUE,FALSE,history_culture,semi-known,low-social,free-flow,FALSE
516,花园住宅群,上海市,上海市,黄浦区,南昌路124-134号、136弄1-16号、138-146号,优秀历史建筑,TRUE,FALSE,history_culture,semi-known,low-social,free-flow,FALSE
517,卢湾区政府2号楼(克美产科医院),上海市,上海市,黄浦区,重庆南路139号,优秀历史建筑,TRUE,FALSE,history_culture,semi-known,low-social,free-flow,FALSE
518,花园住宅,上海市,上海市,黄浦区,皋兰路11-17号,优秀历史建筑,TRUE,FALSE,history_culture,semi-known,low-social,free-flow,FALSE
519,钟和公寓(希勒公寓),上海市,上海市,黄浦区,茂名南路106-124号，南昌路179号,优秀历史建筑,TRUE,FALSE,history_culture,semi-known,low-social,free-flow,FALSE
520,梅兰坊,上海市,上海市,黄浦区,黄陂南路596弄1-58号,优秀历史建筑,TRUE,FALSE,history_culture,semi-known,low-social,free-flow,FALSE
521,花园公寓(派克公寓),上海市,上海市,黄浦区,复兴中路455号,优秀历史建筑,TRUE,FALSE,history_culture,semi-known,low-social,free-flow,FALSE
522,花园住宅,上海市,上海市,黄浦区,复兴中路471-473号，477号,优秀历史建筑,TRUE,FALSE,history_culture,semi-known,low-social,free-flow,FALSE
523,花园住宅,上海市,上海市,黄浦区,复兴中路517号，531号，533-537号，539号，541号,优秀历史建筑,TRUE,FALSE,history_culture,semi-known,low-social,free-flow,FALSE
524,复兴坊(辣斐坊),上海市,上海市,黄浦区,复兴中路553弄1-21号，543-551号，555-561号,优秀历史建筑,TRUE,FALSE,history_culture,semi-known,low-social,free-flow,FALSE
525,花园住宅,上海市,上海市,黄浦区,思南路50-70号,优秀历史建筑,TRUE,FALSE,history_culture,semi-known,low-social,free-flow,FALSE
526,万宜坊,上海市,上海市,黄浦区,重庆南路205弄5-94号,优秀历史建筑,TRUE,FALSE,history_culture,semi-known,low-social,free-flow,FALSE
527,瑞金医院8号楼、3号楼(广慈医院),上海市,上海市,黄浦区,瑞金二路197号,优秀历史建筑,TRUE,FALSE,history_culture,semi-known,low-social,free-flow,FALSE
528,安和新村,上海市,上海市,黄浦区,瑞金二路198弄,优秀历史建筑,TRUE,FALSE,history_culture,semi-known,low-social,free-flow,FALSE
529,金谷村,上海市,上海市,黄浦区,绍兴路18弄，绍兴路2-34号，瑞金二路132弄1-59号、78-83号,优秀历史建筑,TRUE,FALSE,history_culture,semi-known,low-social,free-flow,FALSE
530,上海昆剧团(爱麦虞限路9号宅),上海市,上海市,黄浦区,绍兴路9号,优秀历史建筑,TRUE,FALSE,history_culture,semi-known,low-social,free-flow,FALSE
531,卢湾区图书馆(明复图书馆),上海市,上海市,黄浦区,陕西南路235号,优秀历史建筑,TRUE,FALSE,history_culture,semi-known,low-social,free-flow,FALSE
532,花园住宅,上海市,上海市,黄浦区,淮海中路796号,优秀历史建筑,TRUE,FALSE,history_culture,semi-known,low-social,free-flow,FALSE
533,上海展览中心(中苏友好大厦),上海市,上海市,静安区,延安中路1000号,优秀历史建筑,TRUE,FALSE,history_culture,semi-known,low-social,free-flow,FALSE
534,花园住宅/香港星空传媒集团公司上海代表处,上海市,上海市,静安区,陕西北路186号,优秀历史建筑,TRUE,FALSE,history_culture,semi-known,low-social,free-flow,FALSE
535,宋氏花园住宅,上海市,上海市,静安区,陕西北路369号,优秀历史建筑,TRUE,FALSE,history_culture,semi-known,low-social,free-flow,FALSE
536,上海市外事办公室,上海市,上海市,静安区,铜仁路257号,优秀历史建筑,TRUE,FALSE,history_culture,semi-known,low-social,free-flow,FALSE
537,上海电筒厂职工宿舍(大新烟草公司),上海市,上海市,静安区,北京西路1094弄2号,优秀历史建筑,TRUE,FALSE,history_culture,semi-known,low-social,free-flow,FALSE
538,上海电气进出口公司,上海市,上海市,静安区,北京西路1394弄2号,优秀历史建筑,TRUE,FALSE,history_culture,semi-known,low-social,free-flow,FALSE
539,静安区文化局(纪氏花园住宅),上海市,上海市,静安区,北京西路1510号,优秀历史建筑,TRUE,FALSE,history_culture,semi-known,low-social,free-flow,FALSE
540,居士林，金刚道场(觉园（南国大佛寺），金刚道场),上海市,上海市,静安区,常德路418号,优秀历史建筑,TRUE,FALSE,history_culture,semi-known,low-social,free-flow,FALSE
541,沁园村,上海市,上海市,静安区,新闸路1106-1120（双）号、新闸路1124弄1-27、29、31-42、44-56（双）号,优秀历史建筑,TRUE,FALSE,history_culture,semi-known,low-social,free-flow,FALSE
542,住宅(刘氏花园住宅，小校经阁八角楼),上海市,上海市,静安区,新闸路1321号,优秀历史建筑,TRUE,FALSE,history_culture,semi-known,low-social,free-flow,FALSE
543,杨氏花园住宅(宜德堂),上海市,上海市,静安区,昌化路136号,优秀历史建筑,TRUE,FALSE,history_culture,semi-known,low-social,free-flow,FALSE
544,康定花园,上海市,上海市,静安区,康定路2号,优秀历史建筑,TRUE,FALSE,history_culture,semi-known,low-social,free-flow,FALSE
545,上海商业会计学校静安分校(戈登路巡捕房),上海市,上海市,静安区,江宁路511号,优秀历史建筑,TRUE,FALSE,history_culture,semi-known,low-social,free-flow,FALSE
546,市眼科医院,上海市,上海市,静安区,陕西北路805号,优秀历史建筑,TRUE,FALSE,history_culture,semi-known,low-social,free-flow,FALSE
547,静安区政协,上海市,上海市,静安区,康定路759弄,优秀历史建筑,TRUE,FALSE,history_culture,semi-known,low-social,free-flow,FALSE
548,上海对外经济研究中心/全球经济发展中心(司米托莫银行),上海市,上海市,静安区,胶州路510号,优秀历史建筑,TRUE,FALSE,history_culture,semi-known,low-social,free-flow,FALSE
549,宝钢老干部活动中心(龚氏花园住宅),上海市,上海市,静安区,胶州路522号,优秀历史建筑,TRUE,FALSE,history_culture,semi-known,low-social,free-flow,FALSE
550,上海古典建筑装饰工程一公司(上海市政委员会电力部住宅),上海市,上海市,静安区,胶州路561号,优秀历史建筑,TRUE,FALSE,history_culture,semi-known,low-social,free-flow,FALSE
551,静安区业余大学(上海市科学馆),上海市,上海市,静安区,胶州路601号,优秀历史建筑,TRUE,FALSE,history_culture,semi-known,low-social,free-flow,FALSE
552,市房地产经济协会(刘氏花园住宅),上海市,上海市,静安区,长乐路786号、784号,优秀历史建筑,TRUE,FALSE,history_culture,semi-known,low-social,free-flow,FALSE
553,上海歌舞剧院(中央储备银行),上海市,上海市,静安区,常熟路100弄10号,优秀历史建筑,TRUE,FALSE,history_culture,semi-known,low-social,free-flow,FALSE
554,上海基督教三自爱国运动委员会(新恩堂/上海公共礼拜堂/基督教新教堂),上海市,上海市,静安区,乌鲁木齐北路25号,优秀历史建筑,TRUE,FALSE,history_culture,semi-known,low-social,free-flow,FALSE
555,上海戏剧学院熊佛西楼(熊佛西楼),上海市,上海市,静安区,华山路630号,优秀历史建筑,TRUE,FALSE,history_culture,semi-known,low-social,free-flow,FALSE
556,上广交响乐团(潘氏花园住宅),上海市,上海市,静安区,武定西路1498弄,优秀历史建筑,TRUE,FALSE,history_culture,semi-known,low-social,free-flow,FALSE
557,辞书出版社,上海市,上海市,静安区,陕西北路457号,优秀历史建筑,TRUE,FALSE,history_culture,semi-known,low-social,free-flow,FALSE
558,百联集团华联商厦新泰路仓库(华联新泰仓库),上海市,上海市,静安区,新泰路57号,优秀历史建筑,TRUE,FALSE,history_culture,semi-known,low-social,free-flow,FALSE
559,跳蚤市场(中国实业银行),上海市,上海市,静安区,北苏州路1028号,优秀历史建筑,TRUE,FALSE,history_culture,semi-known,low-social,free-flow,FALSE
560,茂联丝绸商厦(中国银行仓库),上海市,上海市,静安区,北苏州路1040号,优秀历史建筑,TRUE,FALSE,history_culture,semi-known,low-social,free-flow,FALSE
561,上海医疗器械九厂(会审公堂，上海第一特区地方法院/江苏高等法院第二分院),上海市,上海市,静安区,浙江北路191号,优秀历史建筑,TRUE,FALSE,history_culture,semi-known,low-social,free-flow,FALSE
562,梁氏民宅,上海市,上海市,静安区,山西北路457弄61号,优秀历史建筑,TRUE,FALSE,history_culture,semi-known,low-social,free-flow,FALSE
563,住宅,上海市,上海市,静安区,武进路580弄,优秀历史建筑,TRUE,FALSE,history_culture,semi-known,low-social,free-flow,FALSE
564,华联集团电工照明器材有限公司仓库(福新面粉一厂厂房及仓库),上海市,上海市,静安区,光复路423-433号，长安路101号,优秀历史建筑,TRUE,FALSE,history_culture,semi-known,low-social,free-flow,FALSE
565,东湖宾馆(杜氏公馆),上海市,上海市,徐汇区,东湖路70号,优秀历史建筑,TRUE,FALSE,history_culture,semi-known,low-social,free-flow,FALSE
566,青年报社,上海市,上海市,徐汇区,东湖路17号,优秀历史建筑,TRUE,FALSE,history_culture,semi-known,low-social,free-flow,FALSE
567,沪江别墅,上海市,上海市,徐汇区,长乐路613弄,优秀历史建筑,TRUE,FALSE,history_culture,semi-known,low-social,free-flow,FALSE
568,上海市武警总队(a花园住宅，b花园住宅，c花园住宅),上海市,上海市,徐汇区,淮海中路1209号,优秀历史建筑,TRUE,FALSE,history_culture,semi-known,low-social,free-flow,FALSE
569,愉园,上海市,上海市,徐汇区,淮海中路1350弄,优秀历史建筑,TRUE,FALSE,history_culture,semi-known,low-social,free-flow,FALSE
570,上海市武警总队家属楼,上海市,上海市,徐汇区,淮海中路1414号1号楼,优秀历史建筑,TRUE,FALSE,history_culture,semi-known,low-social,free-flow,FALSE
571,花园住宅,上海市,上海市,徐汇区,淮海中路1897号,优秀历史建筑,TRUE,FALSE,history_culture,semi-known,low-social,free-flow,FALSE
572,上海音乐学院院部办公楼，上海音乐学院专家楼(a犹太俱乐部，b花园住宅/比利时领馆),上海市,上海市,徐汇区,汾阳路20号,优秀历史建筑,TRUE,FALSE,history_culture,semi-known,low-social,free-flow,FALSE
573,上海眼耳鼻喉科医院10号楼，水塔(犹太医院，水塔),上海市,上海市,徐汇区,汾阳路83号,优秀历史建筑,TRUE,FALSE,history_culture,semi-known,low-social,free-flow,FALSE
574,并立花园住宅,上海市,上海市,徐汇区,汾阳路152-154号、156-158号,优秀历史建筑,TRUE,FALSE,history_culture,semi-known,low-social,free-flow,FALSE
575,复中公寓(伊丽莎白公寓),上海市,上海市,徐汇区,复兴中路1327号,优秀历史建筑,TRUE,FALSE,history_culture,semi-known,low-social,free-flow,FALSE
576,复兴公寓(黑石公寓),上海市,上海市,徐汇区,复兴中路1331号,优秀历史建筑,TRUE,FALSE,history_culture,semi-known,low-social,free-flow,FALSE
577,上海市轻工业研究所3号楼，4号楼(花园住宅，花园住宅),上海市,上海市,徐汇区,宝庆路20号,优秀历史建筑,TRUE,FALSE,history_culture,semi-known,low-social,free-flow,FALSE
578,并立式住宅,上海市,上海市,徐汇区,太原路50弄1-2号，56弄1-4号，64弄1-4号,优秀历史建筑,TRUE,FALSE,history_culture,semi-known,low-social,free-flow,FALSE
579,上海音乐学院附小图书馆,上海市,上海市,徐汇区,东平路5号,优秀历史建筑,TRUE,FALSE,history_culture,semi-known,low-social,free-flow,FALSE
580,西式餐厅(宋氏住宅),上海市,上海市,徐汇区,东平路11号,优秀历史建筑,TRUE,FALSE,history_culture,semi-known,low-social,free-flow,FALSE
581,上海话剧艺术中心(吴氏花园住宅),上海市,上海市,徐汇区,安福路201号,优秀历史建筑,TRUE,FALSE,history_culture,semi-known,low-social,free-flow,FALSE
582,安福路233号公寓(巨泼来斯公寓),上海市,上海市,徐汇区,安福路233号,优秀历史建筑,TRUE,FALSE,history_culture,semi-known,low-social,free-flow,FALSE
583,上海话剧艺术中心,上海市,上海市,徐汇区,安福路284号,优秀历史建筑,TRUE,FALSE,history_culture,semi-known,low-social,free-flow,FALSE
584,商务部驻沪办事处,上海市,上海市,徐汇区,五原路251号，永福路1号,优秀历史建筑,TRUE,FALSE,history_culture,semi-known,low-social,free-flow,FALSE
585,中国福利会/宋庆龄基金会,上海市,上海市,徐汇区,五原路314号,优秀历史建筑,TRUE,FALSE,history_culture,semi-known,low-social,free-flow,FALSE
586,花园住宅,上海市,上海市,徐汇区,华山路831号,优秀历史建筑,TRUE,FALSE,history_culture,semi-known,low-social,free-flow,FALSE
587,丁香花园3号楼,上海市,上海市,徐汇区,华山路849号,优秀历史建筑,TRUE,FALSE,history_culture,semi-known,low-social,free-flow,FALSE
588,交通大学工程馆，新上院(交通大学恭绰馆（工程馆），新上院),上海市,上海市,徐汇区,华山路1954号,优秀历史建筑,TRUE,FALSE,history_culture,semi-known,low-social,free-flow,FALSE
589,上海科技文献出版社,上海市,上海市,徐汇区,武康路2号,优秀历史建筑,TRUE,FALSE,history_culture,semi-known,low-social,free-flow,FALSE
590,704所家属楼及水塔(美童公学宿舍楼及水塔),上海市,上海市,徐汇区,衡山路10号,优秀历史建筑,TRUE,FALSE,history_culture,semi-known,low-social,free-flow,FALSE
591,丽波花园,上海市,上海市,徐汇区,衡山路300弄1-8号,优秀历史建筑,TRUE,FALSE,history_culture,semi-known,low-social,free-flow,FALSE
592,集雅公寓(会斯乐公寓/乔治公寓),上海市,上海市,徐汇区,衡山路311-331号,优秀历史建筑,TRUE,FALSE,history_culture,semi-known,low-social,free-flow,FALSE
593,凯文公寓/衡阳公寓(凯文公寓),上海市,上海市,徐汇区,衡山路525号，建国西路750号,优秀历史建筑,TRUE,FALSE,history_culture,semi-known,low-social,free-flow,FALSE
594,衡山公寓(贝当公寓),上海市,上海市,徐汇区,衡山路700号,优秀历史建筑,TRUE,FALSE,history_culture,semi-known,low-social,free-flow,FALSE
595,小红楼/小红楼西餐厅(中国唱片厂办公楼),上海市,上海市,徐汇区,衡山路811号,优秀历史建筑,TRUE,FALSE,history_culture,semi-known,low-social,free-flow,FALSE
596,中科院原子核研究所,上海市,上海市,徐汇区,永嘉路630号,优秀历史建筑,TRUE,FALSE,history_culture,semi-known,low-social,free-flow,FALSE
597,安康公寓/乌鲁木齐公寓(巨福公寓/安康公寓),上海市,上海市,徐汇区,乌鲁木齐南路176号,优秀历史建筑,TRUE,FALSE,history_culture,semi-known,low-social,free-flow,FALSE
598,花园住宅,上海市,上海市,徐汇区,建国西路598号,优秀历史建筑,TRUE,FALSE,history_culture,semi-known,low-social,free-flow,FALSE
599,上海医学科学技术情报研究所,上海市,上海市,徐汇区,建国西路602号,优秀历史建筑,TRUE,FALSE,history_culture,semi-known,low-social,free-flow,FALSE
600,安亭公寓(金司林公寓),上海市,上海市,徐汇区,安亭路43号,优秀历史建筑,TRUE,FALSE,history_culture,semi-known,low-social,free-flow,FALSE
601,安亭别墅1号楼,上海市,上海市,徐汇区,安亭路46号1号楼,优秀历史建筑,TRUE,FALSE,history_culture,semi-known,low-social,free-flow,FALSE
602,徐汇区少年宫(荣氏花园住宅),上海市,上海市,徐汇区,高安路18弄20号,优秀历史建筑,TRUE,FALSE,history_culture,semi-known,low-social,free-flow,FALSE
603,市建委老干部活动中心(励氏花园住宅),上海市,上海市,徐汇区,高安路63号,优秀历史建筑,TRUE,FALSE,history_culture,semi-known,low-social,free-flow,FALSE
604,建安公寓(方建公寓/建成公寓),上海市,上海市,徐汇区,高安路78弄1-3号，建国西路641-645号,优秀历史建筑,TRUE,FALSE,history_culture,semi-known,low-social,free-flow,FALSE
605,花园住宅,上海市,上海市,徐汇区,康平路1号,优秀历史建筑,TRUE,FALSE,history_culture,semi-known,low-social,free-flow,FALSE
606,徐汇区老干部局,上海市,上海市,徐汇区,康平路205号,优秀历史建筑,TRUE,FALSE,history_culture,semi-known,low-social,free-flow,FALSE
607,国家安全局(花园住宅/挪威领事馆),上海市,上海市,徐汇区,吴兴路96号,优秀历史建筑,TRUE,FALSE,history_culture,semi-known,low-social,free-flow,FALSE
608,文艺医院,上海市,上海市,徐汇区,天平路40号,优秀历史建筑,TRUE,FALSE,history_culture,semi-known,low-social,free-flow,FALSE
609,中国科学院上海分院11号楼(花园住宅/法国领事馆),上海市,上海市,徐汇区,岳阳路319号11号楼,优秀历史建筑,TRUE,FALSE,history_culture,semi-known,low-social,free-flow,FALSE
610,信息产业部电信科学技术第一研究所(上海特别市市政府旧址),上海市,上海市,徐汇区,平江路48号3号、7号楼,优秀历史建筑,TRUE,FALSE,history_culture,semi-known,low-social,free-flow,FALSE
611,上海气象局气象台(徐家汇观象台),上海市,上海市,徐汇区,蒲西路166号,优秀历史建筑,TRUE,FALSE,history_culture,semi-known,low-social,free-flow,FALSE
612,中国民用航空华东管理局龙华航空站(龙华机场候机楼),上海市,上海市,徐汇区,龙华西路1号,优秀历史建筑,TRUE,FALSE,history_culture,semi-known,low-social,free-flow,FALSE
613,瑞康公寓,上海市,上海市,虹口区,四川北路18号,优秀历史建筑,TRUE,FALSE,history_culture,semi-known,low-social,free-flow,FALSE
614,大桥公寓,上海市,上海市,虹口区,四川北路85号,优秀历史建筑,TRUE,FALSE,history_culture,semi-known,low-social,free-flow,FALSE
615,信谊大药厂(德邻公寓),上海市,上海市,虹口区,四川北路71号1-6幢，崇明路82号,优秀历史建筑,TRUE,FALSE,history_culture,semi-known,low-social,free-flow,FALSE
616,浦西公寓(批亚斯公寓),上海市,上海市,虹口区,蟠龙街26号，乍浦路199-215号，塘沽路411-429号,优秀历史建筑,TRUE,FALSE,history_culture,semi-known,low-social,free-flow,FALSE
617,小浦西公寓,上海市,上海市,虹口区,塘沽路387-401号,优秀历史建筑,TRUE,FALSE,history_culture,semi-known,low-social,free-flow,FALSE
618,上海市安装工程有限公司(工部局西童女子学校),上海市,上海市,虹口区,塘沽路390号,优秀历史建筑,TRUE,FALSE,history_culture,semi-known,low-social,free-flow,FALSE
619,景林庐,上海市,上海市,虹口区,乍浦路260号，昆山路141-177号，254弄22-27号,优秀历史建筑,TRUE,FALSE,history_culture,semi-known,low-social,free-flow,FALSE
620,闵行大楼(角田公寓),上海市,上海市,虹口区,闵行路171-181号，201-211号，峨眉路70-80号,优秀历史建筑,TRUE,FALSE,history_culture,semi-known,low-social,free-flow,FALSE
621,海军托儿所(英华书馆),上海市,上海市,虹口区,武进路412号,优秀历史建筑,TRUE,FALSE,history_culture,semi-known,low-social,free-flow,FALSE
622,华东师范大学附属第一中学(华童公学/汉壁礼男校/光华大夏大学附属中学),上海市,上海市,虹口区,中州路102号,优秀历史建筑,TRUE,FALSE,history_culture,semi-known,low-social,free-flow,FALSE
623,1933老场坊(工部局宰牲场/宰牛场/新亚集团产业),上海市,上海市,虹口区,沙泾路10号、29号,优秀历史建筑,TRUE,FALSE,history_culture,semi-known,low-social,free-flow,FALSE
624,永丰坊、大德里、恒安坊,上海市,上海市,虹口区,四川北路1515弄20-24号、34-105号，1519-1543号，1545弄1-33号、1-19号，1549-1551号,优秀历史建筑,TRUE,FALSE,history_culture,semi-known,low-social,free-flow,FALSE
625,群众影剧院(广东大戏院/虹光大戏院),上海市,上海市,虹口区,四川北路1552号,优秀历史建筑,TRUE,FALSE,history_culture,semi-known,low-social,free-flow,FALSE
626,溧阳大楼(狄思威公寓),上海市,上海市,虹口区,四川北路1914-1932号,优秀历史建筑,TRUE,FALSE,history_culture,semi-known,low-social,free-flow,FALSE
627,永安里,上海市,上海市,虹口区,四川北路1953弄、多伦路152-192号,优秀历史建筑,TRUE,FALSE,history_culture,semi-known,low-social,free-flow,FALSE
628,钱币博物馆/卫生局,上海市,上海市,虹口区,四川北路2023弄35号,优秀历史建筑,TRUE,FALSE,history_culture,semi-known,low-social,free-flow,FALSE
629,北川公寓(拉摩斯公寓),上海市,上海市,虹口区,四川北路2079-2099号,优秀历史建筑,TRUE,FALSE,history_culture,semi-known,low-social,free-flow,FALSE
630,复兴初级中学(西童公学),上海市,上海市,虹口区,四川北路2066号,优秀历史建筑,TRUE,FALSE,history_culture,semi-known,low-social,free-flow,FALSE
631,上海青岛啤酒华东（控股）有限公司(樱苑别墅),上海市,上海市,虹口区,四川北路2365号,优秀历史建筑,TRUE,FALSE,history_culture,semi-known,low-social,free-flow,FALSE
632,海军411医院(白氏旧居),上海市,上海市,虹口区,多伦路210号,优秀历史建筑,TRUE,FALSE,history_culture,semi-known,low-social,free-flow,FALSE
633,恒丰里，新恒丰里,上海市,上海市,虹口区,山阴路69弄、85弄,优秀历史建筑,TRUE,FALSE,history_culture,semi-known,low-social,free-flow,FALSE
634,东照里(日照里),上海市,上海市,虹口区,山阴路133弄,优秀历史建筑,TRUE,FALSE,history_culture,semi-known,low-social,free-flow,FALSE
635,花园里,上海市,上海市,虹口区,山阴路145弄,优秀历史建筑,TRUE,FALSE,history_culture,semi-known,low-social,free-flow,FALSE
636,亚细亚里,上海市,上海市,虹口区,黄渡路107弄、109号,优秀历史建筑,TRUE,FALSE,history_culture,semi-known,low-social,free-flow,FALSE
637,摩西会堂,上海市,上海市,虹口区,长阳路62号,优秀历史建筑,TRUE,FALSE,history_culture,semi-known,low-social,free-flow,FALSE
638,新华印刷厂及部队住宅,上海市,上海市,虹口区,榆林路43号、47号、59号、63号大宅,优秀历史建筑,TRUE,FALSE,history_culture,semi-known,low-social,free-flow,FALSE
639,纺三小区,上海市,上海市,杨浦区,许昌路227弄,优秀历史建筑,TRUE,FALSE,history_culture,semi-known,low-social,free-flow,FALSE
640,杨浦老年人医院9号楼(圣心教堂),上海市,上海市,杨浦区,杭州路349号,优秀历史建筑,TRUE,FALSE,history_culture,semi-known,low-social,free-flow,FALSE
641,上海怡达实业公司及住宅(日本同兴纱厂工房及老板住宅),上海市,上海市,杨浦区,平凉路1777弄51号、101-141（单）号、100-154（双）号,优秀历史建筑,TRUE,FALSE,history_culture,semi-known,low-social,free-flow,FALSE
642,杨树浦路3061弄(新式里弄),上海市,上海市,杨浦区,杨树浦路3061弄,优秀历史建筑,TRUE,FALSE,history_culture,semi-known,low-social,free-flow,FALSE
643,上海理工大学建筑群(沪江大学历史建筑建筑群),上海市,上海市,杨浦区,军工路516号,优秀历史建筑,TRUE,FALSE,history_culture,semi-known,low-social,free-flow,FALSE
644,同济大学:文远楼(土木工程学院)，大礼堂，南北楼，图书馆裙房，校门(老)，西南一楼，机电厂，工程试验馆，羽毛球馆，“一·二九”大楼，测量馆(同济大学历史建筑建筑群),上海市,上海市,杨浦区,四平路1239号,优秀历史建筑,TRUE,FALSE,history_culture,semi-known,low-social,free-flow,FALSE
645,同济新村:教工俱乐部，村一楼、村二楼、村三楼、村四楼,上海市,上海市,杨浦区,彰武路45弄,优秀历史建筑,TRUE,FALSE,history_culture,semi-known,low-social,free-flow,FALSE
646,复旦大学:相辉堂，数学楼，经济学院，校门(复旦大学历史建筑建筑群),上海市,上海市,杨浦区,邯郸路220号,优秀历史建筑,TRUE,FALSE,history_culture,semi-known,low-social,free-flow,FALSE
647,毓秀楼,上海市,上海市,杨浦区,武东路100号,优秀历史建筑,TRUE,FALSE,history_culture,semi-known,low-social,free-flow,FALSE
648,肺科医院(白楼)(叶家花园/澄衷医院),上海市,上海市,杨浦区,政民路507号,优秀历史建筑,TRUE,FALSE,history_culture,semi-known,low-social,free-flow,FALSE
649,长海医院飞机楼(中国航空协会飞机楼),上海市,上海市,杨浦区,长海路174号,优秀历史建筑,TRUE,FALSE,history_culture,semi-known,low-social,free-flow,FALSE
650,公安部八二二厂(国立音乐专科学校主楼及辅楼),上海市,上海市,杨浦区,民京路918号,优秀历史建筑,TRUE,FALSE,history_culture,semi-known,low-social,free-flow,FALSE
651,华园(盛世花园),上海市,上海市,长宁区,万航渡路540号,优秀历史建筑,TRUE,FALSE,history_culture,semi-known,low-social,free-flow,FALSE
652,上海五金交电仓库(厂房及仓库),上海市,上海市,长宁区,万航渡路1384弄12号,优秀历史建筑,TRUE,FALSE,history_culture,semi-known,low-social,free-flow,FALSE
653,武定公寓(开纳公寓),上海市,上海市,长宁区,武定西路1375号,优秀历史建筑,TRUE,FALSE,history_culture,semi-known,low-social,free-flow,FALSE
654,中一村,上海市,上海市,长宁区,江苏路46弄、54弄、62弄、70弄、78弄,优秀历史建筑,TRUE,FALSE,history_culture,semi-known,low-social,free-flow,FALSE
655,住宅(上海海关税务司花园住宅),上海市,上海市,长宁区,江苏路162弄3号,优秀历史建筑,TRUE,FALSE,history_culture,semi-known,low-social,free-flow,FALSE
656,安定坊,上海市,上海市,长宁区,江苏路284弄3号、5号、7号、9号、10号、11号、12号、14号、15号、16号、17号、18号、19号、27号,优秀历史建筑,TRUE,FALSE,history_culture,semi-known,low-social,free-flow,FALSE
657,月村,上海市,上海市,长宁区,江苏路480弄54、56、58、60、62、66、68、72号,优秀历史建筑,TRUE,FALSE,history_culture,semi-known,low-social,free-flow,FALSE
658,忆定村,上海市,上海市,长宁区,江苏路495弄,优秀历史建筑,TRUE,FALSE,history_culture,semi-known,low-social,free-flow,FALSE
659,华山医院(分部)1号楼(麦加利银行高级职员住宅/上海房地局职工医院),上海市,上海市,长宁区,江苏路796号,优秀历史建筑,TRUE,FALSE,history_culture,semi-known,low-social,free-flow,FALSE
660,渔光村,上海市,上海市,长宁区,镇宁路255弄、265弄、275弄、285弄,优秀历史建筑,TRUE,FALSE,history_culture,semi-known,low-social,free-flow,FALSE
661,严家花园,上海市,上海市,长宁区,愚园路699号,优秀历史建筑,TRUE,FALSE,history_culture,semi-known,low-social,free-flow,FALSE
662,花园住宅,上海市,上海市,长宁区,愚园路749弄65号,优秀历史建筑,TRUE,FALSE,history_culture,semi-known,low-social,free-flow,FALSE
663,愚园新村,上海市,上海市,长宁区,愚园路750弄,优秀历史建筑,TRUE,FALSE,history_culture,semi-known,low-social,free-flow,FALSE
664,上海西夏葡萄酒业有限公司(杨氏花园),上海市,上海市,长宁区,愚园路838弄7号,优秀历史建筑,TRUE,FALSE,history_culture,semi-known,low-social,free-flow,FALSE
665,长宁区教育学院1号楼(百老汇总会/花园住宅),上海市,上海市,长宁区,愚园路864号,优秀历史建筑,TRUE,FALSE,history_culture,semi-known,low-social,free-flow,FALSE
666,花园住宅群(英式花园住宅群),上海市,上海市,长宁区,愚园路865弄30、31、32、33、35号,优秀历史建筑,TRUE,FALSE,history_culture,semi-known,low-social,free-flow,FALSE
667,长宁区工商联(周氏花园住宅),上海市,上海市,长宁区,愚园路1015号,优秀历史建筑,TRUE,FALSE,history_culture,semi-known,low-social,free-flow,FALSE
668,岐山村,上海市,上海市,长宁区,愚园路1032弄（1018-1028号，1034-1046号）,优秀历史建筑,TRUE,FALSE,history_culture,semi-known,low-social,free-flow,FALSE
669,宏业花园,上海市,上海市,长宁区,愚园路1076号，1086号，1088弄5-9号、101-147号,优秀历史建筑,TRUE,FALSE,history_culture,semi-known,low-social,free-flow,FALSE
670,桃源坊,上海市,上海市,长宁区,愚园路1292弄,优秀历史建筑,TRUE,FALSE,history_culture,semi-known,low-social,free-flow,FALSE
671,长宁区政府5、6、7、8号楼(联安坊),上海市,上海市,长宁区,愚园路1352弄,优秀历史建筑,TRUE,FALSE,history_culture,semi-known,low-social,free-flow,FALSE
672,中科院上海冶金研究所:杏佛楼，元培楼(中央研究院理工实验馆:实验大楼，元培楼),上海市,上海市,长宁区,长宁路865号（中山公园对面）,优秀历史建筑,TRUE,FALSE,history_culture,semi-known,low-social,free-flow,FALSE
673,东华大学长宁路分校(圣玛利亚女中),上海市,上海市,长宁区,长宁路1187号,优秀历史建筑,TRUE,FALSE,history_culture,semi-known,low-social,free-flow,FALSE
674,花园住宅,上海市,上海市,长宁区,利西路24弄5号,优秀历史建筑,TRUE,FALSE,history_culture,semi-known,low-social,free-flow,FALSE
675,花园住宅,上海市,上海市,长宁区,利西路30、32号,优秀历史建筑,TRUE,FALSE,history_culture,semi-known,low-social,free-flow,FALSE
676,福世花园,上海市,上海市,长宁区,安化路200弄7、8、9、10、11-12、14-15、16、17、18、19号,优秀历史建筑,TRUE,FALSE,history_culture,semi-known,low-social,free-flow,FALSE
677,住宅(郭氏花园住宅),上海市,上海市,长宁区,延安西路949弄25-47号（除37号）,优秀历史建筑,TRUE,FALSE,history_culture,semi-known,low-social,free-flow,FALSE
678,住宅(大西别墅),上海市,上海市,长宁区,延安西路1453弄,优秀历史建筑,TRUE,FALSE,history_culture,semi-known,low-social,free-flow,FALSE
679,汤山村,上海市,上海市,长宁区,武夷路466弄2-9号，武夷路458-460、470-472号,优秀历史建筑,TRUE,FALSE,history_culture,semi-known,low-social,free-flow,FALSE
680,范园,上海市,上海市,长宁区,华山路1220弄,优秀历史建筑,TRUE,FALSE,history_culture,semi-known,low-social,free-flow,FALSE
681,外国弄堂,上海市,上海市,长宁区,番禺路55弄、75弄、95弄，平武路2号、8号、10号、14号、18号,优秀历史建筑,TRUE,FALSE,history_culture,semi-known,low-social,free-flow,FALSE
682,上海市旅游培训中心(邬达克住宅),上海市,上海市,长宁区,番禺路135号,优秀历史建筑,TRUE,FALSE,history_culture,semi-known,low-social,free-flow,FALSE
683,登云公寓(又斯登公寓),上海市,上海市,长宁区,淮海中路2068号,优秀历史建筑,TRUE,FALSE,history_culture,semi-known,low-social,free-flow,FALSE
684,复旦中学:登辉堂及门楼/力学堂(李鸿章祠堂及门楼/复旦公学力学庐),上海市,上海市,长宁区,华山路1626号,优秀历史建筑,TRUE,FALSE,history_culture,semi-known,low-social,free-flow,FALSE
685,外国弄堂,上海市,上海市,长宁区,新华路329弄28号、30号，新华路321号，新华路211弄1号、10号、12号、14号、16号,优秀历史建筑,TRUE,FALSE,history_culture,semi-known,low-social,free-flow,FALSE
686,上海血液中心(虹桥疗养院),上海市,上海市,长宁区,伊犁路2号,优秀历史建筑,TRUE,FALSE,history_culture,semi-known,low-social,free-flow,FALSE
687,白宫俱乐部,上海市,上海市,长宁区,虹桥路1390号,优秀历史建筑,TRUE,FALSE,history_culture,semi-known,low-social,free-flow,FALSE
688,花园住宅(宋氏花园住宅),上海市,上海市,长宁区,虹桥路1430号,优秀历史建筑,TRUE,FALSE,history_culture,semi-known,low-social,free-flow,FALSE
689,申康宾馆(陈氏花园住宅/上海血吸虫病院/上海寄生虫病院/上海第二结核病防治院),上海市,上海市,长宁区,虹桥路1440号,优秀历史建筑,TRUE,FALSE,history_culture,semi-known,low-social,free-flow,FALSE
690,花园住宅,上海市,上海市,长宁区,虹桥路1518号,优秀历史建筑,TRUE,FALSE,history_culture,semi-known,low-social,free-flow,FALSE
691,上海盲童学校,上海市,上海市,长宁区,虹桥路1850号,优秀历史建筑,TRUE,FALSE,history_culture,semi-known,low-social,free-flow,FALSE
692,worldlink诊所/辉煌KTV(孔氏别墅),上海市,上海市,长宁区,虹桥路2258号、2260号,优秀历史建筑,TRUE,FALSE,history_culture,semi-known,low-social,free-flow,FALSE
693,住宅,上海市,上海市,长宁区,虹桥路2374号,优秀历史建筑,TRUE,FALSE,history_culture,semi-known,low-social,free-flow,FALSE
694,龙柏饭店:2号楼/长江商学院，3号楼(泰晤士报社别墅，美丰银行别墅),上海市,上海市,长宁区,虹桥路2419号,优秀历史建筑,TRUE,FALSE,history_culture,semi-known,low-social,free-flow,FALSE
695,空军医院:A楼/体检楼，B楼(花园住宅，教堂),上海市,上海市,长宁区,哈密路1713号,优秀历史建筑,TRUE,FALSE,history_culture,semi-known,low-social,free-flow,FALSE
696,空管局退休干部活动中心,上海市,上海市,长宁区,空港六路1号,优秀历史建筑,TRUE,FALSE,history_culture,semi-known,low-social,free-flow,FALSE
697,市舞蹈学校芭蕾舞团行政楼，上海歌舞团行政楼，上海歌舞团3号楼；市舞蹈学校5号楼，4号楼，3号楼(花园住宅群),上海市,上海市,长宁区,虹桥路1650号，1590号，1648号；1652号，虹桥路1674号4号楼、3号楼,优秀历史建筑,TRUE,FALSE,history_culture,semi-known,low-social,free-flow,FALSE
698,曹杨一村,上海市,上海市,普陀区,曹杨一村（枫桥路、梅岭北路、棠浦路、花溪路、兰溪路）,优秀历史建筑,TRUE,FALSE,history_culture,semi-known,low-social,free-flow,FALSE
699,澳门小区,上海市,上海市,普陀区,澳门路660弄1-15号，17-25号，27-37号，41-51号，229-239号，251-261号，267-277号，291-301号，307-317号，381-391号，397-407号,优秀历史建筑,TRUE,FALSE,history_culture,semi-known,low-social,free-flow,FALSE
700,新康大楼,上海市,上海市,黄浦区,江西中路260号，九江路151号,优秀历史建筑,TRUE,FALSE,history_culture,semi-known,low-social,free-flow,FALSE
701,外马路348号,上海市,上海市,黄浦区,外马路348号,优秀历史建筑,TRUE,FALSE,history_culture,semi-known,low-social,free-flow,FALSE
702,四川中路420号，滇池路119号,上海市,上海市,黄浦区,四川中路420号，滇池路119号,优秀历史建筑,TRUE,FALSE,history_culture,semi-known,low-social,free-flow,FALSE
703,珠江大楼（道达大楼）,上海市,上海市,黄浦区,江西中路320号,优秀历史建筑,TRUE,FALSE,history_culture,semi-known,low-social,free-flow,FALSE
704,华德大楼（公和洋行大楼）,上海市,上海市,黄浦区,四川中路650号,优秀历史建筑,TRUE,FALSE,history_culture,semi-known,low-social,free-flow,FALSE
705,礼和大楼,上海市,上海市,黄浦区,四川中路670号,优秀历史建筑,TRUE,FALSE,history_culture,semi-known,low-social,free-flow,FALSE
706,锦江之星（海青大楼/美国陆海军青年会）,上海市,上海市,黄浦区,四川中路630号,优秀历史建筑,TRUE,FALSE,history_culture,semi-known,low-social,free-flow,FALSE
707,四川中路620号,上海市,上海市,黄浦区,四川中路620号,优秀历史建筑,TRUE,FALSE,history_culture,semi-known,low-social,free-flow,FALSE
708,北京公寓,上海市,上海市,黄浦区,北京东路163号,优秀历史建筑,TRUE,FALSE,history_culture,semi-known,low-social,free-flow,FALSE
709,四川中路528号,上海市,上海市,黄浦区,四川中路528号,优秀历史建筑,TRUE,FALSE,history_culture,semi-known,low-social,free-flow,FALSE
710,南昌路107号,上海市,上海市,黄浦区,南昌路107号,优秀历史建筑,TRUE,FALSE,history_culture,semi-known,low-social,free-flow,FALSE
711,思南路36号,上海市,上海市,黄浦区,思南路36号,优秀历史建筑,TRUE,FALSE,history_culture,semi-known,low-social,free-flow,FALSE
712,皋兰路12号,上海市,上海市,黄浦区,皋兰路12号,优秀历史建筑,TRUE,FALSE,history_culture,semi-known,low-social,free-flow,FALSE
713,光远坊,上海市,上海市,黄浦区,北京西路256号,优秀历史建筑,TRUE,FALSE,history_culture,semi-known,low-social,free-flow,FALSE
714,中山小区（复昌仓库、卓成洋行栈房）,上海市,上海市,黄浦区,广东路131弄,优秀历史建筑,TRUE,FALSE,history_culture,semi-known,low-social,free-flow,FALSE
715,泗泾路28号,上海市,上海市,黄浦区,泗泾路28号,优秀历史建筑,TRUE,FALSE,history_culture,semi-known,low-social,free-flow,FALSE
716,聚兴诚银行大楼,上海市,上海市,黄浦区,江西中路250号,优秀历史建筑,TRUE,FALSE,history_culture,semi-known,low-social,free-flow,FALSE
717,延安东路134-150号楼（上海纱业银行大楼）,上海市,上海市,黄浦区,延安东路134-150号,优秀历史建筑,TRUE,FALSE,history_culture,semi-known,low-social,free-flow,FALSE
718,五洲大楼,上海市,上海市,黄浦区,河南中路220号,优秀历史建筑,TRUE,FALSE,history_culture,semi-known,low-social,free-flow,FALSE
719,马立斯新村,上海市,上海市,黄浦区,武胜路429号,优秀历史建筑,TRUE,FALSE,history_culture,semi-known,low-social,free-flow,FALSE
720,都城饭店（东楼）,上海市,上海市,黄浦区,福州路106号,优秀历史建筑,TRUE,FALSE,history_culture,semi-known,low-social,free-flow,FALSE
721,浙江实业银行大楼,上海市,上海市,黄浦区,福州路107号,优秀历史建筑,TRUE,FALSE,history_culture,semi-known,low-social,free-flow,FALSE
722,广东银行,上海市,上海市,黄浦区,宁波路52号,优秀历史建筑,TRUE,FALSE,history_culture,semi-known,low-social,free-flow,FALSE
723,英商上海电车公司大楼,上海市,上海市,黄浦区,南苏州路185号,优秀历史建筑,TRUE,FALSE,history_culture,semi-known,low-social,free-flow,FALSE
724,中实大楼（上海中国实业银行总部大楼）,上海市,上海市,黄浦区,北京东路130号,优秀历史建筑,TRUE,FALSE,history_culture,semi-known,low-social,free-flow,FALSE
725,新天安堂等（原教会公寓）,上海市,上海市,黄浦区,南苏州路79号,优秀历史建筑,TRUE,FALSE,history_culture,semi-known,low-social,free-flow,FALSE
726,皋兰路28号,上海市,上海市,黄浦区,皋兰路28号,优秀历史建筑,TRUE,FALSE,history_culture,semi-known,low-social,free-flow,FALSE
727,中央商场,上海市,上海市,黄浦区,四川中路355号,优秀历史建筑,TRUE,FALSE,history_culture,semi-known,low-social,free-flow,FALSE
728,美伦大楼（东楼）,上海市,上海市,黄浦区,南京东路151号,优秀历史建筑,TRUE,FALSE,history_culture,semi-known,low-social,free-flow,FALSE
729,美伦大楼（西楼）,上海市,上海市,黄浦区,南京东路161号,优秀历史建筑,TRUE,FALSE,history_culture,semi-known,low-social,free-flow,FALSE
730,大生公司大楼,上海市,上海市,黄浦区,九江路230号,优秀历史建筑,TRUE,FALSE,history_culture,semi-known,low-social,free-flow,FALSE
731,公益新天地及民政博物馆（新普育堂）,上海市,上海市,黄浦区,普育西路105号,优秀历史建筑,TRUE,FALSE,history_culture,semi-known,low-social,free-flow,FALSE
732,凤阳路338弄,上海市,上海市,黄浦区,凤阳路338弄,优秀历史建筑,TRUE,FALSE,history_culture,semi-known,low-social,free-flow,FALSE
733,华侨大楼,上海市,上海市,黄浦区,九江路120号,优秀历史建筑,TRUE,FALSE,history_culture,semi-known,low-social,free-flow,FALSE
734,福州路37号,上海市,上海市,黄浦区,福州路37号,优秀历史建筑,TRUE,FALSE,history_culture,semi-known,low-social,free-flow,FALSE
735,中国建设银行（中孚银行大楼）,上海市,上海市,黄浦区,滇池路103号,优秀历史建筑,TRUE,FALSE,history_culture,semi-known,low-social,free-flow,FALSE
736,中新公司大楼（原荣氏家族三新公司总部大楼）,上海市,上海市,黄浦区,江西中路421号,优秀历史建筑,TRUE,FALSE,history_culture,semi-known,low-social,free-flow,FALSE
737,四川中路200号（另有路牌：福州路60、70号）（德国邮局）,上海市,上海市,黄浦区,四川中路200号（福州路60、70号）,优秀历史建筑,TRUE,FALSE,history_culture,semi-known,low-social,free-flow,FALSE
738,四川中路330号（Bank of Chosen/上海市直接税局）,上海市,上海市,黄浦区,四川中路330号,优秀历史建筑,TRUE,FALSE,history_culture,semi-known,low-social,free-flow,FALSE
739,南京东路257号（老介福绸缎局）,上海市,上海市,黄浦区,南京东路257号,优秀历史建筑,TRUE,FALSE,history_culture,semi-known,low-social,free-flow,FALSE
740,惠罗公司大楼,上海市,上海市,黄浦区,南京东路100号,优秀历史建筑,TRUE,FALSE,history_culture,semi-known,low-social,free-flow,FALSE
741,华懋和平大厦（公平大楼）,上海市,上海市,黄浦区,滇池路105号,优秀历史建筑,TRUE,FALSE,history_culture,semi-known,low-social,free-flow,FALSE
742,凯恩宾馆（SHELL汽车公司、美灵登有限公司、永实业有限公司）,上海市,上海市,黄浦区,香港路117号,优秀历史建筑,TRUE,FALSE,history_culture,semi-known,low-social,free-flow,FALSE
743,圆明园公寓（谦信洋行、汉成洋行、亚洲花边厂等）,上海市,上海市,黄浦区,圆明园路115号,优秀历史建筑,TRUE,FALSE,history_culture,semi-known,low-social,free-flow,FALSE
744,协进大楼（基督教协进会大楼）,上海市,上海市,黄浦区,圆明园路169号,优秀历史建筑,TRUE,FALSE,history_culture,semi-known,low-social,free-flow,FALSE
745,上海卧室用品有限公司（泰昌木器公司）,上海市,上海市,黄浦区,南京东路740号,优秀历史建筑,TRUE,FALSE,history_culture,semi-known,low-social,free-flow,FALSE
746,锦江之星酒店（大方饭店）,上海市,上海市,黄浦区,福建南路33号,优秀历史建筑,TRUE,FALSE,history_culture,semi-known,low-social,free-flow,FALSE
747,外文书店（世界书局）,上海市,上海市,黄浦区,福州路390号,优秀历史建筑,TRUE,FALSE,history_culture,semi-known,low-social,free-flow,FALSE
748,南苏州路991号仓库（章华毛绒纺织公司上海货栈、中国垦业银行仓库）,上海市,上海市,黄浦区,南苏州路991号,优秀历史建筑,TRUE,FALSE,history_culture,semi-known,low-social,free-flow,FALSE
749,南苏州路955号仓库（章华毛绒纺织公司上海货栈、中国垦业银行仓库）,上海市,上海市,黄浦区,南苏州路955号,优秀历史建筑,TRUE,FALSE,history_culture,semi-known,low-social,free-flow,FALSE
750,绍兴路25号,上海市,上海市,黄浦区,绍兴路25号,优秀历史建筑,TRUE,FALSE,history_culture,semi-known,low-social,free-flow,FALSE
751,陕西南路191-197号（卢湾市容管理局瑞金二路街道管理所）,上海市,上海市,黄浦区,陕西南路191-197号,优秀历史建筑,TRUE,FALSE,history_culture,semi-known,low-social,free-flow,FALSE
752,绍兴路1号，3号；瑞金二路158号，148号，146号,上海市,上海市,黄浦区,绍兴路1号，3号；瑞金二路158号，148号，146号,优秀历史建筑,TRUE,FALSE,history_culture,semi-known,low-social,free-flow,FALSE
753,复兴中路599号,上海市,上海市,黄浦区,复兴中路599号,优秀历史建筑,TRUE,FALSE,history_culture,semi-known,low-social,free-flow,FALSE
754,复兴中路563号,上海市,上海市,黄浦区,复兴中路563号,优秀历史建筑,TRUE,FALSE,history_culture,semi-known,low-social,free-flow,FALSE
755,合肥路592弄,上海市,上海市,黄浦区,合肥路592弄,优秀历史建筑,TRUE,FALSE,history_culture,semi-known,low-social,free-flow,FALSE
756,巨鹿路314号,上海市,上海市,黄浦区,巨鹿路314号,优秀历史建筑,TRUE,FALSE,history_culture,semi-known,low-social,free-flow,FALSE
757,长乐路272弄14号,上海市,上海市,黄浦区,长乐路272弄14号,优秀历史建筑,TRUE,FALSE,history_culture,semi-known,low-social,free-flow,FALSE
758,思南路48号,上海市,上海市,黄浦区,思南路48号,优秀历史建筑,TRUE,FALSE,history_culture,semi-known,low-social,free-flow,FALSE
759,西爱村，恒爱里,上海市,上海市,黄浦区,永嘉路19号,优秀历史建筑,TRUE,FALSE,history_culture,semi-known,low-social,free-flow,FALSE
760,花园坊,上海市,上海市,黄浦区,瑞金二路129号,优秀历史建筑,TRUE,FALSE,history_culture,semi-known,low-social,free-flow,FALSE
761,绍兴路36弄,上海市,上海市,黄浦区,绍兴路36弄,优秀历史建筑,TRUE,FALSE,history_culture,semi-known,low-social,free-flow,FALSE
762,永嘉路17号,上海市,上海市,黄浦区,永嘉路17号,优秀历史建筑,TRUE,FALSE,history_culture,semi-known,low-social,free-flow,FALSE
763,永嘉路39弄,上海市,上海市,黄浦区,永嘉路39弄,优秀历史建筑,TRUE,FALSE,history_culture,semi-known,low-social,free-flow,FALSE
764,建国西路146号,上海市,上海市,黄浦区,建国西路146号,优秀历史建筑,TRUE,FALSE,history_culture,semi-known,low-social,free-flow,FALSE
765,松韵别墅（群贤小学）,上海市,上海市,黄浦区,复兴路498弄1-8、10、11号,优秀历史建筑,TRUE,FALSE,history_culture,semi-known,low-social,free-flow,FALSE
766,永嘉路37号,上海市,上海市,黄浦区,永嘉路37号,优秀历史建筑,TRUE,FALSE,history_culture,semi-known,low-social,free-flow,FALSE
767,南昌路212、244弄小区（环龙别业、环龙里）,上海市,上海市,黄浦区,南昌路212、244弄,优秀历史建筑,TRUE,FALSE,history_culture,semi-known,low-social,free-flow,FALSE
768,银行博物馆（上海律师公会会所）,上海市,上海市,黄浦区,复兴中路301号,优秀历史建筑,TRUE,FALSE,history_culture,semi-known,low-social,free-flow,FALSE
769,向明初级中学（上海儿科疗养院）,上海市,上海市,黄浦区,巨鹿路334号,优秀历史建筑,TRUE,FALSE,history_culture,semi-known,low-social,free-flow,FALSE
770,重庆南路139号（首善堂）,上海市,上海市,黄浦区,重庆南路139号,优秀历史建筑,TRUE,FALSE,history_culture,semi-known,low-social,free-flow,FALSE
771,中国疾病预防控制中心寄生虫病预防控制所（公董局公共卫生救济处医学化验所）,上海市,上海市,黄浦区,瑞金二路207号,优秀历史建筑,TRUE,FALSE,history_culture,semi-known,low-social,free-flow,FALSE
772,上海小楼/滇池小区（上海银行）,上海市,上海市,黄浦区,江西中路372-390号，北京东路205-217号,优秀历史建筑,TRUE,FALSE,history_culture,semi-known,low-social,free-flow,FALSE
773,江西中路441-445号,上海市,上海市,黄浦区,江西中路441-445号,优秀历史建筑,TRUE,FALSE,history_culture,semi-known,low-social,free-flow,FALSE
774,海青大楼（美国陆海军青年会）,上海市,上海市,黄浦区,香港路85号,优秀历史建筑,TRUE,FALSE,history_culture,semi-known,low-social,free-flow,FALSE
775,北京东路131号,上海市,上海市,黄浦区,北京东路131号,优秀历史建筑,TRUE,FALSE,history_culture,semi-known,low-social,free-flow,FALSE
776,上海市公安局黄浦分局（上海法租界麦兰捕房、上海市警察局黄浦分局）,上海市,上海市,黄浦区,金陵东路174号,优秀历史建筑,TRUE,FALSE,history_culture,semi-known,low-social,free-flow,FALSE
777,自忠路414-454号,上海市,上海市,黄浦区,自忠路414-454号,优秀历史建筑,TRUE,FALSE,history_culture,semi-known,low-social,free-flow,FALSE
778,复兴中路492号,上海市,上海市,黄浦区,复兴中路492号,优秀历史建筑,TRUE,FALSE,history_culture,semi-known,low-social,free-flow,FALSE
779,香山路9号,上海市,上海市,黄浦区,香山路9号,优秀历史建筑,TRUE,FALSE,history_culture,semi-known,low-social,free-flow,FALSE
780,南苏河创意园区（天祥实业股份有限公司、上海顾天盛花厂）,上海市,上海市,黄浦区,南苏州路1295号-1305号,优秀历史建筑,TRUE,FALSE,history_culture,semi-known,low-social,free-flow,FALSE
781,上海当代艺术博物馆（南市发电厂）,上海市,上海市,黄浦区,花园港路200号,优秀历史建筑,TRUE,FALSE,history_culture,semi-known,low-social,free-flow,FALSE
782,凤阳路450号（白克路）,上海市,上海市,黄浦区,凤阳路450号,优秀历史建筑,TRUE,FALSE,history_culture,semi-known,low-social,free-flow,FALSE
783,步高里,上海市,上海市,黄浦区,陕西南路287号,优秀历史建筑,TRUE,FALSE,history_culture,semi-known,low-social,free-flow,FALSE
784,瑞金宾馆1号楼（瑞金二路住宅）,上海市,上海市,黄浦区,瑞金二路18号,优秀历史建筑,TRUE,FALSE,history_culture,semi-known,low-social,free-flow,FALSE
785,尚贤坊,上海市,上海市,黄浦区,淮海中路50号,优秀历史建筑,TRUE,FALSE,history_culture,semi-known,low-social,free-flow,FALSE
786,锦江宾馆北楼（华懋公寓）,上海市,上海市,黄浦区,长乐路109号,优秀历史建筑,TRUE,FALSE,history_culture,semi-known,low-social,free-flow,FALSE
787,锦江宾馆中、西楼（峻岭公寓、茂名公寓）,上海市,上海市,黄浦区,茂名南路65-125号,优秀历史建筑,TRUE,FALSE,history_culture,semi-known,low-social,free-flow,FALSE
788,综合办公楼（法公董局）,上海市,上海市,黄浦区,淮海中路375号,优秀历史建筑,TRUE,FALSE,history_culture,semi-known,low-social,free-flow,FALSE
789,培文公寓,上海市,上海市,黄浦区,淮海中路449号,优秀历史建筑,TRUE,FALSE,history_culture,semi-known,low-social,free-flow,FALSE
790,永业大楼,上海市,上海市,黄浦区,淮海中路481号,优秀历史建筑,TRUE,FALSE,history_culture,semi-known,low-social,free-flow,FALSE
791,国泰电影院（国泰大戏院）,上海市,上海市,黄浦区,淮海中路870号,优秀历史建筑,TRUE,FALSE,history_culture,semi-known,low-social,free-flow,FALSE
792,花园饭店（法国总会）,上海市,上海市,黄浦区,茂名南路58号,优秀历史建筑,TRUE,FALSE,history_culture,semi-known,low-social,free-flow,FALSE
793,兰心大戏院,上海市,上海市,黄浦区,茂名南路57号,优秀历史建筑,TRUE,FALSE,history_culture,semi-known,low-social,free-flow,FALSE
794,南昌大楼（ASTRID公寓）,上海市,上海市,黄浦区,茂名南路143号,优秀历史建筑,TRUE,FALSE,history_culture,semi-known,low-social,free-flow,FALSE
795,科学会堂(一号楼)（法国总会（老））,上海市,上海市,黄浦区,南昌路47号,优秀历史建筑,TRUE,FALSE,history_culture,semi-known,low-social,free-flow,FALSE
796,里弄住宅（梵尔登花园）,上海市,上海市,黄浦区,陕西南路39弄1-103号,优秀历史建筑,TRUE,FALSE,history_culture,semi-known,low-social,free-flow,FALSE
797,陕南村,上海市,上海市,黄浦区,陕西南路157-187号,优秀历史建筑,TRUE,FALSE,history_culture,semi-known,low-social,free-flow,FALSE
798,花园住宅,上海市,上海市,黄浦区,思南路51-95号(单),优秀历史建筑,TRUE,FALSE,history_culture,semi-known,low-social,free-flow,FALSE
799,第二医科大学十二号大楼/昆虫研究所（震旦大学图书馆教学大楼/震旦大学博物馆）,上海市,上海市,黄浦区,重庆南路280号/重庆南路225号,优秀历史建筑,TRUE,FALSE,history_culture,semi-known,low-social,free-flow,FALSE
800,幸运城大酒店（东正教堂）,上海市,上海市,黄浦区,皋兰路16号,优秀历史建筑,TRUE,FALSE,history_culture,semi-known,low-social,free-flow,FALSE
801,江南造船厂（江南制造局）,上海市,上海市,黄浦区,高雄路2号（总办公楼）/2号船坞/指挥楼/飞机车间,优秀历史建筑,TRUE,FALSE,history_culture,semi-known,low-social,free-flow,FALSE
802,瑞金大楼（爱司公寓）,上海市,上海市,黄浦区,瑞金一路150号,优秀历史建筑,TRUE,FALSE,history_culture,semi-known,low-social,free-flow,FALSE
803,泰山大楼（泰山公寓）,上海市,上海市,黄浦区,淮海中路622弄,优秀历史建筑,TRUE,FALSE,history_culture,semi-known,low-social,free-flow,FALSE
804,飞霞别墅,上海市,上海市,黄浦区,淮海中路584弄,优秀历史建筑,TRUE,FALSE,history_culture,semi-known,low-social,free-flow,FALSE
805,住宅（飞龙公寓）,上海市,上海市,黄浦区,淮海中路538-544号及542弄,优秀历史建筑,TRUE,FALSE,history_culture,semi-known,low-social,free-flow,FALSE
806,卢湾区职业教育中心（法租界霞飞路巡捕房）,上海市,上海市,黄浦区,淮海中路235号,优秀历史建筑,TRUE,FALSE,history_culture,semi-known,low-social,free-flow,FALSE
807,陕南大楼（白尔登公寓）,上海市,上海市,黄浦区,陕西南路213号,优秀历史建筑,TRUE,FALSE,history_culture,semi-known,low-social,free-flow,FALSE
808,瑞金宾馆3号楼,上海市,上海市,黄浦区,瑞金二路118号,优秀历史建筑,TRUE,FALSE,history_culture,semi-known,low-social,free-flow,FALSE
809,瑞金宾馆4号楼（三井杨行大班住宅）,上海市,上海市,黄浦区,瑞金二路118号,优秀历史建筑,TRUE,FALSE,history_culture,semi-known,low-social,free-flow,FALSE
810,巴黎公寓,上海市,上海市,黄浦区,重庆南路165号,优秀历史建筑,TRUE,FALSE,history_culture,semi-known,low-social,free-flow,FALSE
811,巴黎新村,上海市,上海市,黄浦区,重庆南路169弄,优秀历史建筑,TRUE,FALSE,history_culture,semi-known,low-social,free-flow,FALSE
812,住宅（永丰村）,上海市,上海市,黄浦区,重庆南路177号、179弄1-10号,优秀历史建筑,TRUE,FALSE,history_culture,semi-known,low-social,free-flow,FALSE
813,重庆公寓（吕班公寓）,上海市,上海市,黄浦区,重庆南路185号,优秀历史建筑,TRUE,FALSE,history_culture,semi-known,low-social,free-flow,FALSE
814,诸圣堂,上海市,上海市,黄浦区,复兴中路425号,优秀历史建筑,TRUE,FALSE,history_culture,semi-known,low-social,free-flow,FALSE
815,住宅,上海市,上海市,黄浦区,皋兰路1号,优秀历史建筑,TRUE,FALSE,history_culture,semi-known,low-social,free-flow,FALSE
816,上海文艺出版社等,上海市,上海市,黄浦区,绍兴路74号,优秀历史建筑,TRUE,FALSE,history_culture,semi-known,low-social,free-flow,FALSE
817,住宅（香山路住宅）,上海市,上海市,黄浦区,香山路6号,优秀历史建筑,TRUE,FALSE,history_culture,semi-known,low-social,free-flow,FALSE
818,妇婴保健院（中德医院）,上海市,上海市,黄浦区,延安中路393号,优秀历史建筑,TRUE,FALSE,history_culture,semi-known,low-social,free-flow,FALSE
819,康绥公寓,上海市,上海市,黄浦区,淮海中路468-494号,优秀历史建筑,TRUE,FALSE,history_culture,semi-known,low-social,free-flow,FALSE
820,国泰公寓,上海市,上海市,黄浦区,淮海中路816弄、818－832号,优秀历史建筑,TRUE,FALSE,history_culture,semi-known,low-social,free-flow,FALSE
821,淮海坊（霞飞坊）,上海市,上海市,黄浦区,淮海中路927弄,优秀历史建筑,TRUE,FALSE,history_culture,semi-known,low-social,free-flow,FALSE
822,科学会堂（法国体育总会）,上海市,上海市,黄浦区,南昌路57号,优秀历史建筑,TRUE,FALSE,history_culture,semi-known,low-social,free-flow,FALSE
823,上海别墅,上海市,上海市,黄浦区,南昌路110弄、112-122号,优秀历史建筑,TRUE,FALSE,history_culture,semi-known,low-social,free-flow,FALSE
824,花园住宅群,上海市,上海市,黄浦区,南昌路124－134号、136弄1-16号、138-146号,优秀历史建筑,TRUE,FALSE,history_culture,semi-known,low-social,free-flow,FALSE
825,卢湾区政府2号楼（克美产科医院）,上海市,上海市,黄浦区,重庆南路139号,优秀历史建筑,TRUE,FALSE,history_culture,semi-known,low-social,free-flow,FALSE
826,花园住宅,上海市,上海市,黄浦区,皋兰路11-17号,优秀历史建筑,TRUE,FALSE,history_culture,semi-known,low-social,free-flow,FALSE
827,钟和公寓（希勒公寓）,上海市,上海市,黄浦区,茂名南路106-124号，南昌路179号,优秀历史建筑,TRUE,FALSE,history_culture,semi-known,low-social,free-flow,FALSE
828,梅兰坊,上海市,上海市,黄浦区,黄陂南路596弄1-58号,优秀历史建筑,TRUE,FALSE,history_culture,semi-known,low-social,free-flow,FALSE
829,花园公寓（派克公寓）,上海市,上海市,黄浦区,复兴中路455号,优秀历史建筑,TRUE,FALSE,history_culture,semi-known,low-social,free-flow,FALSE
830,花园住宅（其中471－473号曾为卢湾区第四聋哑学校）,上海市,上海市,黄浦区,复兴中路471－473号，477号,优秀历史建筑,TRUE,FALSE,history_culture,semi-known,low-social,free-flow,FALSE
831,花园住宅,上海市,上海市,黄浦区,复兴中路517号，531号，533-537号，539号，541号,优秀历史建筑,TRUE,FALSE,history_culture,semi-known,low-social,free-flow,FALSE
832,复兴坊（辣斐坊）,上海市,上海市,黄浦区,复兴中路553弄1-21号，543-551号，555-561号,优秀历史建筑,TRUE,FALSE,history_culture,semi-known,low-social,free-flow,FALSE
833,花园住宅,上海市,上海市,黄浦区,思南路50-70号,优秀历史建筑,TRUE,FALSE,history_culture,semi-known,low-social,free-flow,FALSE
834,万宜坊,上海市,上海市,黄浦区,重庆南路205弄5-94号,优秀历史建筑,TRUE,FALSE,history_culture,semi-known,low-social,free-flow,FALSE
835,瑞金医院8号楼、3号楼（广慈医院）,上海市,上海市,黄浦区,瑞金二路197号,优秀历史建筑,TRUE,FALSE,history_culture,semi-known,low-social,free-flow,FALSE
836,安和新村,上海市,上海市,黄浦区,瑞金二路198弄,优秀历史建筑,TRUE,FALSE,history_culture,semi-known,low-social,free-flow,FALSE
837,金谷村,上海市,上海市,黄浦区,绍兴路18弄，绍兴路2-34号，瑞金二路132弄1-59号、78-83号,优秀历史建筑,TRUE,FALSE,history_culture,semi-known,low-social,free-flow,FALSE
838,上海昆剧团（爱麦虞限路9号宅）,上海市,上海市,黄浦区,绍兴路9号,优秀历史建筑,TRUE,FALSE,history_culture,semi-known,low-social,free-flow,FALSE
839,卢湾区图书馆（明复图书馆）,上海市,上海市,黄浦区,陕西南路235号,优秀历史建筑,TRUE,FALSE,history_culture,semi-known,low-social,free-flow,FALSE
840,花园住宅,上海市,上海市,黄浦区,淮海中路796号,优秀历史建筑,TRUE,FALSE,history_culture,semi-known,low-social,free-flow,FALSE
841,J.K.K.公寓,上海市,上海市,静安区,长乐路962弄1-4号,优秀历史建筑,TRUE,FALSE,history_culture,semi-known,low-social,free-flow,FALSE
842,戏剧学院（仲彝楼、健伍楼）,上海市,上海市,静安区,华山路630号,优秀历史建筑,TRUE,FALSE,history_culture,semi-known,low-social,free-flow,FALSE
843,花园住宅,上海市,上海市,静安区,愚园路541弄2号,优秀历史建筑,TRUE,FALSE,history_culture,semi-known,low-social,free-flow,FALSE
844,花园住宅,上海市,上海市,静安区,愚园路419弄（3-32号）、愚园路411号、愚园路427号,优秀历史建筑,TRUE,FALSE,history_culture,semi-known,low-social,free-flow,FALSE
845,美丽园,上海市,上海市,静安区,延安西路379弄2-16号、18号、20号、22号,优秀历史建筑,TRUE,FALSE,history_culture,semi-known,low-social,free-flow,FALSE
846,住宅,上海市,上海市,静安区,乌鲁木齐北路468弄80-108号,优秀历史建筑,TRUE,FALSE,history_culture,semi-known,low-social,free-flow,FALSE
847,静安区教育学院培训中心,上海市,上海市,静安区,新闸路1378弄17号,优秀历史建筑,TRUE,FALSE,history_culture,semi-known,low-social,free-flow,FALSE
848,经济日报上海记者站,上海市,上海市,静安区,新闸路1340弄21号,优秀历史建筑,TRUE,FALSE,history_culture,semi-known,low-social,free-flow,FALSE
849,住宅,上海市,上海市,静安区,胶州路450号,优秀历史建筑,TRUE,FALSE,history_culture,semi-known,low-social,free-flow,FALSE
850,住宅,上海市,上海市,静安区,武定路946号,优秀历史建筑,TRUE,FALSE,history_culture,semi-known,low-social,free-flow,FALSE
851,石门二路社区文化活动中心,上海市,上海市,静安区,康定东路85号,优秀历史建筑,TRUE,FALSE,history_culture,semi-known,low-social,free-flow,FALSE
852,派司公寓,上海市,上海市,静安区,常熟路100弄1-8号,优秀历史建筑,TRUE,FALSE,history_culture,semi-known,low-social,free-flow,FALSE
853,贤邻别墅,上海市,上海市,静安区,愚园路470弄3-23号、愚园路472-474号（双号）,优秀历史建筑,TRUE,FALSE,history_culture,semi-known,low-social,free-flow,FALSE
854,四明体育弄,上海市,上海市,静安区,愚园路520弄(2-28号)、愚园路510-528号（双号）,优秀历史建筑,TRUE,FALSE,history_culture,semi-known,low-social,free-flow,FALSE
855,四明别墅,上海市,上海市,静安区,愚园路576弄（3-77号）、愚园路580-590号（双号）,优秀历史建筑,TRUE,FALSE,history_culture,semi-known,low-social,free-flow,FALSE
856,上海市市西中学（2号楼）,上海市,上海市,静安区,愚园路404号,优秀历史建筑,TRUE,FALSE,history_culture,semi-known,low-social,free-flow,FALSE
857,上海自来水投资建设有限公司苏州河三期项目管理部,上海市,上海市,静安区,康定东路20号,优秀历史建筑,TRUE,FALSE,history_culture,semi-known,low-social,free-flow,FALSE
858,住宅,上海市,上海市,静安区,威海路590弄89号,优秀历史建筑,TRUE,FALSE,history_culture,semi-known,low-social,free-flow,FALSE
859,住宅,上海市,上海市,静安区,北京西路1592弄11号,优秀历史建筑,TRUE,FALSE,history_culture,semi-known,low-social,free-flow,FALSE
860,住宅,上海市,上海市,静安区,北京西路1220弄1-108号,优秀历史建筑,TRUE,FALSE,history_culture,semi-known,low-social,free-flow,FALSE
861,住宅,上海市,上海市,静安区,常德路310号,优秀历史建筑,TRUE,FALSE,history_culture,semi-known,low-social,free-flow,FALSE
862,梅龙镇酒家,上海市,上海市,静安区,南京西路1081弄22号,优秀历史建筑,TRUE,FALSE,history_culture,semi-known,low-social,free-flow,FALSE
863,修德里,上海市,上海市,静安区,威海路590弄41号,优秀历史建筑,TRUE,FALSE,history_culture,semi-known,low-social,free-flow,FALSE
864,住宅,上海市,上海市,静安区,北京西路1220弄(50-108号),优秀历史建筑,TRUE,FALSE,history_culture,semi-known,low-social,free-flow,FALSE
865,光华里,上海市,上海市,静安区,巨鹿路786弄,优秀历史建筑,TRUE,FALSE,history_culture,semi-known,low-social,free-flow,FALSE
866,留园,上海市,上海市,静安区,长乐路672弄（1-30号）,优秀历史建筑,TRUE,FALSE,history_culture,semi-known,low-social,free-flow,FALSE
867,富民新邨,上海市,上海市,静安区,富民路148-172弄,优秀历史建筑,TRUE,FALSE,history_culture,semi-known,low-social,free-flow,FALSE
868,古柏小区,上海市,上海市,静安区,富民路197弄,优秀历史建筑,TRUE,FALSE,history_culture,semi-known,low-social,free-flow,FALSE
869,柳林别墅,上海市,上海市,静安区,愚园路532弄51、55、60、61、66、70、71号、73-85（单号）,优秀历史建筑,TRUE,FALSE,history_culture,semi-known,low-social,free-flow,FALSE
870,电信公司北泰电话站,上海市,上海市,静安区,泰兴路230号,优秀历史建筑,TRUE,FALSE,history_culture,semi-known,low-social,free-flow,FALSE
871,上海市公惠医院（吴宅）,上海市,上海市,静安区,石门一路315弄6号,优秀历史建筑,TRUE,FALSE,history_culture,semi-known,low-social,free-flow,FALSE
872,上海第二工业大学教研楼/上海市慈善教育培训中心（瑞士国总领事馆）,上海市,上海市,静安区,陕西北路80号,优秀历史建筑,TRUE,FALSE,history_culture,semi-known,low-social,free-flow,FALSE
873,上海市公安局静安区分局交通警察支队（程谨轩旧居）,上海市,上海市,静安区,南京西路1550号,优秀历史建筑,TRUE,FALSE,history_culture,semi-known,low-social,free-flow,FALSE
874,上海市医事团体联合管理办公室（上海共济会会址）,上海市,上海市,静安区,北京西路1623-1647号,优秀历史建筑,TRUE,FALSE,history_culture,semi-known,low-social,free-flow,FALSE
875,上海市社会文化管理处/上海市文化艺术档案馆（善道堂）,上海市,上海市,静安区,巨鹿路709号,优秀历史建筑,TRUE,FALSE,history_culture,semi-known,low-social,free-flow,FALSE
876,上海静安置业集团/威海路文化传媒街管委会,上海市,上海市,静安区,威海路590弄77号,优秀历史建筑,TRUE,FALSE,history_culture,semi-known,low-social,free-flow,FALSE
877,南京军区幼儿园,上海市,上海市,静安区,巨鹿路735号,优秀历史建筑,TRUE,FALSE,history_culture,semi-known,low-social,free-flow,FALSE
878,华东模范中学行政楼,上海市,上海市,静安区,延安中路999号（富民路43号）,优秀历史建筑,TRUE,FALSE,history_culture,semi-known,low-social,free-flow,FALSE
879,上海戏剧学院毓琇楼,上海市,上海市,静安区,延安西路355号,优秀历史建筑,TRUE,FALSE,history_culture,semi-known,low-social,free-flow,FALSE
880,培明中学（培明女子中学暨小学）,上海市,上海市,静安区,新闸路1607-1609号,优秀历史建筑,TRUE,FALSE,history_culture,semi-known,low-social,free-flow,FALSE
881,重华小区（南洋大楼）,上海市,上海市,静安区,陕西北路204-216号、南京西路1175-1185号,优秀历史建筑,TRUE,FALSE,history_culture,semi-known,low-social,free-flow,FALSE
882,阿迪达斯/凯世酒店（银河食府/康生洋行）,上海市,上海市,静安区,南京西路931号,优秀历史建筑,TRUE,FALSE,history_culture,semi-known,low-social,free-flow,FALSE
883,静安区图书馆海关楼（江海图书馆）,上海市,上海市,静安区,新闸路1702-1708号,优秀历史建筑,TRUE,FALSE,history_culture,semi-known,low-social,free-flow,FALSE
884,上海市儿童医院（基督教内地会旧址）,上海市,上海市,静安区,新闸路1515-1533号，北京西路1400弄24号,优秀历史建筑,TRUE,FALSE,history_culture,semi-known,low-social,free-flow,FALSE
885,花雅堂（进德女子中学）,上海市,上海市,静安区,延安中路718号、茂名北路65号,优秀历史建筑,TRUE,FALSE,history_culture,semi-known,low-social,free-flow,FALSE
886,警备区第一离休干部休养所（汉冶萍公司上海俱乐部）,上海市,上海市,静安区,北京西路1810弄30号,优秀历史建筑,TRUE,FALSE,history_culture,semi-known,low-social,free-flow,FALSE
887,住宅,上海市,上海市,静安区,胶州路125弄,优秀历史建筑,TRUE,FALSE,history_culture,semi-known,low-social,free-flow,FALSE
888,住宅（青云里）,上海市,上海市,静安区,襄阳北路22弄,优秀历史建筑,TRUE,FALSE,history_culture,semi-known,low-social,free-flow,FALSE
889,退耕小筑（吴镜渊旧居）,上海市,上海市,静安区,长乐路662弄,优秀历史建筑,TRUE,FALSE,history_culture,semi-known,low-social,free-flow,FALSE
890,上海市第一中学（工部局华人女子中学/上海市第一女子中学）,上海市,上海市,静安区,余姚路139号,优秀历史建筑,TRUE,FALSE,history_culture,semi-known,low-social,free-flow,FALSE
891,俏江南（花园住宅）,上海市,上海市,静安区,延安中路881号,优秀历史建筑,TRUE,FALSE,history_culture,semi-known,low-social,free-flow,FALSE
892,上海电影公司/上海美术电影制片厂,上海市,上海市,静安区,万航渡路618号,优秀历史建筑,TRUE,FALSE,history_culture,semi-known,low-social,free-flow,FALSE
893,归仁里,上海市,上海市,静安区,康定东路3弄3-14号,优秀历史建筑,TRUE,FALSE,history_culture,semi-known,low-social,free-flow,FALSE
894,泰来里,上海市,上海市,静安区,康定东路16-17号,优秀历史建筑,TRUE,FALSE,history_culture,semi-known,low-social,free-flow,FALSE
895,卡德大楼（卡德大楼/警察公寓）,上海市,上海市,静安区,石门二路50号,优秀历史建筑,TRUE,FALSE,history_culture,semi-known,low-social,free-flow,FALSE
896,新成大厦（警察公寓）,上海市,上海市,静安区,成都北路337号,优秀历史建筑,TRUE,FALSE,history_culture,semi-known,low-social,free-flow,FALSE
897,中国邮电器材总公司（交通部邮政总局驻沪办事处）,上海市,上海市,静安区,胶州路320号,优秀历史建筑,TRUE,FALSE,history_culture,semi-known,low-social,free-flow,FALSE
898,住宅（花园住宅）,上海市,上海市,静安区,升平街45、65号,优秀历史建筑,TRUE,FALSE,history_culture,semi-known,low-social,free-flow,FALSE
899,上海建筑装饰有限公司（花园住宅）,上海市,上海市,静安区,延安中路632弄50号,优秀历史建筑,TRUE,FALSE,history_culture,semi-known,low-social,free-flow,FALSE
900,南华新邨,上海市,上海市,静安区,长乐路774弄,优秀历史建筑,TRUE,FALSE,history_culture,semi-known,low-social,free-flow,FALSE
901,荣康别墅,上海市,上海市,静安区,常熟路102-120号,优秀历史建筑,TRUE,FALSE,history_culture,semi-known,low-social,free-flow,FALSE
902,海园,上海市,上海市,静安区,华山路343号、351弄1-5、8-12、14、16-20号,优秀历史建筑,TRUE,FALSE,history_culture,semi-known,low-social,free-flow,FALSE
903,上海长途电话局\邮电520厂（交通部直属上海电话局大楼旧址）,上海市,上海市,静安区,永兴路546号,优秀历史建筑,TRUE,FALSE,history_culture,semi-known,low-social,free-flow,FALSE
904,上海市第十人民医院分院/上海市皮肤病医院分院（上海铁道医院）,上海市,上海市,静安区,虬江路1057号,优秀历史建筑,TRUE,FALSE,history_culture,semi-known,low-social,free-flow,FALSE
905,创意仓库（交通银行仓库、四行仓库光二分库）,上海市,上海市,静安区,光复路195号,优秀历史建筑,TRUE,FALSE,history_culture,semi-known,low-social,free-flow,FALSE
906,四行仓库光三分库（福源福康钱庄联合仓库）,上海市,上海市,静安区,光复路115-129号（单号）,优秀历史建筑,TRUE,FALSE,history_culture,semi-known,low-social,free-flow,FALSE
907,商坊会馆（怡和源打包厂）,上海市,上海市,静安区,北苏州路912号,优秀历史建筑,TRUE,FALSE,history_culture,semi-known,low-social,free-flow,FALSE
908,住宅,上海市,上海市,徐汇区,华山路913号,优秀历史建筑,TRUE,FALSE,history_culture,semi-known,low-social,free-flow,FALSE
909,住宅（和平官邸）,上海市,上海市,徐汇区,东平路14-16号（双号）,优秀历史建筑,TRUE,FALSE,history_culture,semi-known,low-social,free-flow,FALSE
910,住宅,上海市,上海市,徐汇区,高安路60号,优秀历史建筑,TRUE,FALSE,history_culture,semi-known,low-social,free-flow,FALSE
911,住宅,上海市,上海市,徐汇区,淮海中路1323号,优秀历史建筑,TRUE,FALSE,history_culture,semi-known,low-social,free-flow,FALSE
912,住宅,上海市,上海市,徐汇区,太原路238号,优秀历史建筑,TRUE,FALSE,history_culture,semi-known,low-social,free-flow,FALSE
913,襄阳公寓,上海市,上海市,徐汇区,襄阳南路254号,优秀历史建筑,TRUE,FALSE,history_culture,semi-known,low-social,free-flow,FALSE
914,公寓（白赛仲公寓）,上海市,上海市,徐汇区,复兴西路26-28号（双号）,优秀历史建筑,TRUE,FALSE,history_culture,semi-known,low-social,free-flow,FALSE
915,剑桥角公寓,上海市,上海市,徐汇区,复兴中路1462弄1-14号,优秀历史建筑,TRUE,FALSE,history_culture,semi-known,low-social,free-flow,FALSE
916,潘兴公寓,上海市,上海市,徐汇区,淮海中路1706号,优秀历史建筑,TRUE,FALSE,history_culture,semi-known,low-social,free-flow,FALSE
917,良友公寓,上海市,上海市,徐汇区,永福路68号、复兴西路91、93号,优秀历史建筑,TRUE,FALSE,history_culture,semi-known,low-social,free-flow,FALSE
918,开普敦公寓,上海市,上海市,徐汇区,武康路240-246号（双号）,优秀历史建筑,TRUE,FALSE,history_culture,semi-known,low-social,free-flow,FALSE
919,国富门公寓,上海市,上海市,徐汇区,武康路230、232号,优秀历史建筑,TRUE,FALSE,history_culture,semi-known,low-social,free-flow,FALSE
920,徐汇新村（漕溪北路小高层）,上海市,上海市,徐汇区,漕溪北路750、800、850、900、950、1000号,优秀历史建筑,TRUE,FALSE,history_culture,semi-known,low-social,free-flow,FALSE
921,住宅,上海市,上海市,徐汇区,武康路210号,优秀历史建筑,TRUE,FALSE,history_culture,semi-known,low-social,free-flow,FALSE
922,住宅,上海市,上海市,徐汇区,高邮路5弄32号,优秀历史建筑,TRUE,FALSE,history_culture,semi-known,low-social,free-flow,FALSE
923,住宅,上海市,上海市,徐汇区,湖南路276号,优秀历史建筑,TRUE,FALSE,history_culture,semi-known,low-social,free-flow,FALSE
924,住宅,上海市,上海市,徐汇区,武康路392号,优秀历史建筑,TRUE,FALSE,history_culture,semi-known,low-social,free-flow,FALSE
925,住宅,上海市,上海市,徐汇区,武康路374、376号,优秀历史建筑,TRUE,FALSE,history_culture,semi-known,low-social,free-flow,FALSE
926,住宅,上海市,上海市,徐汇区,五原路289弄1-2、3-4号,优秀历史建筑,TRUE,FALSE,history_culture,semi-known,low-social,free-flow,FALSE
927,住宅,上海市,上海市,徐汇区,淮海中路1380号,优秀历史建筑,TRUE,FALSE,history_culture,semi-known,low-social,free-flow,FALSE
928,住宅,上海市,上海市,徐汇区,复兴西路147号,优秀历史建筑,TRUE,FALSE,history_culture,semi-known,low-social,free-flow,FALSE
929,台拉新村,上海市,上海市,徐汇区,建国西路365弄（1-11号）、建国西路363号、太原路254-258号（双号）,优秀历史建筑,TRUE,FALSE,history_culture,semi-known,low-social,free-flow,FALSE
930,住宅,上海市,上海市,徐汇区,襄阳南路364号,优秀历史建筑,TRUE,FALSE,history_culture,semi-known,low-social,free-flow,FALSE
931,住宅,上海市,上海市,徐汇区,桃江路7、15、21、25号,优秀历史建筑,TRUE,FALSE,history_culture,semi-known,low-social,free-flow,FALSE
932,住宅,上海市,上海市,徐汇区,东平路2-10号（双号）,优秀历史建筑,TRUE,FALSE,history_culture,semi-known,low-social,free-flow,FALSE
933,住宅,上海市,上海市,徐汇区,东平路1号,优秀历史建筑,TRUE,FALSE,history_culture,semi-known,low-social,free-flow,FALSE
934,上海市市立幼儿园（住宅）,上海市,上海市,徐汇区,建国西路629号,优秀历史建筑,TRUE,FALSE,history_culture,semi-known,low-social,free-flow,FALSE
935,住宅,上海市,上海市,徐汇区,康平路101弄1-4号,优秀历史建筑,TRUE,FALSE,history_culture,semi-known,low-social,free-flow,FALSE
936,住宅,上海市,上海市,徐汇区,宛平路15号,优秀历史建筑,TRUE,FALSE,history_culture,semi-known,low-social,free-flow,FALSE
937,住宅,上海市,上海市,徐汇区,淮海中路1857弄67号,优秀历史建筑,TRUE,FALSE,history_culture,semi-known,low-social,free-flow,FALSE
938,住宅,上海市,上海市,徐汇区,康平路196号,优秀历史建筑,TRUE,FALSE,history_culture,semi-known,low-social,free-flow,FALSE
939,住宅,上海市,上海市,徐汇区,淮海中路1893号,优秀历史建筑,TRUE,FALSE,history_culture,semi-known,low-social,free-flow,FALSE
940,住宅,上海市,上海市,徐汇区,建国西路395弄1-15号、17号，建国西路397号、399号,优秀历史建筑,TRUE,FALSE,history_culture,semi-known,low-social,free-flow,FALSE
941,住宅（上海尚朵文化传播有限公司）,上海市,上海市,徐汇区,襄阳南路525号,优秀历史建筑,TRUE,FALSE,history_culture,semi-known,low-social,free-flow,FALSE
942,住宅,上海市,上海市,徐汇区,太原路4弄,优秀历史建筑,TRUE,FALSE,history_culture,semi-known,low-social,free-flow,FALSE
943,住宅,上海市,上海市,徐汇区,复兴中路1365-1377号（单号）,优秀历史建筑,TRUE,FALSE,history_culture,semi-known,low-social,free-flow,FALSE
944,住宅,上海市,上海市,徐汇区,肇嘉浜路604号,优秀历史建筑,TRUE,FALSE,history_culture,semi-known,low-social,free-flow,FALSE
945,住宅,上海市,上海市,徐汇区,乌鲁木齐路180、182号,优秀历史建筑,TRUE,FALSE,history_culture,semi-known,low-social,free-flow,FALSE
946,住宅,上海市,上海市,徐汇区,高安路77号,优秀历史建筑,TRUE,FALSE,history_culture,semi-known,low-social,free-flow,FALSE
947,上海市文化广播影视管理局老干部活动中心（市文广局老干部活动中心）,上海市,上海市,徐汇区,岳阳路44号,优秀历史建筑,TRUE,FALSE,history_culture,semi-known,low-social,free-flow,FALSE
948,永嘉路628号楼（君悦酒店）,上海市,上海市,徐汇区,永嘉路628号,优秀历史建筑,TRUE,FALSE,history_culture,semi-known,low-social,free-flow,FALSE
949,上海京剧院、上海戏曲艺术中心（上海戏曲艺术中心）,上海市,上海市,徐汇区,岳阳路168弄（1号楼、2号楼）,优秀历史建筑,TRUE,FALSE,history_culture,semi-known,low-social,free-flow,FALSE
950,住宅,上海市,上海市,徐汇区,延庆路121号,优秀历史建筑,TRUE,FALSE,history_culture,semi-known,low-social,free-flow,FALSE
951,住宅,上海市,上海市,徐汇区,新乐路54号,优秀历史建筑,TRUE,FALSE,history_culture,semi-known,low-social,free-flow,FALSE
952,住宅,上海市,上海市,徐汇区,新乐路22-32号（双号）,优秀历史建筑,TRUE,FALSE,history_culture,semi-known,low-social,free-flow,FALSE
953,住宅,上海市,上海市,徐汇区,华亭路30、32、42、44、58号，延庆路132号,优秀历史建筑,TRUE,FALSE,history_culture,semi-known,low-social,free-flow,FALSE
954,住宅,上海市,上海市,徐汇区,延庆路159号,优秀历史建筑,TRUE,FALSE,history_culture,semi-known,low-social,free-flow,FALSE
955,住宅,上海市,上海市,徐汇区,东湖路51号,优秀历史建筑,TRUE,FALSE,history_culture,semi-known,low-social,free-flow,FALSE
956,住宅,上海市,上海市,徐汇区,华亭路93弄1-9号,优秀历史建筑,TRUE,FALSE,history_culture,semi-known,low-social,free-flow,FALSE
957,住宅,上海市,上海市,徐汇区,延庆路18弄10号,优秀历史建筑,TRUE,FALSE,history_culture,semi-known,low-social,free-flow,FALSE
958,住宅,上海市,上海市,徐汇区,华山路823、825、827号,优秀历史建筑,TRUE,FALSE,history_culture,semi-known,low-social,free-flow,FALSE
959,住宅,上海市,上海市,徐汇区,武康路40弄5号,优秀历史建筑,TRUE,FALSE,history_culture,semi-known,low-social,free-flow,FALSE
960,住宅,上海市,上海市,徐汇区,安福路255号,优秀历史建筑,TRUE,FALSE,history_culture,semi-known,low-social,free-flow,FALSE
961,住宅,上海市,上海市,徐汇区,襄阳南路349-355号（单号）,优秀历史建筑,TRUE,FALSE,history_culture,semi-known,low-social,free-flow,FALSE
962,住宅,上海市,上海市,徐汇区,宛平路42号,优秀历史建筑,TRUE,FALSE,history_culture,semi-known,low-social,free-flow,FALSE
963,福禄邨、台拉新邨（福禄村）,上海市,上海市,徐汇区,建国西路384弄1-4号、9-12号、11号甲、12号甲、16-18号、20-27号、30-34号、36-44号、386号甲,优秀历史建筑,TRUE,FALSE,history_culture,semi-known,low-social,free-flow,FALSE
964,新兴盛里，永盛里,上海市,上海市,徐汇区,嘉善路117弄,优秀历史建筑,TRUE,FALSE,history_culture,semi-known,low-social,free-flow,FALSE
965,顾德坊,上海市,上海市,徐汇区,襄阳北路66弄、68弄、70弄、72弄、74弄,优秀历史建筑,TRUE,FALSE,history_culture,semi-known,low-social,free-flow,FALSE
966,大福里,上海市,上海市,徐汇区,延庆路29弄,优秀历史建筑,TRUE,FALSE,history_culture,semi-known,low-social,free-flow,FALSE
967,培福里,上海市,上海市,徐汇区,陕西南路186弄,优秀历史建筑,TRUE,FALSE,history_culture,semi-known,low-social,free-flow,FALSE
968,住宅,上海市,上海市,徐汇区,新乐路34弄（1-3号）、新乐路36号,优秀历史建筑,TRUE,FALSE,history_culture,semi-known,low-social,free-flow,FALSE
969,储康里,上海市,上海市,徐汇区,长乐路401弄,优秀历史建筑,TRUE,FALSE,history_culture,semi-known,low-social,free-flow,FALSE
970,住宅,上海市,上海市,徐汇区,陕西南路222弄20号,优秀历史建筑,TRUE,FALSE,history_culture,semi-known,low-social,free-flow,FALSE
971,住宅,上海市,上海市,徐汇区,新乐路57-61号（单号）,优秀历史建筑,TRUE,FALSE,history_culture,semi-known,low-social,free-flow,FALSE
972,住宅,上海市,上海市,徐汇区,东湖路56弄51-55号（单号）,优秀历史建筑,TRUE,FALSE,history_culture,semi-known,low-social,free-flow,FALSE
973,住宅,上海市,上海市,徐汇区,宝庆路9弄1-6号,优秀历史建筑,TRUE,FALSE,history_culture,semi-known,low-social,free-flow,FALSE
974,住宅,上海市,上海市,徐汇区,延庆路4弄（2-44号）、延庆路2-6号（双号）,优秀历史建筑,TRUE,FALSE,history_culture,semi-known,low-social,free-flow,FALSE
975,住宅,上海市,上海市,徐汇区,延庆路51弄（1-26号）、延庆路39-49号（单号）,优秀历史建筑,TRUE,FALSE,history_culture,semi-known,low-social,free-flow,FALSE
976,住宅,上海市,上海市,徐汇区,五原路84弄（1-34号）、五原路80-88号（双号）,优秀历史建筑,TRUE,FALSE,history_culture,semi-known,low-social,free-flow,FALSE
977,华邨（华邸）,上海市,上海市,徐汇区,五原路76弄（1-16号）、五原路72-74号（双号）,优秀历史建筑,TRUE,FALSE,history_culture,semi-known,low-social,free-flow,FALSE
978,五原路372弄小区（栖霞村）,上海市,上海市,徐汇区,徐汇区五原路372弄6-9号,优秀历史建筑,TRUE,FALSE,history_culture,semi-known,low-social,free-flow,FALSE
979,爱棠新村,上海市,上海市,徐汇区,余庆路146弄13号,优秀历史建筑,TRUE,FALSE,history_culture,semi-known,low-social,free-flow,FALSE
980,茂龄别墅,上海市,上海市,徐汇区,建国西路619弄1-34号,优秀历史建筑,TRUE,FALSE,history_culture,semi-known,low-social,free-flow,FALSE
981,办公（住宅）,上海市,上海市,徐汇区,淮海中路1800号,优秀历史建筑,TRUE,FALSE,history_culture,semi-known,low-social,free-flow,FALSE
982,办公（住宅）,上海市,上海市,徐汇区,余庆路80号,优秀历史建筑,TRUE,FALSE,history_culture,semi-known,low-social,free-flow,FALSE
983,上海中国青年旅社（住宅）,上海市,上海市,徐汇区,衡山路2号、东平路12号,优秀历史建筑,TRUE,FALSE,history_culture,semi-known,low-social,free-flow,FALSE
984,办公（住宅）,上海市,上海市,徐汇区,宝庆路20号,优秀历史建筑,TRUE,FALSE,history_culture,semi-known,low-social,free-flow,FALSE
985,中共上海市纪委,上海市,上海市,徐汇区,宛平路7号,优秀历史建筑,TRUE,FALSE,history_culture,semi-known,low-social,free-flow,FALSE
986,上海教育评估院,上海市,上海市,徐汇区,陕西南路202号,优秀历史建筑,TRUE,FALSE,history_culture,semi-known,low-social,free-flow,FALSE
987,崇源别墅,上海市,上海市,徐汇区,常熟路179号,优秀历史建筑,TRUE,FALSE,history_culture,semi-known,low-social,free-flow,FALSE
988,办公（南区电话局汾阳路分局）,上海市,上海市,徐汇区,汾阳路63号,优秀历史建筑,TRUE,FALSE,history_culture,semi-known,low-social,free-flow,FALSE
989,上海关心下一代工作办公室（菁英会）,上海市,上海市,徐汇区,岳阳路265号,优秀历史建筑,TRUE,FALSE,history_culture,semi-known,low-social,free-flow,FALSE
990,办公,上海市,上海市,徐汇区,建国西路336弄1号,优秀历史建筑,TRUE,FALSE,history_culture,semi-known,low-social,free-flow,FALSE
991,商业（大可庄园）,上海市,上海市,徐汇区,襄阳南路388弄25号,优秀历史建筑,TRUE,FALSE,history_culture,semi-known,low-social,free-flow,FALSE
992,中国科学院生物化学和细胞生物学研究所14号楼（中国科学院生物化学和细胞生物学研究所主楼北侧办公楼）,上海市,上海市,徐汇区,岳阳路320号（14号楼）,优秀历史建筑,TRUE,FALSE,history_culture,semi-known,low-social,free-flow,FALSE
993,中国科学院生物化学和细胞生物学研究所5号楼,上海市,上海市,徐汇区,岳阳路320号（5号楼）,优秀历史建筑,TRUE,FALSE,history_culture,semi-known,low-social,free-flow,FALSE
994,上海中学大礼堂,上海市,上海市,徐汇区,上中路400号,优秀历史建筑,TRUE,FALSE,history_culture,semi-known,low-social,free-flow,FALSE
995,长乐坊,上海市,上海市,徐汇区,长乐路331、333号,优秀历史建筑,TRUE,FALSE,history_culture,semi-known,low-social,free-flow,FALSE
996,北票码头塔吊,上海市,上海市,徐汇区,不详,优秀历史建筑,TRUE,FALSE,history_culture,semi-known,low-social,free-flow,FALSE
997,海事瞭望塔/海事塔,上海市,上海市,徐汇区,徐汇区龙华港、黄浦江河口,优秀历史建筑,TRUE,FALSE,history_culture,semi-known,low-social,free-flow,FALSE
998,住宅（德利那齐宅）,上海市,上海市,徐汇区,武康路129号,优秀历史建筑,TRUE,FALSE,history_culture,semi-known,low-social,free-flow,FALSE
999,龙美术馆西岸馆（龙美术馆）,上海市,上海市,徐汇区,龙腾大道3398号,优秀历史建筑,TRUE,FALSE,history_culture,semi-known,low-social,free-flow,FALSE
1000,余德耀美术馆,上海市,上海市,徐汇区,丰谷路35号,优秀历史建筑,TRUE,FALSE,history_culture,semi-known,low-social,free-flow,FALSE
1001,住宅,上海市,上海市,徐汇区,康平路187-191号（单号）,优秀历史建筑,TRUE,FALSE,history_culture,semi-known,low-social,free-flow,FALSE
1002,住宅,上海市,上海市,徐汇区,淮海中路1222-1238号（双号）,优秀历史建筑,TRUE,FALSE,history_culture,semi-known,low-social,free-flow,FALSE
1003,光明公寓（住宅）,上海市,上海市,徐汇区,淮海中路1200弄（1-4号、7-24号）、淮海中路1200弄6号院（2号楼、3号楼）、淮海中路1176-1182号（双号）,优秀历史建筑,TRUE,FALSE,history_culture,semi-known,low-social,free-flow,FALSE
1004,东湖双拥小区（住宅）,上海市,上海市,徐汇区,永嘉路588-590号（双号）,优秀历史建筑,TRUE,FALSE,history_culture,semi-known,low-social,free-flow,FALSE
1005,住宅,上海市,上海市,徐汇区,长乐路327-329号（单号）,优秀历史建筑,TRUE,FALSE,history_culture,semi-known,low-social,free-flow,FALSE
1006,长乐坊（住宅）,上海市,上海市,徐汇区,长乐路335-337号（单号）,优秀历史建筑,TRUE,FALSE,history_culture,semi-known,low-social,free-flow,FALSE
1007,长乐坊（住宅）,上海市,上海市,徐汇区,陕西南路214号,优秀历史建筑,TRUE,FALSE,history_culture,semi-known,low-social,free-flow,FALSE
1008,住宅,上海市,上海市,徐汇区,常熟路139号,优秀历史建筑,TRUE,FALSE,history_culture,semi-known,low-social,free-flow,FALSE
1009,住宅（局部办公）,上海市,上海市,徐汇区,延庆路42、52号,优秀历史建筑,TRUE,FALSE,history_culture,semi-known,low-social,free-flow,FALSE
1010,住宅（局部办公）,上海市,上海市,徐汇区,襄阳南路313号,优秀历史建筑,TRUE,FALSE,history_culture,semi-known,low-social,free-flow,FALSE
1011,住宅,上海市,上海市,徐汇区,复兴西路299弄1-3号,优秀历史建筑,TRUE,FALSE,history_culture,semi-known,low-social,free-flow,FALSE
1012,慎成里,上海市,上海市,徐汇区,永嘉路291弄1-90号，永嘉路277-307（单号），嘉善路200-230号（双号）,优秀历史建筑,TRUE,FALSE,history_culture,semi-known,low-social,free-flow,FALSE
1013,住宅（慎成里）,上海市,上海市,徐汇区,新乐路44弄（1-15号）、新乐路38-50号（双号）,优秀历史建筑,TRUE,FALSE,history_culture,semi-known,low-social,free-flow,FALSE
1014,住宅（新乐坊）,上海市,上海市,徐汇区,新乐路143弄1-4号,优秀历史建筑,TRUE,FALSE,history_culture,semi-known,low-social,free-flow,FALSE
1015,住宅,上海市,上海市,徐汇区,淮海中路1251弄1-3号,优秀历史建筑,TRUE,FALSE,history_culture,semi-known,low-social,free-flow,FALSE
1016,中信一村（住宅）,上海市,上海市,徐汇区,常熟路163弄1-30号、华亭路18、26号,优秀历史建筑,TRUE,FALSE,history_culture,semi-known,low-social,free-flow,FALSE
1017,中信一村（住宅）,上海市,上海市,徐汇区,延庆路80、82、84号,优秀历史建筑,TRUE,FALSE,history_culture,semi-known,low-social,free-flow,FALSE
1018,住宅,上海市,上海市,徐汇区,长乐路325号、陕西南路164号,优秀历史建筑,TRUE,FALSE,history_culture,semi-known,low-social,free-flow,FALSE
1019,衡山电影院,上海市,上海市,徐汇区,衡山路838号,优秀历史建筑,TRUE,FALSE,history_culture,semi-known,low-social,free-flow,FALSE
1020,上海应用技术学院,上海市,上海市,徐汇区,漕宝路120号,优秀历史建筑,TRUE,FALSE,history_culture,semi-known,low-social,free-flow,FALSE
1021,西岸艺术中心,上海市,上海市,徐汇区,龙腾大道2555号,优秀历史建筑,TRUE,FALSE,history_culture,semi-known,low-social,free-flow,FALSE
1022,住宅,上海市,上海市,徐汇区,湖南路280弄2、4、8、9、20号；296弄14-26号,优秀历史建筑,TRUE,FALSE,history_culture,semi-known,low-social,free-flow,FALSE
1023,上海大厦（百老会大厦）,上海市,上海市,虹口区,北苏州河路2号,优秀历史建筑,TRUE,FALSE,history_culture,semi-known,low-social,free-flow,FALSE
1024,俄罗斯领事馆（苏联领事馆）,上海市,上海市,虹口区,黄浦路20号,优秀历史建筑,TRUE,FALSE,history_culture,semi-known,low-social,free-flow,FALSE
1025,上海市邮政局（上海邮政总局）,上海市,上海市,虹口区,北苏州河路250-276号,优秀历史建筑,TRUE,FALSE,history_culture,semi-known,low-social,free-flow,FALSE
1026,住宅,上海市,上海市,虹口区,多伦路250号,优秀历史建筑,TRUE,FALSE,history_culture,semi-known,low-social,free-flow,FALSE
1027,商业置地公司（日本领事馆/联合救济总署）,上海市,上海市,虹口区,黄浦路106号红楼/灰楼,优秀历史建筑,TRUE,FALSE,history_culture,semi-known,low-social,free-flow,FALSE
1028,河滨公寓,上海市,上海市,虹口区,北苏州路340号,优秀历史建筑,TRUE,FALSE,history_culture,semi-known,low-social,free-flow,FALSE
1029,鸿德堂,上海市,上海市,虹口区,多伦路59号,优秀历史建筑,TRUE,FALSE,history_culture,semi-known,low-social,free-flow,FALSE
1030,海员医院（雷氏德工学院）,上海市,上海市,虹口区,东长治路505号,优秀历史建筑,TRUE,FALSE,history_culture,semi-known,low-social,free-flow,FALSE
1031,远洋运输公司（北方局）,上海市,上海市,虹口区,东大名路378号,优秀历史建筑,TRUE,FALSE,history_culture,semi-known,low-social,free-flow,FALSE
1032,高阳大楼,上海市,上海市,虹口区,东大名路817号,优秀历史建筑,TRUE,FALSE,history_culture,semi-known,low-social,free-flow,FALSE
1033,新亚大酒店（新亚酒楼）,上海市,上海市,虹口区,天潼路422号,优秀历史建筑,TRUE,FALSE,history_culture,semi-known,low-social,free-flow,FALSE
1034,九州商厦（四行大楼）,上海市,上海市,虹口区,四川北路1274号,优秀历史建筑,TRUE,FALSE,history_culture,semi-known,low-social,free-flow,FALSE
1035,工商银行（中国银行大楼）,上海市,上海市,虹口区,四川北路894号,优秀历史建筑,TRUE,FALSE,history_culture,semi-known,low-social,free-flow,FALSE
1036,景灵堂,上海市,上海市,虹口区,昆山路135号,优秀历史建筑,TRUE,FALSE,history_culture,semi-known,low-social,free-flow,FALSE
1037,虹口消防队（虹口救火会）,上海市,上海市,虹口区,哈尔滨路2号,优秀历史建筑,TRUE,FALSE,history_culture,semi-known,low-social,free-flow,FALSE
1038,提篮桥监狱（上海监狱）,上海市,上海市,虹口区,长阳路147号,优秀历史建筑,TRUE,FALSE,history_culture,semi-known,low-social,free-flow,FALSE
1039,住宅（大陆新村/文华新村/淞云别墅/留青小筑）,上海市,上海市,虹口区,山阴路30、44、64、112、124、132、144、156、168、180、192、208、210弄，甜爱路59号、40号，山阴路2弄1-43号，四川北路2044-2058号,优秀历史建筑,TRUE,FALSE,history_culture,semi-known,low-social,free-flow,FALSE
1040,长春公寓,上海市,上海市,虹口区,长春路304号,优秀历史建筑,TRUE,FALSE,history_culture,semi-known,low-social,free-flow,FALSE
1041,住宅,上海市,上海市,虹口区,溧阳路1084弄2-11号、1114弄1-21号、1156弄1-19号、1208弄1-12号、1219、1221、1253、1283、1313、1235、1267、1295、1298、1237、1269、1297、1331、1251、1281、1311、1338号，溧阳路1203弄1-12号,优秀历史建筑,TRUE,FALSE,history_culture,semi-known,low-social,free-flow,FALSE
1042,住宅,上海市,上海市,虹口区,武进路206-296号,优秀历史建筑,TRUE,FALSE,history_culture,semi-known,low-social,free-flow,FALSE
1043,浦江饭店（礼查饭店）,上海市,上海市,虹口区,黄浦路15号,优秀历史建筑,TRUE,FALSE,history_culture,semi-known,low-social,free-flow,FALSE
1044,公寓,上海市,上海市,虹口区,昆山路227号/昆山路277号/昆山花园路1-10号,优秀历史建筑,TRUE,FALSE,history_culture,semi-known,low-social,free-flow,FALSE
1045,住宅,上海市,上海市,虹口区,蟠龙街1-13号,优秀历史建筑,TRUE,FALSE,history_culture,semi-known,low-social,free-flow,FALSE
1046,梦幻柔情舞厅（西本愿寺）,上海市,上海市,虹口区,乍浦路455号,优秀历史建筑,TRUE,FALSE,history_culture,semi-known,low-social,free-flow,FALSE
1047,虹口大楼（虹口大旅社）,上海市,上海市,虹口区,海宁路449号,优秀历史建筑,TRUE,FALSE,history_culture,semi-known,low-social,free-flow,FALSE
1048,上海纺织老干部活动室（住宅）,上海市,上海市,虹口区,多伦路215号,优秀历史建筑,TRUE,FALSE,history_culture,semi-known,low-social,free-flow,FALSE
1049,祥德路住宅,上海市,上海市,虹口区,祥德路2弄,优秀历史建筑,TRUE,FALSE,history_culture,semi-known,low-social,free-flow,FALSE
1050,瑞康公寓,上海市,上海市,虹口区,四川北路18号,优秀历史建筑,TRUE,FALSE,history_culture,semi-known,low-social,free-flow,FALSE
1051,大桥公寓,上海市,上海市,虹口区,四川北路85号,优秀历史建筑,TRUE,FALSE,history_culture,semi-known,low-social,free-flow,FALSE
1052,信谊大药厂（德邻公寓）,上海市,上海市,虹口区,四川北路71号1-6幢，崇明路82号,优秀历史建筑,TRUE,FALSE,history_culture,semi-known,low-social,free-flow,FALSE
1053,浦西公寓（批亚斯公寓）,上海市,上海市,虹口区,蟠龙街26号，乍浦路199-215号，塘沽路411-429号,优秀历史建筑,TRUE,FALSE,history_culture,semi-known,low-social,free-flow,FALSE
1054,小浦西公寓,上海市,上海市,虹口区,塘沽路387-401号,优秀历史建筑,TRUE,FALSE,history_culture,semi-known,low-social,free-flow,FALSE
1055,上海市安装工程有限公司（工部局西童女子学校）,上海市,上海市,虹口区,塘沽路390号,优秀历史建筑,TRUE,FALSE,history_culture,semi-known,low-social,free-flow,FALSE
1056,住宅（景林庐）,上海市,上海市,虹口区,乍浦路260号，昆山路141-177号，254弄22-27号,优秀历史建筑,TRUE,FALSE,history_culture,semi-known,low-social,free-flow,FALSE
1057,闵行大楼（角田公寓）,上海市,上海市,虹口区,闵行路171-181号，201-211号，峨眉路70-80号,优秀历史建筑,TRUE,FALSE,history_culture,semi-known,low-social,free-flow,FALSE
1058,海军托儿所（英华书馆）,上海市,上海市,虹口区,武进路412号,优秀历史建筑,TRUE,FALSE,history_culture,semi-known,low-social,free-flow,FALSE
1059,华东师范大学附属第一中学（华童公学/汉壁礼男校/光华大夏大学附属中学）,上海市,上海市,虹口区,中州路102号,优秀历史建筑,TRUE,FALSE,history_culture,semi-known,low-social,free-flow,FALSE
1060,1933老场坊（工部局宰牲场/新亚集团产业）,上海市,上海市,虹口区,沙泾路10号、29号,优秀历史建筑,TRUE,FALSE,history_culture,semi-known,low-social,free-flow,FALSE
1061,永丰坊、大德里、恒安坊,上海市,上海市,虹口区,四川北路1515弄20-24号、34-105号，1519-1543号，1545弄1-33号、1-19号，1549-1551号,优秀历史建筑,TRUE,FALSE,history_culture,semi-known,low-social,free-flow,FALSE
1062,群众影剧院（广东大戏院/虹光大戏院）,上海市,上海市,虹口区,四川北路1552号,优秀历史建筑,TRUE,FALSE,history_culture,semi-known,low-social,free-flow,FALSE
1063,溧阳大楼（狄思威公寓）,上海市,上海市,虹口区,四川北路1914-1932号,优秀历史建筑,TRUE,FALSE,history_culture,semi-known,low-social,free-flow,FALSE
1064,永安里,上海市,上海市,虹口区,四川北路1953弄、多伦路152-192号,优秀历史建筑,TRUE,FALSE,history_culture,semi-known,low-social,free-flow,FALSE
1065,钱币博物馆/卫生局（花园住宅）,上海市,上海市,虹口区,四川北路2023弄35号,优秀历史建筑,TRUE,FALSE,history_culture,semi-known,low-social,free-flow,FALSE
1066,北川公寓（拉摩斯公寓）,上海市,上海市,虹口区,四川北路2079-2099号,优秀历史建筑,TRUE,FALSE,history_culture,semi-known,low-social,free-flow,FALSE
1067,复兴初级中学（西童公学）,上海市,上海市,虹口区,四川北路2066号,优秀历史建筑,TRUE,FALSE,history_culture,semi-known,low-social,free-flow,FALSE
1068,上海青岛啤酒华东（控股）有限公司（樱苑别墅）,上海市,上海市,虹口区,四川北路2365号,优秀历史建筑,TRUE,FALSE,history_culture,semi-known,low-social,free-flow,FALSE
1069,海军411医院（白氏旧居）,上海市,上海市,虹口区,多伦路210号,优秀历史建筑,TRUE,FALSE,history_culture,semi-known,low-social,free-flow,FALSE
1070,恒丰里，新恒丰里,上海市,上海市,虹口区,山阴路69弄、85弄,优秀历史建筑,TRUE,FALSE,history_culture,semi-known,low-social,free-flow,FALSE
1071,东照里（日照里）,上海市,上海市,虹口区,山阴路133弄,优秀历史建筑,TRUE,FALSE,history_culture,semi-known,low-social,free-flow,FALSE
1072,花园里,上海市,上海市,虹口区,山阴路145弄,优秀历史建筑,TRUE,FALSE,history_culture,semi-known,low-social,free-flow,FALSE
1073,亚细亚里,上海市,上海市,虹口区,黄渡路107弄、109号,优秀历史建筑,TRUE,FALSE,history_culture,semi-known,low-social,free-flow,FALSE
1074,摩西会堂,上海市,上海市,虹口区,长阳路62号,优秀历史建筑,TRUE,FALSE,history_culture,semi-known,low-social,free-flow,FALSE
1075,住宅,上海市,上海市,虹口区,霍山路71-95号，舟山路21-81号,优秀历史建筑,TRUE,FALSE,history_culture,semi-known,low-social,free-flow,FALSE
1076,住宅,上海市,上海市,虹口区,霍山路119-121号，127-137号，125弄3-5号,优秀历史建筑,TRUE,FALSE,history_culture,semi-known,low-social,free-flow,FALSE
1077,住宅,上海市,上海市,虹口区,长阳路50弄15-31号,优秀历史建筑,TRUE,FALSE,history_culture,semi-known,low-social,free-flow,FALSE
1078,住宅,上海市,上海市,虹口区,杨树浦路197-213号,优秀历史建筑,TRUE,FALSE,history_culture,semi-known,low-social,free-flow,FALSE
1079,住宅,上海市,上海市,虹口区,临潼路25-89号、99弄,优秀历史建筑,TRUE,FALSE,history_culture,semi-known,low-social,free-flow,FALSE
1080,新华印刷厂及部队住宅（花园住宅）,上海市,上海市,虹口区,榆林路43号、47号、59号、63号大宅,优秀历史建筑,TRUE,FALSE,history_culture,semi-known,low-social,free-flow,FALSE
1081,虹口区城市管理行政执法局（花园住宅）,上海市,上海市,虹口区,东汉阳路205号,优秀历史建筑,TRUE,FALSE,history_culture,semi-known,low-social,free-flow,FALSE
1082,公安大楼（上海市警察局虹口分局）,上海市,上海市,虹口区,塘沽路219号,优秀历史建筑,TRUE,FALSE,history_culture,semi-known,low-social,free-flow,FALSE
1083,住宅,上海市,上海市,虹口区,山阴路275弄（1-4号）、四达路262、266、272、274、286号,优秀历史建筑,TRUE,FALSE,history_culture,semi-known,low-social,free-flow,FALSE
1084,住宅,上海市,上海市,虹口区,东体育会路119弄22、23号,优秀历史建筑,TRUE,FALSE,history_culture,semi-known,low-social,free-flow,FALSE
1085,住宅,上海市,上海市,虹口区,祥德路25弄1号、2、3号,优秀历史建筑,TRUE,FALSE,history_culture,semi-known,low-social,free-flow,FALSE
1086,住宅,上海市,上海市,虹口区,山阴路209弄（1-9号）、229弄（1-6号）,优秀历史建筑,TRUE,FALSE,history_culture,semi-known,low-social,free-flow,FALSE
1087,住宅,上海市,上海市,虹口区,黄渡路79号,优秀历史建筑,TRUE,FALSE,history_culture,semi-known,low-social,free-flow,FALSE
1088,住宅,上海市,上海市,虹口区,祥德路66弄（1-3号）,优秀历史建筑,TRUE,FALSE,history_culture,semi-known,low-social,free-flow,FALSE
1089,住宅,上海市,上海市,虹口区,黄渡路17弄3号,优秀历史建筑,TRUE,FALSE,history_culture,semi-known,low-social,free-flow,FALSE
1090,住宅（恩德堂教堂及宿舍）,上海市,上海市,虹口区,武进路225弄（3-11号）,优秀历史建筑,TRUE,FALSE,history_culture,semi-known,low-social,free-flow,FALSE
1091,住宅（日本教堂）,上海市,上海市,虹口区,乍浦路439号,优秀历史建筑,TRUE,FALSE,history_culture,semi-known,low-social,free-flow,FALSE
1092,住宅（裕棠庚住宅）,上海市,上海市,虹口区,平凉路25号,优秀历史建筑,TRUE,FALSE,history_culture,semi-known,low-social,free-flow,FALSE
1093,住宅,上海市,上海市,虹口区,保定路410-448号（双号）,优秀历史建筑,TRUE,FALSE,history_culture,semi-known,low-social,free-flow,FALSE
1094,住宅（新沙逊洋行、东南日报）,上海市,上海市,虹口区,"长春路307-365号,四川北路1938-1950号（双号）",优秀历史建筑,TRUE,FALSE,history_culture,semi-known,low-social,free-flow,FALSE
1095,积善里,上海市,上海市,虹口区,山阴路340弄(1-31号)、320号、350号,优秀历史建筑,TRUE,FALSE,history_culture,semi-known,low-social,free-flow,FALSE
1096,住宅,上海市,上海市,虹口区,山阴路274弄（1-11号）,优秀历史建筑,TRUE,FALSE,history_culture,semi-known,low-social,free-flow,FALSE
1097,丰乐里,上海市,上海市,虹口区,四川北路1999弄（1-110号），四川北路2001-2021号（单号）,优秀历史建筑,TRUE,FALSE,history_culture,semi-known,low-social,free-flow,FALSE
1098,公园坊,上海市,上海市,虹口区,西江湾路476弄（1-35号）,优秀历史建筑,TRUE,FALSE,history_culture,semi-known,low-social,free-flow,FALSE
1099,上海市虹口区消费者权益保护委员会（恩德堂）,上海市,上海市,虹口区,乍浦路480、490号(双号),优秀历史建筑,TRUE,FALSE,history_culture,semi-known,low-social,free-flow,FALSE
1100,老电影咖啡馆（花园住宅）,上海市,上海市,虹口区,多伦路123号,优秀历史建筑,TRUE,FALSE,history_culture,semi-known,low-social,free-flow,FALSE
1101,舟山路幼儿园（杭氏住宅）,上海市,上海市,虹口区,舟山路455号,优秀历史建筑,TRUE,FALSE,history_culture,semi-known,low-social,free-flow,FALSE
1102,上海益民食品一厂历史展示馆（海宁洋行旧址）,上海市,上海市,虹口区,香烟桥路13号,优秀历史建筑,TRUE,FALSE,history_culture,semi-known,low-social,free-flow,FALSE
1103,上海赤峰医院（矽肺治疗所/上海第一建筑材料工业公司职工治疗所/上海市建材局职工治疗所）,上海市,上海市,虹口区,东体育会支路41号,优秀历史建筑,TRUE,FALSE,history_culture,semi-known,low-social,free-flow,FALSE
1104,三多里,上海市,上海市,虹口区,周家嘴路786弄（31-65号）,优秀历史建筑,TRUE,FALSE,history_culture,semi-known,low-social,free-flow,FALSE
1105,住宅,上海市,上海市,虹口区,四川北路2299弄（1-3号）、2319弄（1-3号）、2339弄（1-3号）、2305-2345号（单号）,优秀历史建筑,TRUE,FALSE,history_culture,semi-known,low-social,free-flow,FALSE
1106,住宅,上海市,上海市,虹口区,东体育会路119弄（老3号）,优秀历史建筑,TRUE,FALSE,history_culture,semi-known,low-social,free-flow,FALSE
1107,上城集团（赵植初住宅/王造时旧居）,上海市,上海市,虹口区,多伦路93号,优秀历史建筑,TRUE,FALSE,history_culture,semi-known,low-social,free-flow,FALSE
1108,虹口区第三中心幼儿园（花园住宅）,上海市,上海市,虹口区,山阴路181号,优秀历史建筑,TRUE,FALSE,history_culture,semi-known,low-social,free-flow,FALSE
1109,新乡路幼儿园（广东浸信会/崇德小学）,上海市,上海市,虹口区,川公路109号、新乡路66号,优秀历史建筑,TRUE,FALSE,history_culture,semi-known,low-social,free-flow,FALSE
1110,北外滩苏宁广场（苏宁宝丽嘉酒店）（公济医院）,上海市,上海市,虹口区,北苏州路190号、天潼路365号,优秀历史建筑,TRUE,FALSE,history_culture,semi-known,low-social,free-flow,FALSE
1111,金山大楼,上海市,上海市,虹口区,金山路43-61号（单号）、大名路60-86（双号）,优秀历史建筑,TRUE,FALSE,history_culture,semi-known,low-social,free-flow,FALSE
1112,住宅（扆虹园）,上海市,上海市,虹口区,武进路453-457号（单号）,优秀历史建筑,TRUE,FALSE,history_culture,semi-known,low-social,free-flow,FALSE
1113,公寓,上海市,上海市,虹口区,长治路119-135号（单号）、闵行路172号,优秀历史建筑,TRUE,FALSE,history_culture,semi-known,low-social,free-flow,FALSE
1114,住宅（同仁医院）,上海市,上海市,虹口区,长治路155-159号（单号）、南浔路193号,优秀历史建筑,TRUE,FALSE,history_culture,semi-known,low-social,free-flow,FALSE
1115,住宅,上海市,上海市,虹口区,唐山路753号,优秀历史建筑,TRUE,FALSE,history_culture,semi-known,low-social,free-flow,FALSE
1116,住宅,上海市,上海市,虹口区,塘沽路73弄（8-22号），南浔路140号,优秀历史建筑,TRUE,FALSE,history_culture,semi-known,low-social,free-flow,FALSE
1117,住宅,上海市,上海市,虹口区,舟山路394号,优秀历史建筑,TRUE,FALSE,history_culture,semi-known,low-social,free-flow,FALSE
1118,公寓（商铺及住宅，隶属公益坊）,上海市,上海市,虹口区,四川北路975-987号（单号），四川北路1297-1311号（单号）,优秀历史建筑,TRUE,FALSE,history_culture,semi-known,low-social,free-flow,FALSE
1119,住宅,上海市,上海市,虹口区,高阳路165-167号（单号）,优秀历史建筑,TRUE,FALSE,history_culture,semi-known,low-social,free-flow,FALSE
1120,住宅（皇家旅馆Royal Hotel）,上海市,上海市,虹口区,武进路393弄（14号）、武进路409号,优秀历史建筑,TRUE,FALSE,history_culture,semi-known,low-social,free-flow,FALSE
1121,杨浦区人口和家庭计划指导服务中心1号楼（住宅）,上海市,上海市,杨浦区,龙江路2号,优秀历史建筑,TRUE,FALSE,history_culture,semi-known,low-social,free-flow,FALSE
1122,隆昌公寓（公共租界杨树浦路巡捕房营房旧址/格兰路巡捕房）,上海市,上海市,杨浦区,隆昌路362号,优秀历史建筑,TRUE,FALSE,history_culture,semi-known,low-social,free-flow,FALSE
1123,住宅,上海市,上海市,杨浦区,吉林路5号,优秀历史建筑,TRUE,FALSE,history_culture,semi-known,low-social,free-flow,FALSE
1124,办公（住宅）,上海市,上海市,杨浦区,平凉路250号,优秀历史建筑,TRUE,FALSE,history_culture,semi-known,low-social,free-flow,FALSE
1125,市东小学（聂家花园）,上海市,上海市,杨浦区,辽阳路51弄,优秀历史建筑,TRUE,FALSE,history_culture,semi-known,low-social,free-flow,FALSE
1126,平凉路派出所（住宅）,上海市,上海市,杨浦区,杨树浦路713号,优秀历史建筑,TRUE,FALSE,history_culture,semi-known,low-social,free-flow,FALSE
1127,杨浦区政府（公共租界榆林路巡捕旧址）,上海市,上海市,杨浦区,江浦路549号,优秀历史建筑,TRUE,FALSE,history_culture,semi-known,low-social,free-flow,FALSE
1128,住宅,上海市,上海市,杨浦区,平凉路629号,优秀历史建筑,TRUE,FALSE,history_culture,semi-known,low-social,free-flow,FALSE
1129,市东中学教学楼（聂中丞华童公学/缉槼中学教学楼）,上海市,上海市,杨浦区,荆州路42号,优秀历史建筑,TRUE,FALSE,history_culture,semi-known,low-social,free-flow,FALSE
1130,上海市消防总队杨浦支队杨浦中队（公共租界杨树浦救火会旧址）,上海市,上海市,杨浦区,杨树浦路1307号,优秀历史建筑,TRUE,FALSE,history_culture,semi-known,low-social,free-flow,FALSE
1131,上海市公安局杨浦分局、上海市国家安全局杨浦分局（公共租界杨树浦路巡捕房旧址/格兰路巡捕房）,上海市,上海市,杨浦区,平凉路2049号,优秀历史建筑,TRUE,FALSE,history_culture,semi-known,low-social,free-flow,FALSE
1132,杨浦路2086号建筑群（日商上海纺织株式会社旧址）,上海市,上海市,杨浦区,杨树浦路2086号,优秀历史建筑,TRUE,FALSE,history_culture,semi-known,low-social,free-flow,FALSE
1133,上海船厂修船分厂（瑞瑢船厂旧址）,上海市,上海市,杨浦区,杨树浦路640号,优秀历史建筑,TRUE,FALSE,history_culture,semi-known,low-social,free-flow,FALSE
1134,住宅（颐庆里住宅）,上海市,上海市,杨浦区,景星路310、314弄（1-9号）,优秀历史建筑,TRUE,FALSE,history_culture,semi-known,low-social,free-flow,FALSE
1135,住宅（大业印刷厂职员工房）,上海市,上海市,杨浦区,福禄街193-209号（单号）,优秀历史建筑,TRUE,FALSE,history_culture,semi-known,low-social,free-flow,FALSE
1136,住宅,上海市,上海市,杨浦区,龙江路50-66号（双号）,优秀历史建筑,TRUE,FALSE,history_culture,semi-known,low-social,free-flow,FALSE
1137,榆林路308号楼（华生印务公司/华一印刷股份有限公司）,上海市,上海市,杨浦区,榆林路308-312号（双号）,优秀历史建筑,TRUE,FALSE,history_culture,semi-known,low-social,free-flow,FALSE
1138,国顺路650弄住宅,上海市,上海市,杨浦区,国顺路650弄（1-78号）,优秀历史建筑,TRUE,FALSE,history_culture,semi-known,low-social,free-flow,FALSE
1139,白庐（原上海浚浦局职员俱乐部）,上海市,上海市,杨浦区,共青路386号,优秀历史建筑,TRUE,FALSE,history_culture,semi-known,low-social,free-flow,FALSE
1140,住宅（Sou Yen Siao Cho Lane）,上海市,上海市,长宁区,愚园路789弄91-103号,优秀历史建筑,TRUE,FALSE,history_culture,semi-known,low-social,free-flow,FALSE
1141,住宅（朱学仁住宅/中共长宁区委党校/长宁区人民法院）,上海市,上海市,长宁区,愚园路684号,优秀历史建筑,TRUE,FALSE,history_culture,semi-known,low-social,free-flow,FALSE
1142,花园住宅,上海市,上海市,长宁区,愚园路714号,优秀历史建筑,TRUE,FALSE,history_culture,semi-known,low-social,free-flow,FALSE
1143,住宅（梁兆来住宅）,上海市,上海市,长宁区,华山路978号,优秀历史建筑,TRUE,FALSE,history_culture,semi-known,low-social,free-flow,FALSE
1144,唐氏花园住宅（住宅）,上海市,上海市,长宁区,愚园路838弄20、22、30、32号,优秀历史建筑,TRUE,FALSE,history_culture,semi-known,low-social,free-flow,FALSE
1145,亨昌里,上海市,上海市,长宁区,愚园路1376弄（4-42号）、1362-1374号（双号）,优秀历史建筑,TRUE,FALSE,history_culture,semi-known,low-social,free-flow,FALSE
1146,住宅,上海市,上海市,长宁区,武夷路188号,优秀历史建筑,TRUE,FALSE,history_culture,semi-known,low-social,free-flow,FALSE
1147,住宅,上海市,上海市,长宁区,江苏路128号,优秀历史建筑,TRUE,FALSE,history_culture,semi-known,low-social,free-flow,FALSE
1148,住宅,上海市,上海市,长宁区,武夷路154号,优秀历史建筑,TRUE,FALSE,history_culture,semi-known,low-social,free-flow,FALSE
1149,弘基创意国际园（上海长征制药厂）,上海市,上海市,长宁区,愚园路1107号（8、9号楼）,优秀历史建筑,TRUE,FALSE,history_culture,semi-known,low-social,free-flow,FALSE
1150,住宅（丰田纱厂干部住宅）,上海市,上海市,长宁区,愚园路1249弄2号楼,优秀历史建筑,TRUE,FALSE,history_culture,semi-known,low-social,free-flow,FALSE
1151,宁波市政府驻沪办事处/长宁区妇幼保健院（住宅）,上海市,上海市,长宁区,武夷路49弄,优秀历史建筑,TRUE,FALSE,history_culture,semi-known,low-social,free-flow,FALSE
1152,住宅,上海市,上海市,长宁区,武夷路234号,优秀历史建筑,TRUE,FALSE,history_culture,semi-known,low-social,free-flow,FALSE
1153,花园住宅,上海市,上海市,长宁区,愚园路1055号,优秀历史建筑,TRUE,FALSE,history_culture,semi-known,low-social,free-flow,FALSE
1154,住宅,上海市,上海市,长宁区,愚园路1293弄2号,优秀历史建筑,TRUE,FALSE,history_culture,semi-known,low-social,free-flow,FALSE
1155,住宅,上海市,上海市,长宁区,武夷路95弄4号、6号、8号、16号、18号、20号,优秀历史建筑,TRUE,FALSE,history_culture,semi-known,low-social,free-flow,FALSE
1156,住宅（长宁区机关事务管理局）,上海市,上海市,长宁区,武夷路100号,优秀历史建筑,TRUE,FALSE,history_culture,semi-known,low-social,free-flow,FALSE
1157,住宅,上海市,上海市,长宁区,武夷路174号,优秀历史建筑,TRUE,FALSE,history_culture,semi-known,low-social,free-flow,FALSE
1158,中共上海市长宁区委老干部局（花园住宅）,上海市,上海市,长宁区,愚园路1136弄34号,优秀历史建筑,TRUE,FALSE,history_culture,semi-known,low-social,free-flow,FALSE
1159,住宅,上海市,上海市,长宁区,愚园路1132弄、1136弄57号,优秀历史建筑,TRUE,FALSE,history_culture,semi-known,low-social,free-flow,FALSE
1160,住宅,上海市,上海市,长宁区,愚园路1039号,优秀历史建筑,TRUE,FALSE,history_culture,semi-known,low-social,free-flow,FALSE
1161,住宅（丰田纱厂干部住宅）,上海市,上海市,长宁区,愚园路1249弄1号,优秀历史建筑,TRUE,FALSE,history_culture,semi-known,low-social,free-flow,FALSE
1162,住宅,上海市,上海市,长宁区,愚园路1221弄4、6、10、14号,优秀历史建筑,TRUE,FALSE,history_culture,semi-known,low-social,free-flow,FALSE
1163,住宅,上海市,上海市,长宁区,武定西路1201、1207号,优秀历史建筑,TRUE,FALSE,history_culture,semi-known,low-social,free-flow,FALSE
1164,兴国宾馆（太古洋行大班住宅）,上海市,上海市,长宁区,华山路1245号,优秀历史建筑,TRUE,FALSE,history_culture,semi-known,low-social,free-flow,FALSE
1165,办公（英国医院/“美丽牌香烟大王”陈楚湘住宅/大中化学化工厂/南林师范学校/中山北路第八小学）,上海市,上海市,普陀区,凯旋北路1555弄,优秀历史建筑,TRUE,FALSE,history_culture,semi-known,low-social,free-flow,FALSE
1166,办公楼（中楼、东楼、西楼）（华东师范大学办公楼）,上海市,上海市,普陀区,中山北路3663号,优秀历史建筑,TRUE,FALSE,history_culture,semi-known,low-social,free-flow,FALSE
1167,华东师大思群堂（大夏大学思群堂）,上海市,上海市,普陀区,中山北路3663号,优秀历史建筑,TRUE,FALSE,history_culture,semi-known,low-social,free-flow,FALSE
1168,上海江东书院（清溪茶馆）,上海市,上海市,浦东新区,高桥镇东街16-28号（双号）,优秀历史建筑,TRUE,FALSE,history_culture,semi-known,low-social,free-flow,FALSE
1169,高桥人家陈列馆（凌氏民宅）,上海市,上海市,浦东新区,高桥镇西街163-171号（单号）,优秀历史建筑,TRUE,FALSE,history_culture,semi-known,low-social,free-flow,FALSE
1170,关帝庙,上海市,上海市,浦东新区,西市街54、56号,优秀历史建筑,TRUE,FALSE,history_culture,semi-known,low-social,free-flow,FALSE
1171,龚路居民委员会（“贤生”宅）,上海市,上海市,浦东新区,龚路东街20号,优秀历史建筑,TRUE,FALSE,history_culture,semi-known,low-social,free-flow,FALSE
1172,洋泾中学3、4号楼（洋泾中学办公楼、实验楼）,上海市,上海市,浦东新区,潍坊路111号,优秀历史建筑,TRUE,FALSE,history_culture,semi-known,low-social,free-flow,FALSE
1173,三林敬老院（花园住宅）,上海市,上海市,浦东新区,三林镇长清路2315号,优秀历史建筑,TRUE,FALSE,history_culture,semi-known,low-social,free-flow,FALSE
1174,叶氏花行,上海市,上海市,浦东新区,新场镇洪西街114-126号（双号）、新奉公路105号,优秀历史建筑,TRUE,FALSE,history_culture,semi-known,low-social,free-flow,FALSE
1175,王和生宅,上海市,上海市,浦东新区,新场古镇新场大街195号,优秀历史建筑,TRUE,FALSE,history_culture,semi-known,low-social,free-flow,FALSE
1176,新场大街169－171号楼（裕大南货店）,上海市,上海市,浦东新区,新场镇新场大街169-173号(单号),优秀历史建筑,TRUE,FALSE,history_culture,semi-known,low-social,free-flow,FALSE
1177,住宅,上海市,上海市,浦东新区,大团镇永春西二路66-70号(双号),优秀历史建筑,TRUE,FALSE,history_culture,semi-known,low-social,free-flow,FALSE
1178,张氏宅,上海市,上海市,浦东新区,三林镇东林街65弄7号,优秀历史建筑,TRUE,FALSE,history_culture,semi-known,low-social,free-flow,FALSE
1179,住宅,上海市,上海市,浦东新区,三林镇中林街131弄5号,优秀历史建筑,TRUE,FALSE,history_culture,semi-known,low-social,free-flow,FALSE
1180,连宏生宅,上海市,上海市,浦东新区,合庆镇华星村连家宅67号,优秀历史建筑,TRUE,FALSE,history_culture,semi-known,low-social,free-flow,FALSE
1181,住宅（民宅）,上海市,上海市,浦东新区,高桥镇西街173弄（1-3号）、西街175-181号（单号）,优秀历史建筑,TRUE,FALSE,history_culture,semi-known,low-social,free-flow,FALSE
1182,郑生官宅,上海市,上海市,浦东新区,新场镇新场大街190号,优秀历史建筑,TRUE,FALSE,history_culture,semi-known,low-social,free-flow,FALSE
1183,川沙营造馆（丁家花园）,上海市,上海市,浦东新区,川沙镇东泥弄9号、北市街19号,优秀历史建筑,TRUE,FALSE,history_culture,semi-known,low-social,free-flow,FALSE
1184,谢氏商铺,上海市,上海市,浦东新区,新场镇洪西街2弄、新场大街399-401号（单号）,优秀历史建筑,TRUE,FALSE,history_culture,semi-known,low-social,free-flow,FALSE
1185,陆家花苑（三德堂、崇德堂）,上海市,上海市,浦东新区,川沙镇北城壕路64号,优秀历史建筑,TRUE,FALSE,history_culture,semi-known,low-social,free-flow,FALSE
1186,上海市浦东新区新场镇工农居民委员会（张小乙宅）,上海市,上海市,浦东新区,新场镇新场大街283号,优秀历史建筑,TRUE,FALSE,history_culture,semi-known,low-social,free-flow,FALSE
1187,张氏住宅,上海市,上海市,浦东新区,周浦镇川周公路4436号,优秀历史建筑,TRUE,FALSE,history_culture,semi-known,low-social,free-flow,FALSE
1188,三林中学（三林书院旧址）,上海市,上海市,浦东新区,三林镇三林路658号,优秀历史建筑,TRUE,FALSE,history_culture,semi-known,low-social,free-flow,FALSE
1189,松庐（庞松舟住宅）,上海市,上海市,浦东新区,三林镇中林街66号,优秀历史建筑,TRUE,FALSE,history_culture,semi-known,low-social,free-flow,FALSE
1190,中国锣鼓书艺术馆（中华楼）,上海市,上海市,浦东新区,新场镇新场大街141-145号(单号),优秀历史建筑,TRUE,FALSE,history_culture,semi-known,low-social,free-flow,FALSE
1191,高桥绒绣馆（黄氏民宅）,上海市,上海市,浦东新区,高桥镇西街133弄1、3号，西街135-139号（单号）,优秀历史建筑,TRUE,FALSE,history_culture,semi-known,low-social,free-flow,FALSE
1192,以道堂、以德堂,上海市,上海市,浦东新区,川沙镇北城壕路84-88号（双号）,优秀历史建筑,TRUE,FALSE,history_culture,semi-known,low-social,free-flow,FALSE
1193,花园住宅（钟宅）,上海市,上海市,浦东新区,高桥镇石家街29号,优秀历史建筑,TRUE,FALSE,history_culture,semi-known,low-social,free-flow,FALSE
1194,蔡氏民宅（蔡宅）,上海市,上海市,浦东新区,高桥镇季景北路714弄11号,优秀历史建筑,TRUE,FALSE,history_culture,semi-known,low-social,free-flow,FALSE
1195,中国船舶工业集团公司（原英商马勒机器造船厂）,上海市,上海市,浦东新区,浦东大道2789号,优秀历史建筑,TRUE,FALSE,history_culture,semi-known,low-social,free-flow,FALSE
1196,浦东派琵琶艺术传习中心（方氏住宅、张贵宾宅）,上海市,上海市,浦东新区,新场镇新场大街114号南侧,优秀历史建筑,TRUE,FALSE,history_culture,semi-known,low-social,free-flow,FALSE
1197,沈氏民宅（沈宅）,上海市,上海市,浦东新区,高桥镇西街124弄1号,优秀历史建筑,TRUE,FALSE,history_culture,semi-known,low-social,free-flow,FALSE
1198,住宅,上海市,上海市,浦东新区,航头镇下沙街219-223号（单号）,优秀历史建筑,TRUE,FALSE,history_culture,semi-known,low-social,free-flow,FALSE
1199,李锦章宅（李氏住宅、李锦章宅）,上海市,上海市,浦东新区,新场镇新场大街265号，267弄1-11号，269号,优秀历史建筑,TRUE,FALSE,history_culture,semi-known,low-social,free-flow,FALSE
1200,住宅,上海市,上海市,浦东新区,大团镇永春北路139-143号（单号）,优秀历史建筑,TRUE,FALSE,history_culture,semi-known,low-social,free-flow,FALSE
1201,住宅,上海市,上海市,浦东新区,花园街28弄1-8号、30、32、34、36、38、40弄1-18号、48弄1-10号,优秀历史建筑,TRUE,FALSE,history_culture,semi-known,low-social,free-flow,FALSE
1202,住宅,上海市,上海市,浦东新区,航头镇下沙街西段,优秀历史建筑,TRUE,FALSE,history_culture,semi-known,low-social,free-flow,FALSE
1203,住宅（吴宅）,上海市,上海市,浦东新区,张江镇江东路33弄2号,优秀历史建筑,TRUE,FALSE,history_culture,semi-known,low-social,free-flow,FALSE
1204,奚家厅,上海市,上海市,浦东新区,新场镇洪东街118号-126号（双号），新场大街452弄,优秀历史建筑,TRUE,FALSE,history_culture,semi-known,low-social,free-flow,FALSE
1205,施家天主堂（五星天主堂）,上海市,上海市,浦东新区,宣桥镇三灶村五星支弄704号,优秀历史建筑,TRUE,FALSE,history_culture,semi-known,low-social,free-flow,FALSE
1206,吴氏民居,上海市,上海市,浦东新区,川沙新镇大洪村吴家宅19号,优秀历史建筑,TRUE,FALSE,history_culture,semi-known,low-social,free-flow,FALSE
1207,川沙中学综合大楼（川沙私立友仁初级中学）,上海市,上海市,浦东新区,川沙新镇新川路324号川沙中学内,优秀历史建筑,TRUE,FALSE,history_culture,semi-known,low-social,free-flow,FALSE
1208,住宅,上海市,上海市,浦东新区,高桥镇西街42-48号（双号）,优秀历史建筑,TRUE,FALSE,history_culture,semi-known,low-social,free-flow,FALSE
1209,住宅,上海市,上海市,浦东新区,周浦镇西大街134号,优秀历史建筑,TRUE,FALSE,history_culture,semi-known,low-social,free-flow,FALSE
1210,住宅,上海市,上海市,浦东新区,川沙新镇陈桥村1149号,优秀历史建筑,TRUE,FALSE,history_culture,semi-known,low-social,free-flow,FALSE
1211,住宅,上海市,上海市,浦东新区,川沙新镇陈桥村1156号,优秀历史建筑,TRUE,FALSE,history_culture,semi-known,low-social,free-flow,FALSE
1212,住宅,上海市,上海市,浦东新区,川沙新镇护塘街111号-115号（单号）,优秀历史建筑,TRUE,FALSE,history_culture,semi-known,low-social,free-flow,FALSE
1213,住宅（小湾区公所）,上海市,上海市,浦东新区,唐镇镇小湾村东张家宅1号,优秀历史建筑,TRUE,FALSE,history_culture,semi-known,low-social,free-flow,FALSE
1214,高桥镇石家街27弄3号、季景北路608-612号（李元庆民宅、民宅）,上海市,上海市,浦东新区,高桥镇石家街27弄3号、季景北路608-612号（双号）,优秀历史建筑,TRUE,FALSE,history_culture,semi-known,low-social,free-flow,FALSE
1215,杜氏宅（杜正华旧居）,上海市,上海市,松江区,松江区仓城秀南街6、8号,优秀历史建筑,TRUE,FALSE,history_culture,semi-known,low-social,free-flow,FALSE
1216,康氏宅、沈氏三宅、宋氏宅、候氏宅（康奉吉宅、螃蜞老妪宅、宋士琼宅、侯宅、沈开三宅）,上海市,上海市,松江区,松江区仓城秀南街102号-114号（双号）,优秀历史建筑,TRUE,FALSE,history_culture,semi-known,low-social,free-flow,FALSE
1217,陆氏宅,上海市,上海市,松江区,松江区仓城秀中山西路317-323号（单号）,优秀历史建筑,TRUE,FALSE,history_culture,semi-known,low-social,free-flow,FALSE
1218,花神堂,上海市,上海市,宝山区,罗店赵巷街136号,优秀历史建筑,TRUE,FALSE,history_culture,semi-known,low-social,free-flow,FALSE
1219,倪葆生旧居（倪葆生住宅、志愿军驻地、粮管所粮仓）,上海市,上海市,崇明区,崇明区堡镇财贸村石桥834号,优秀历史建筑,TRUE,FALSE,history_culture,semi-known,low-social,free-flow,FALSE
1220,住宅,上海市,上海市,金山区,枫泾镇生产街70号、油车弄2号,优秀历史建筑,TRUE,FALSE,history_culture,semi-known,low-social,free-flow,FALSE
1221,三百园（陈舜俞故居、枫泾民俗博物馆）,上海市,上海市,金山区,枫泾镇和平街49号,优秀历史建筑,TRUE,FALSE,history_culture,semi-known,low-social,free-flow,FALSE
1222,丁蹄作坊（丁义兴熟食店、丁义兴小酒店）,上海市,上海市,金山区,枫泾镇南大街149号,优秀历史建筑,TRUE,FALSE,history_culture,semi-known,low-social,free-flow,FALSE
1223,住宅（庄行东街沿街商铺民宅）,上海市,上海市,奉贤区,庄行镇一新路95-97号（单号）、庄行东街6-50号（双号）、庄行东街17-43号（单号）,优秀历史建筑,TRUE,FALSE,history_culture,semi-known,low-social,free-flow,FALSE
1224,住宅,上海市,上海市,奉贤区,青村镇中街10弄9-12号、18弄1-4号、20-26号（双号）,优秀历史建筑,TRUE,FALSE,history_culture,semi-known,low-social,free-flow,FALSE
1225,汇龙潭公园,上海市,上海市,嘉定区,嘉定镇沙霞路68号,优秀历史建筑,TRUE,FALSE,history_culture,semi-known,low-social,free-flow,FALSE
1226,天主堂（耶稣圣心堂、宫保桥天主堂）,上海市,上海市,嘉定区,嘉定镇中下塘街99号,优秀历史建筑,TRUE,FALSE,history_culture,semi-known,low-social,free-flow,FALSE
1227,嘉定别墅（华兴永电气公司职工疗养所、塔前招待所）,上海市,上海市,嘉定区,嘉定镇南大街321号,优秀历史建筑,TRUE,FALSE,history_culture,semi-known,low-social,free-flow,FALSE
1228,南翔双塔周边,上海市,上海市,嘉定区,南翔镇解放街218、222号、237号，人民街44、46、58、65、67、69、71、73、75号,优秀历史建筑,TRUE,FALSE,history_culture,semi-known,low-social,free-flow,FALSE
1229,仲宅,上海市,上海市,青浦区,朱家角镇胜利街239弄7号,优秀历史建筑,TRUE,FALSE,history_culture,semi-known,low-social,free-flow,FALSE
1230,朱家角天主堂,上海市,上海市,青浦区,朱家角镇漕河街317弄27号,优秀历史建筑,TRUE,FALSE,history_culture,semi-known,low-social,free-flow,FALSE
1231,住宅,上海市,上海市,青浦区,练塘镇东风街109、110号,优秀历史建筑,TRUE,FALSE,history_culture,semi-known,low-social,free-flow,FALSE
1232,住宅,上海市,上海市,青浦区,练塘镇下塘街44弄19-38号及北侧构筑物,优秀历史建筑,TRUE,FALSE,history_culture,semi-known,low-social,free-flow,FALSE
1233,住宅,上海市,上海市,青浦区,朱家角镇东湖街209弄,优秀历史建筑,TRUE,FALSE,history_culture,semi-known,low-social,free-flow,FALSE
1234,住宅（陆家米行旧址）,上海市,上海市,青浦区,练塘镇前进街77号,优秀历史建筑,TRUE,FALSE,history_culture,semi-known,low-social,free-flow,FALSE
1235,周氏民宅,上海市,上海市,青浦区,朱家镇东市街157号,优秀历史建筑,TRUE,FALSE,history_culture,semi-known,low-social,free-flow,FALSE
1236,井亭饭店（杨氏民宅）,上海市,上海市,青浦区,朱家角镇西井街56弄,优秀历史建筑,TRUE,FALSE,history_culture,semi-known,low-social,free-flow,FALSE
1237,证大朱家角艺术馆、淼趣楼（淼趣楼）,上海市,上海市,青浦区,朱家角镇北大街222号,优秀历史建筑,TRUE,FALSE,history_culture,semi-known,low-social,free-flow,FALSE
1238,下塘街16号楼（陈家仓库）,上海市,上海市,青浦区,金泽镇下塘街16号,优秀历史建筑,TRUE,FALSE,history_culture,semi-known,low-social,free-flow,FALSE
1239,青浦区朱家角镇景区管理办公室（张氏民宅）,上海市,上海市,青浦区,朱家角镇祥凝浜路602号,优秀历史建筑,TRUE,FALSE,history_culture,semi-known,low-social,free-flow,FALSE
1240,住宅,上海市,上海市,青浦区,白鹤镇鹤江路369号,优秀历史建筑,TRUE,FALSE,history_culture,semi-known,low-social,free-flow,FALSE
1241,住宅,上海市,上海市,青浦区,重固镇通波塘西街53号,优秀历史建筑,TRUE,FALSE,history_culture,semi-known,low-social,free-flow,FALSE
1242,邮政博物馆,上海市,上海市,,,,FALSE,TRUE,history_culture,hidden_gem,low-social,free-flow,TRUE
1243,徐家汇教堂,上海市,上海市,,,,FALSE,TRUE,general,hidden_gem,mixed,free-flow,TRUE
1244,中华艺术宫,上海市,上海市,,,,FALSE,TRUE,art_design,hidden_gem,mixed,free-flow,TRUE
1245,王下一桶,上海市,上海市,,,,FALSE,TRUE,general,hidden_gem,mixed,free-flow,TRUE
1246,美术馆,上海市,上海市,,,,FALSE,TRUE,art_design,hidden_gem,mixed,free-flow,TRUE
1247,迪士尼城堡,上海市,上海市,,,,FALSE,TRUE,general,hidden_gem,mixed,free-flow,TRUE
1248,武康路,上海市,上海市,,,,FALSE,TRUE,urban_walk,hidden_gem,mixed,free-flow,TRUE
1249,共青公园,上海市,上海市,,,,FALSE,TRUE,nature,hidden_gem,low-social,free-flow,TRUE
1250,静安寺天桥,上海市,上海市,,,,FALSE,TRUE,general,hidden_gem,mixed,free-flow,TRUE
1251,北外滩滨江,上海市,上海市,,,,FALSE,TRUE,general,hidden_gem,mixed,free-flow,TRUE
1252,武康大楼,上海市,上海市,,,,FALSE,TRUE,general,hidden_gem,mixed,free-flow,TRUE
1253,江景,上海市,上海市,,,,FALSE,TRUE,general,hidden_gem,mixed,free-flow,TRUE
1254,4F,上海市,上海市,,,,FALSE,TRUE,general,hidden_gem,mixed,free-flow,TRUE
1255,上海米哈游老总部,上海市,上海市,,,,FALSE,TRUE,general,hidden_gem,mixed,free-flow,TRUE
1256,顾村公园,上海市,上海市,,,,FALSE,TRUE,nature,hidden_gem,low-social,free-flow,TRUE
1257,猫岛,上海市,上海市,,,,FALSE,TRUE,general,hidden_gem,mixed,free-flow,TRUE
1258,圆明园路,上海市,上海市,,,,FALSE,TRUE,urban_walk,hidden_gem,mixed,free-flow,TRUE
1259,鲁迅公园,上海市,上海市,,,,FALSE,TRUE,nature,hidden_gem,low-social,free-flow,TRUE
1260,甜爱路,上海市,上海市,,,,FALSE,TRUE,urban_walk,hidden_gem,mixed,free-flow,TRUE
1261,马勒别墅,上海市,上海市,,,,FALSE,TRUE,general,hidden_gem,mixed,free-flow,TRUE
1262,小巨蛋,上海市,上海市,,,,FALSE,TRUE,general,hidden_gem,mixed,free-flow,TRUE
1263,半岛酒店门口,上海市,上海市,,,,FALSE,TRUE,general,hidden_gem,mixed,free-flow,TRUE
1264,长宁金融园,上海市,上海市,,,,FALSE,TRUE,general,hidden_gem,mixed,free-flow,TRUE
1265,灵石路花鸟市场,上海市,上海市,,,,FALSE,TRUE,urban_walk,hidden_gem,mixed,free-flow,TRUE
1266,航海公园,上海市,上海市,,,,FALSE,TRUE,nature,hidden_gem,low-social,free-flow,TRUE
1267,星穹列车,上海市,上海市,,,,FALSE,TRUE,general,hidden_gem,mixed,free-flow,TRUE
1268,天安千树,上海市,上海市,,,,FALSE,TRUE,general,hidden_gem,mixed,free-flow,TRUE
1269,广富林,上海市,上海市,,,,FALSE,TRUE,general,hidden_gem,mixed,free-flow,TRUE
1270,遐蝶,上海市,上海市,,,,FALSE,TRUE,general,hidden_gem,mixed,free-flow,TRUE
1271,武定路,上海市,上海市,,,,FALSE,TRUE,urban_walk,hidden_gem,mixed,free-flow,TRUE
1272,上海外国语大学（松江）,上海市,上海市,,,,FALSE,TRUE,general,hidden_gem,mixed,free-flow,TRUE
1273,浦东国际机场,上海市,上海市,,,,FALSE,TRUE,general,hidden_gem,mixed,free-flow,TRUE
1274,万国建筑,上海市,上海市,,,,FALSE,TRUE,general,hidden_gem,mixed,free-flow,TRUE
1275,翡悦里街区,上海市,上海市,,,,FALSE,TRUE,urban_walk,hidden_gem,mixed,free-flow,TRUE
1276,武夷MIX320街区,上海市,上海市,,,,FALSE,TRUE,urban_walk,hidden_gem,mixed,free-flow,TRUE
1277,外滩源联合教堂,上海市,上海市,,,,FALSE,TRUE,general,hidden_gem,mixed,free-flow,TRUE
1278,茂名南路,上海市,上海市,,,,FALSE,TRUE,urban_walk,hidden_gem,mixed,free-flow,TRUE
1279,南京西路张园,上海市,上海市,,,,FALSE,TRUE,urban_walk,hidden_gem,mixed,free-flow,TRUE
1280,宝山宜家,上海市,上海市,,,,FALSE,TRUE,general,hidden_gem,mixed,free-flow,TRUE
1281,美罗城,上海市,上海市,,,,FALSE,TRUE,general,hidden_gem,mixed,free-flow,TRUE
1282,上海音乐学院（汾阳路）,上海市,上海市,,,,FALSE,TRUE,urban_walk,hidden_gem,mixed,free-flow,TRUE
1283,国内最大星巴克,上海市,上海市,,,,FALSE,TRUE,general,hidden_gem,mixed,free-flow,TRUE
1284,韩国街,上海市,上海市,,,,FALSE,TRUE,urban_walk,hidden_gem,mixed,free-flow,TRUE
1285,思南路咖啡,上海市,上海市,,,,FALSE,TRUE,urban_walk,hidden_gem,mixed,free-flow,TRUE
1286,四行仓库,上海市,上海市,,,,FALSE,TRUE,general,hidden_gem,mixed,free-flow,TRUE
1287,复旦大学（江湾）,上海市,上海市,,,,FALSE,TRUE,general,hidden_gem,mixed,free-flow,TRUE
1288,北外滩,上海市,上海市,,,,FALSE,TRUE,general,hidden_gem,mixed,free-flow,TRUE
1289,西岸美术馆,上海市,上海市,,,,FALSE,TRUE,art_design,hidden_gem,mixed,free-flow,TRUE
1290,平安里,上海市,上海市,,,,FALSE,TRUE,urban_walk,hidden_gem,mixed,free-flow,TRUE
1291,米哈游老总部展厅,上海市,上海市,,,,FALSE,TRUE,art_design,hidden_gem,mixed,free-flow,TRUE
1292,民生渡口,上海市,上海市,,,,FALSE,TRUE,general,hidden_gem,mixed,free-flow,TRUE
1293,展览,上海市,上海市,,,,FALSE,TRUE,art_design,hidden_gem,mixed,free-flow,TRUE
1294,宝山滨江绿地,上海市,上海市,,,,FALSE,TRUE,nature,hidden_gem,low-social,free-flow,TRUE
1295,蟠龙天地,上海市,上海市,,,,FALSE,TRUE,general,hidden_gem,mixed,free-flow,TRUE
1296,邦布,上海市,上海市,,,,FALSE,TRUE,general,hidden_gem,mixed,free-flow,TRUE
1297,静安寺,上海市,上海市,,,,FALSE,TRUE,general,hidden_gem,mixed,free-flow,TRUE
1298,黄浦江,上海市,上海市,,,,FALSE,TRUE,general,hidden_gem,mixed,free-flow,TRUE
1299,巨人展,上海市,上海市,,,,FALSE,TRUE,art_design,hidden_gem,mixed,free-flow,TRUE
1300,杨浦湿地,上海市,上海市,,,,FALSE,TRUE,nature,hidden_gem,low-social,free-flow,TRUE
1301,共青森林公园,上海市,上海市,,,,FALSE,TRUE,nature,hidden_gem,low-social,free-flow,TRUE
1302,上体,上海市,上海市,,,,FALSE,TRUE,general,hidden_gem,mixed,free-flow,TRUE
1303,HAI550,上海市,上海市,,,,FALSE,TRUE,general,hidden_gem,mixed,free-flow,TRUE
1304,北外滩巨蛋,上海市,上海市,,,,FALSE,TRUE,general,hidden_gem,mixed,free-flow,TRUE
1305,世纪汇,上海市,上海市,,,,FALSE,TRUE,general,hidden_gem,mixed,free-flow,TRUE
1306,流萤萨姆机甲,上海市,上海市,,,,FALSE,TRUE,general,hidden_gem,mixed,free-flow,TRUE
1307,五角场,上海市,上海市,,,,FALSE,TRUE,general,hidden_gem,mixed,free-flow,TRUE
1308,宝山日月光,上海市,上海市,,,,FALSE,TRUE,general,hidden_gem,mixed,free-flow,TRUE
1309,快闪店,上海市,上海市,,,,FALSE,TRUE,general,hidden_gem,mixed,free-flow,TRUE
1310,鑫耀·光环Live,上海市,上海市,,,,FALSE,TRUE,general,hidden_gem,mixed,free-flow,TRUE
1311,西文书局,上海市,上海市,,,,FALSE,TRUE,general,hidden_gem,mixed,free-flow,TRUE
1312,七夕慢闪bar,上海市,上海市,,,,FALSE,TRUE,general,hidden_gem,mixed,free-flow,TRUE
1313,外滩,上海市,上海市,,,,FALSE,TRUE,general,hidden_gem,mixed,free-flow,TRUE
1314,华政长宁校区,上海市,上海市,,,,FALSE,TRUE,general,hidden_gem,mixed,free-flow,TRUE
1315,佘山,上海市,上海市,,,,FALSE,TRUE,general,hidden_gem,mixed,free-flow,TRUE
1316,浦东lalaland,上海市,上海市,,,,FALSE,TRUE,general,hidden_gem,mixed,free-flow,TRUE
1317,新乐路,上海市,上海市,,,,FALSE,TRUE,urban_walk,hidden_gem,mixed,free-flow,TRUE
1318,七宝古镇,上海市,上海市,,,,FALSE,TRUE,general,hidden_gem,mixed,free-flow,TRUE
1319,上海,上海市,上海市,,,,FALSE,TRUE,general,hidden_gem,mixed,free-flow,TRUE
1320,大宁公园,上海市,上海市,,,,FALSE,TRUE,nature,hidden_gem,low-social,free-flow,TRUE
1321,思南书局,上海市,上海市,,,,FALSE,TRUE,general,hidden_gem,mixed,free-flow,TRUE
1322,莫奈花园,上海市,上海市,,,,FALSE,TRUE,general,hidden_gem,mixed,free-flow,TRUE
1323,春美术馆,上海市,上海市,,,,FALSE,TRUE,art_design,hidden_gem,mixed,free-flow,TRUE
1324,1F,上海市,上海市,,,,FALSE,TRUE,general,hidden_gem,mixed,free-flow,TRUE
1325,自然博物馆,上海市,上海市,,,,FALSE,TRUE,history_culture,hidden_gem,low-social,free-flow,TRUE
1326,言叶之庭,上海市,上海市,,,,FALSE,TRUE,general,hidden_gem,mixed,free-flow,TRUE
1327,游戏博物馆,上海市,上海市,,,,FALSE,TRUE,history_culture,hidden_gem,low-social,free-flow,TRUE
1328,BFC,上海市,上海市,,,,FALSE,TRUE,general,hidden_gem,mixed,free-flow,TRUE
1329,宝山滨江步道,上海市,上海市,,,,FALSE,TRUE,general,hidden_gem,mixed,free-flow,TRUE
1330,帮布,上海市,上海市,,,,FALSE,TRUE,general,hidden_gem,mixed,free-flow,TRUE
1331,徐家汇公园,上海市,上海市,,,,FALSE,TRUE,nature,hidden_gem,low-social,free-flow,TRUE
1332,中山公园,上海市,上海市,,,,FALSE,TRUE,nature,hidden_gem,low-social,free-flow,TRUE
1333,新天地,上海市,上海市,,,,FALSE,TRUE,general,hidden_gem,mixed,free-flow,TRUE
1334,龙之梦,上海市,上海市,,,,FALSE,TRUE,general,hidden_gem,mixed,free-flow,TRUE
1335,金虹桥,上海市,上海市,,,,FALSE,TRUE,general,hidden_gem,mixed,free-flow,TRUE
1336,人广来福士,上海市,上海市,,,,FALSE,TRUE,general,hidden_gem,mixed,free-flow,TRUE
1337,共青,上海市,上海市,,,,FALSE,TRUE,general,hidden_gem,mixed,free-flow,TRUE
1338,安福路,上海市,上海市,,,,FALSE,TRUE,urban_walk,hidden_gem,mixed,free-flow,TRUE
1339,南京西路石门路,上海市,上海市,,,,FALSE,TRUE,urban_walk,hidden_gem,mixed,free-flow,TRUE
1340,天文馆,上海市,上海市,,,,FALSE,TRUE,general,hidden_gem,mixed,free-flow,TRUE
1341,米哈游老总部,上海市,上海市,,,,FALSE,TRUE,general,hidden_gem,mixed,free-flow,TRUE
1342,闵行文化公园,上海市,上海市,,,,FALSE,TRUE,nature,hidden_gem,low-social,free-flow,TRUE
1343,泰晤士,上海市,上海市,,,,FALSE,TRUE,general,hidden_gem,mixed,free-flow,TRUE
1344,苏州河,上海市,上海市,,,,FALSE,TRUE,general,hidden_gem,mixed,free-flow,TRUE
1345,虹桥站,上海市,上海市,,,,FALSE,TRUE,general,hidden_gem,mixed,free-flow,TRUE
1346,北京东路,上海市,上海市,,,,FALSE,TRUE,urban_walk,hidden_gem,mixed,free-flow,TRUE
1347,华山路,上海市,上海市,,,,FALSE,TRUE,urban_walk,hidden_gem,mixed,free-flow,TRUE
1348,朵云,上海市,上海市,,,,FALSE,TRUE,general,hidden_gem,mixed,free-flow,TRUE
1349,陆家嘴滨江公园,上海市,上海市,,,,FALSE,TRUE,nature,hidden_gem,low-social,free-flow,TRUE
1350,《七彩心桥》展览,上海市,上海市,,,,FALSE,TRUE,art_design,hidden_gem,mixed,free-flow,TRUE
1351,辰山植物园,上海市,上海市,,,,FALSE,TRUE,general,hidden_gem,mixed,free-flow,TRUE
1352,汽车博物馆,上海市,上海市,,,,FALSE,TRUE,history_culture,hidden_gem,low-social,free-flow,TRUE
1353,华东政法大学（松江）,上海市,上海市,,,,FALSE,TRUE,general,hidden_gem,mixed,free-flow,TRUE
1354,静安雕塑公园,上海市,上海市,,,,FALSE,TRUE,nature,hidden_gem,low-social,free-flow,TRUE
1355,严同春住宅,上海市,上海市,,,,FALSE,TRUE,general,hidden_gem,mixed,free-flow,TRUE
1356,淮海路,上海市,上海市,,,,FALSE,TRUE,urban_walk,hidden_gem,mixed,free-flow,TRUE
1357,淮海tx,上海市,上海市,,,,FALSE,TRUE,general,hidden_gem,mixed,free-flow,TRUE
1358,世博文化公园,上海市,上海市,,,,FALSE,TRUE,nature,hidden_gem,low-social,free-flow,TRUE
1359,浦东美术馆,上海市,上海市,,,,FALSE,TRUE,art_design,hidden_gem,mixed,free-flow,TRUE
1360,中共一大会址,上海市,上海市,,,,FALSE,TRUE,general,hidden_gem,mixed,free-flow,TRUE
1361,滨江步道,上海市,上海市,,,,FALSE,TRUE,general,hidden_gem,mixed,free-flow,TRUE
1362,衡山路,上海市,上海市,,,,FALSE,TRUE,urban_walk,hidden_gem,mixed,free-flow,TRUE
1363,愚园路,上海市,上海市,,,,FALSE,TRUE,urban_walk,hidden_gem,mixed,free-flow,TRUE
1364,迪士尼,上海市,上海市,,,,FALSE,TRUE,general,hidden_gem,mixed,free-flow,TRUE
1365,百联ZX,上海市,上海市,,,,FALSE,TRUE,general,hidden_gem,mixed,free-flow,TRUE
1366,徐家汇,上海市,上海市,,,,FALSE,TRUE,general,hidden_gem,mixed,free-flow,TRUE
1367,翡悦里,上海市,上海市,,,,FALSE,TRUE,urban_walk,hidden_gem,mixed,free-flow,TRUE
1368,日落长廊,上海市,上海市,,,,FALSE,TRUE,general,hidden_gem,mixed,free-flow,TRUE
1369,梅园公园,上海市,上海市,,,,FALSE,TRUE,nature,hidden_gem,low-social,free-flow,TRUE
1370,上生新所,上海市,上海市,,,,FALSE,TRUE,general,hidden_gem,mixed,free-flow,TRUE
1371,上海米哈游新总部展厅,上海市,上海市,,,,FALSE,TRUE,art_design,hidden_gem,mixed,free-flow,TRUE
1372,滨江,上海市,上海市,,,,FALSE,TRUE,general,hidden_gem,mixed,free-flow,TRUE
1373,大学路,上海市,上海市,,,,FALSE,TRUE,urban_walk,hidden_gem,mixed,free-flow,TRUE
1374,长宁区少年宫,上海市,上海市,,,,FALSE,TRUE,general,hidden_gem,mixed,free-flow,TRUE
1375,陕西南路,上海市,上海市,,,,FALSE,TRUE,urban_walk,hidden_gem,mixed,free-flow,TRUE
1376,同济大学,上海市,上海市,,,,FALSE,TRUE,general,hidden_gem,mixed,free-flow,TRUE
1377,浦东南路,上海市,上海市,,,,FALSE,TRUE,urban_walk,hidden_gem,mixed,free-flow,TRUE
1378,世博,上海市,上海市,,,,FALSE,TRUE,general,hidden_gem,mixed,free-flow,TRUE
1379,东方明珠,上海市,上海市,,,,FALSE,TRUE,general,hidden_gem,mixed,free-flow,TRUE
1380,东方明珠三件套,上海市,上海市,,,,FALSE,TRUE,general,hidden_gem,mixed,free-flow,TRUE
1381,人民公园,上海市,上海市,,,,FALSE,TRUE,nature,hidden_gem,low-social,free-flow,TRUE
1382,博物馆,上海市,上海市,,,,FALSE,TRUE,history_culture,hidden_gem,low-social,free-flow,TRUE
1383,初号机,上海市,上海市,,,,FALSE,TRUE,general,hidden_gem,mixed,free-flow,TRUE
1384,杜莎夫人蜡像馆,上海市,上海市,,,,FALSE,TRUE,general,hidden_gem,mixed,free-flow,TRUE
1385,豫园（城隍庙）,上海市,上海市,,,,FALSE,TRUE,general,hidden_gem,mixed,free-flow,TRUE
1386,【无景点信息】,上海市,上海市,,,,FALSE,TRUE,general,hidden_gem,mixed,free-flow,TRUE
1387,来福士,上海市,上海市,,,,FALSE,TRUE,general,hidden_gem,mixed,free-flow,TRUE
1388,外滩潮基嘉年华,上海市,上海市,,,,FALSE,TRUE,general,hidden_gem,mixed,free-flow,TRUE
1389,上海理工大学（黄亦玫学校取景地）,上海市,上海市,,,,FALSE,TRUE,general,hidden_gem,mixed,free-flow,TRUE
1390,温室,上海市,上海市,,,,FALSE,TRUE,general,hidden_gem,mixed,free-flow,TRUE
1391,汾阳花园,上海市,上海市,,,,FALSE,TRUE,general,hidden_gem,mixed,free-flow,TRUE
1392,歇浦路lalaland,上海市,上海市,,,,FALSE,TRUE,urban_walk,hidden_gem,mixed,free-flow,TRUE
1393,南昌路,上海市,上海市,,,,FALSE,TRUE,urban_walk,hidden_gem,mixed,free-flow,TRUE
1394,第一百货C馆,上海市,上海市,,,,FALSE,TRUE,general,hidden_gem,mixed,free-flow,TRUE
1395,淀山湖,上海市,上海市,,,,FALSE,TRUE,nature,hidden_gem,low-social,free-flow,TRUE
1396,苏河万象天地,上海市,上海市,,,,FALSE,TRUE,general,hidden_gem,mixed,free-flow,TRUE
1397,公安博物馆,上海市,上海市,,,,FALSE,TRUE,history_culture,hidden_gem,low-social,free-flow,TRUE
1398,新天安堂,上海市,上海市,,,,FALSE,TRUE,general,hidden_gem,mixed,free-flow,TRUE
1399,双子山,上海市,上海市,,,,FALSE,TRUE,general,hidden_gem,mixed,free-flow,TRUE
1400,淡水路,上海市,上海市,,,,FALSE,TRUE,urban_walk,hidden_gem,mixed,free-flow,TRUE
1401,圆明园路北京东路交叉口,上海市,上海市,,,,FALSE,TRUE,urban_walk,hidden_gem,mixed,free-flow,TRUE
1402,上海体育大学（杨浦）,上海市,上海市,,,,FALSE,TRUE,general,hidden_gem,mixed,free-flow,TRUE
1403,1933老场坊,上海市,上海市,,,,FALSE,TRUE,general,hidden_gem,mixed,free-flow,TRUE
1404,杨浦滨江,上海市,上海市,,,,FALSE,TRUE,general,hidden_gem,mixed,free-flow,TRUE
1405,交大,上海市,上海市,,,,FALSE,TRUE,general,hidden_gem,mixed,free-flow,TRUE
1406,世博滨江,上海市,上海市,,,,FALSE,TRUE,general,hidden_gem,mixed,free-flow,TRUE
1407,上海书城,上海市,上海市,,,,FALSE,TRUE,general,hidden_gem,mixed,free-flow,TRUE
1408,泰晤士小镇,上海市,上海市,,,,FALSE,TRUE,general,hidden_gem,mixed,free-flow,TRUE
1409,转角花店,上海市,上海市,,,,FALSE,TRUE,general,hidden_gem,mixed,free-flow,TRUE
1410,滨江公园,上海市,上海市,,,,FALSE,TRUE,nature,hidden_gem,low-social,free-flow,TRUE
1411,滴水湖,上海市,上海市,,,,FALSE,TRUE,nature,hidden_gem,low-social,free-flow,TRUE
1412,欢乐谷,上海市,上海市,,,,FALSE,TRUE,general,hidden_gem,mixed,free-flow,TRUE
1413,徐汇滨江,上海市,上海市,,,,FALSE,TRUE,general,hidden_gem,mixed,free-flow,TRUE
1414,外滩建筑群,上海市,上海市,,,,FALSE,TRUE,general,hidden_gem,mixed,free-flow,TRUE
1415,福州路,上海市,上海市,,,,FALSE,TRUE,urban_walk,hidden_gem,mixed,free-flow,TRUE
1416,大宁久光,上海市,上海市,,,,FALSE,TRUE,general,hidden_gem,mixed,free-flow,TRUE
1417,上海北外滩国客中心码头1号口,上海市,上海市,,,,FALSE,TRUE,general,hidden_gem,mixed,free-flow,TRUE
1418,苏河湾万象天地,上海市,上海市,,,,FALSE,TRUE,general,hidden_gem,mixed,free-flow,TRUE
1419,街心公园,上海市,上海市,,,,FALSE,TRUE,nature,hidden_gem,low-social,free-flow,TRUE
1420,何东旧居,上海市,上海市,,,,FALSE,TRUE,general,hidden_gem,mixed,free-flow,TRUE
1421,西郊宾馆,上海市,上海市,,,,FALSE,TRUE,general,hidden_gem,mixed,free-flow,TRUE
1422,松江大学城,上海市,上海市,,,,FALSE,TRUE,general,hidden_gem,mixed,free-flow,TRUE
1423,外滩源,上海市,上海市,,,,FALSE,TRUE,general,hidden_gem,mixed,free-flow,TRUE
1424,汽车博览公园,上海市,上海市,,,,FALSE,TRUE,nature,hidden_gem,low-social,free-flow,TRUE
1425,上理工,上海市,上海市,,,,FALSE,TRUE,general,hidden_gem,mixed,free-flow,TRUE
1426,Eka天物街区,上海市,上海市,,,,FALSE,TRUE,urban_walk,hidden_gem,mixed,free-flow,TRUE
1427,宝山滨江公园,上海市,上海市,,,,FALSE,TRUE,nature,hidden_gem,low-social,free-flow,TRUE
1428,复旦,上海市,上海市,,,,FALSE,TRUE,general,hidden_gem,mixed,free-flow,TRUE
1429,Lalaport,上海市,上海市,,,,FALSE,TRUE,general,hidden_gem,mixed,free-flow,TRUE
1430,静安寺地铁站,上海市,上海市,,,,FALSE,TRUE,general,hidden_gem,mixed,free-flow,TRUE
1431,现所,上海市,上海市,,,,FALSE,TRUE,general,hidden_gem,mixed,free-flow,TRUE
1432,米哈游新总部,上海市,上海市,,,,FALSE,TRUE,general,hidden_gem,mixed,free-flow,TRUE
1433,徐家汇天主教堂,上海市,上海市,,,,FALSE,TRUE,general,hidden_gem,mixed,free-flow,TRUE
1434,鑫耀光环live（东区）地下停车场,上海市,上海市,,,,FALSE,TRUE,general,hidden_gem,mixed,free-flow,TRUE
1435,古着服装市场,上海市,上海市,,,,FALSE,TRUE,general,hidden_gem,mixed,free-flow,TRUE
1436,华东政法大学（长宁校区）,上海市,上海市,,,,FALSE,TRUE,general,hidden_gem,mixed,free-flow,TRUE
1437,西岸一溜烟儿的美术馆,上海市,上海市,,,,FALSE,TRUE,art_design,hidden_gem,mixed,free-flow,TRUE
1438,东正教堂,上海市,上海市,,,,FALSE,TRUE,general,hidden_gem,mixed,free-flow,TRUE
1439,广富林遗址,上海市,上海市,,,,FALSE,TRUE,general,hidden_gem,mixed,free-flow,TRUE
1440,东华大学,上海市,上海市,,,,FALSE,TRUE,general,hidden_gem,mixed,free-flow,TRUE
1441,世博源,上海市,上海市,,,,FALSE,TRUE,general,hidden_gem,mixed,free-flow,TRUE
1442,m50创意园,上海市,上海市,,,,FALSE,TRUE,general,hidden_gem,mixed,free-flow,TRUE
1443,淮茂绿地,上海市,上海市,,,,FALSE,TRUE,nature,hidden_gem,low-social,free-flow,TRUE
1444,环球港,上海市,上海市,,,,FALSE,TRUE,general,hidden_gem,mixed,free-flow,TRUE
1445,公园,上海市,上海市,,,,FALSE,TRUE,nature,hidden_gem,low-social,free-flow,TRUE
1446,5F露台,上海市,上海市,,,,FALSE,TRUE,general,hidden_gem,mixed,free-flow,TRUE
1447,中山东一路,上海市,上海市,,,,FALSE,TRUE,urban_walk,hidden_gem,mixed,free-flow,TRUE
1448,外文书店,上海市,上海市,,,,FALSE,TRUE,general,hidden_gem,mixed,free-flow,TRUE
1449,玻璃博物馆,上海市,上海市,,,,FALSE,TRUE,history_culture,hidden_gem,low-social,free-flow,TRUE
1450,多伦路名人街,上海市,上海市,,,,FALSE,TRUE,urban_walk,hidden_gem,mixed,free-flow,TRUE
1451,南京西路,上海市,上海市,,,,FALSE,TRUE,urban_walk,hidden_gem,mixed,free-flow,TRUE
1452,明珠,上海市,上海市,,,,FALSE,TRUE,general,hidden_gem,mixed,free-flow,TRUE
1453,天潼路转角,上海市,上海市,,,,FALSE,TRUE,urban_walk,hidden_gem,mixed,free-flow,TRUE
1454,外滩6号,上海市,上海市,,,,FALSE,TRUE,general,hidden_gem,mixed,free-flow,TRUE
1455,九江路,上海市,上海市,,,,FALSE,TRUE,urban_walk,hidden_gem,mixed,free-flow,TRUE
1456,外滩观景台,上海市,上海市,,,,FALSE,TRUE,general,hidden_gem,mixed,free-flow,TRUE
1457,陆家嘴,上海市,上海市,,,,FALSE,TRUE,general,hidden_gem,mixed,free-flow,TRUE
1458,田子坊,上海市,上海市,,,,FALSE,TRUE,general,hidden_gem,mixed,free-flow,TRUE
1459,上海展览中心,上海市,上海市,,,,FALSE,TRUE,art_design,hidden_gem,mixed,free-flow,TRUE
1460,米哈游新总部展厅,上海市,上海市,,,,FALSE,TRUE,art_design,hidden_gem,mixed,free-flow,TRUE
1461,定西路,上海市,上海市,,,,FALSE,TRUE,urban_walk,hidden_gem,mixed,free-flow,TRUE
1462,徐家汇书院,上海市,上海市,,,,FALSE,TRUE,general,hidden_gem,mixed,free-flow,TRUE
1463,世纪公园,上海市,上海市,,,,FALSE,TRUE,nature,hidden_gem,low-social,free-flow,TRUE
1464,淮海中路,上海市,上海市,,,,FALSE,TRUE,urban_walk,hidden_gem,mixed,free-flow,TRUE
1465,城市规划馆,上海市,上海市,,,,FALSE,TRUE,general,hidden_gem,mixed,free-flow,TRUE
1466,证券博物馆,上海市,上海市,,,,FALSE,TRUE,history_culture,hidden_gem,low-social,free-flow,TRUE